{
"type": "FeatureCollection",
"name": "faults_morocco",
"crs": { "type": "name", "properties": { "name": "urn:ogc:def:crs:OGC:1.3:CRS84" } },
"features": [
{ "type": "Feature", "properties": { "average_dip": "(50,35,70)", "average_rake": "", "catalog_id": "NAF_0", "catalog_name": "GEM_N_Africa", "dip_dir": "W", "lower_seis_depth": null, "name": "Tazimi Fault", "net_slip_rate": "", "slip_type": "Normal", "upper_seis_depth": null, "downthrown_side_id": null, "reference": "DEM", "epistemic_quality": "2", "accuracy": "30000", "activity_confidence": "2", "fs_name": "Kassita Graben", "last_movement": "", "downthrown_side_dir": "W", "vert_sep_rate": "", "strike_slip_rate": "", "exposure_quality": "2", "shortening_rate": "", "notes": "", "index_right": 26, "NAME_EN": "Morocco" }, "geometry": { "type": "LineString", "coordinates": [ [ -3.671181048023419, 34.927342196283 ], [ -3.665811961114279, 34.912577207282865 ], [ -3.666259385023374, 34.890206011828113 ], [ -3.67655013493256, 34.874546175009783 ], [ -3.70682581944799, 34.854113816494447 ], [ -3.700412743417628, 34.843077360070104 ], [ -3.701158449932787, 34.837708273160963 ], [ -3.695640221720614, 34.829058077585124 ], [ -3.693850526084234, 34.823390708069923 ], [ -3.694596232599393, 34.819811316797157 ] ] } },
{ "type": "Feature", "properties": { "average_dip": "(65,50,85)", "average_rake": "", "catalog_id": "NAF_1", "catalog_name": "GEM_N_Africa", "dip_dir": "NW", "lower_seis_depth": null, "name": "Nekor Fault", "net_slip_rate": "", "slip_type": "Sinistral-Normal", "upper_seis_depth": null, "downthrown_side_id": null, "reference": "DEM; van der Woerd et al., 2014; d'Acremont et al., 2014", "epistemic_quality": "2", "accuracy": "50000", "activity_confidence": "2", "fs_name": "Nekor Fault", "last_movement": "", "downthrown_side_dir": "NW", "vert_sep_rate": "", "strike_slip_rate": "", "exposure_quality": "2", "shortening_rate": "", "notes": "Hard to see in imagery but evident scarp in slope map from 30m SRTM", "index_right": 26, "NAME_EN": "Morocco" }, "geometry": { "type": "LineString", "coordinates": [ [ -3.470511424794294, 35.197660808027912 ], [ -3.491242065915697, 35.18692263420963 ], [ -3.499295696279408, 35.181106123391402 ], [ -3.51592495156744, 35.173798199542851 ], [ -3.522114315643255, 35.169771384360992 ], [ -3.532106782946377, 35.15940606380029 ], [ -3.557311663158731, 35.14538678131531 ], [ -3.5646941576588, 35.133157194466712 ], [ -3.570958092386129, 35.113619683769564 ], [ -3.576178037992238, 35.108698020769516 ], [ -3.620025581083552, 35.085133694890516 ], [ -3.675953569720432, 35.06089823314786 ], [ -3.688108585917514, 35.053515738647796 ], [ -3.700487314069143, 35.048668646299262 ] ] } },
{ "type": "Feature", "properties": { "average_dip": "(50,35,60)", "average_rake": "", "catalog_id": "NAF_2", "catalog_name": "GEM_N_Africa", "dip_dir": "W", "lower_seis_depth": null, "name": "Trougout Fault", "net_slip_rate": "", "slip_type": "Normal-Sinistral", "upper_seis_depth": null, "downthrown_side_id": null, "reference": "Poujol et al., 2014 J. Geodyn.", "epistemic_quality": "1", "accuracy": "50000", "activity_confidence": "1", "fs_name": "Low-Nekor Graben", "last_movement": "", "downthrown_side_dir": "W", "vert_sep_rate": "(0.82,,)", "strike_slip_rate": "(0.5,,)", "exposure_quality": "1", "shortening_rate": "(-0.12,,)", "notes": "", "index_right": 26, "NAME_EN": "Morocco" }, "geometry": { "type": "LineString", "coordinates": [ [ -3.757459291827246, 35.266004810142185 ], [ -3.761709818963649, 35.24654187009655 ], [ -3.761635248312133, 35.221038707278133 ], [ -3.768943172160686, 35.208958261732569 ], [ -3.769241454766749, 35.190017316247541 ], [ -3.774461400372858, 35.170927229459487 ], [ -3.774759682978921, 35.164961577338218 ], [ -3.769987161281908, 35.142441240580439 ], [ -3.778786498160777, 35.132747055883385 ], [ -3.778339074251682, 35.120815751640848 ], [ -3.781321900312316, 35.113358686489264 ], [ -3.799666280585212, 35.096505719246686 ], [ -3.805035367494352, 35.087855523670846 ], [ -3.81189586743381, 35.050868480518993 ] ] } },
{ "type": "Feature", "properties": { "average_dip": "(50,40,65)", "average_rake": "", "catalog_id": "NAF_3", "catalog_name": "GEM_N_Africa", "dip_dir": "E", "lower_seis_depth": null, "name": "Boujibar Fault", "net_slip_rate": "", "slip_type": "Normal", "upper_seis_depth": null, "downthrown_side_id": null, "reference": "Puojol et al., 2014 G. Geodynamics", "epistemic_quality": "2", "accuracy": "30000", "activity_confidence": "2", "fs_name": "Low-Nekor Graben", "last_movement": "", "downthrown_side_dir": "E", "vert_sep_rate": "", "strike_slip_rate": "", "exposure_quality": "1", "shortening_rate": "", "notes": "", "index_right": 26, "NAME_EN": "Morocco" }, "geometry": { "type": "LineString", "coordinates": [ [ -3.943438496707751, 35.245945304884437 ], [ -3.936727138071326, 35.229539761550953 ], [ -3.928524366404583, 35.220740424672087 ] ] } },
{ "type": "Feature", "properties": { "average_dip": "(50,40,65)", "average_rake": "", "catalog_id": "NAF_4", "catalog_name": "GEM_N_Africa", "dip_dir": "E", "lower_seis_depth": null, "name": "Imzouren Fault", "net_slip_rate": "", "slip_type": "Normal", "upper_seis_depth": null, "downthrown_side_id": null, "reference": "Poujol et al., 2014 J. Geodynamics", "epistemic_quality": "2", "accuracy": "50000", "activity_confidence": "2", "fs_name": "Low-Nekor Graben", "last_movement": "", "downthrown_side_dir": "E", "vert_sep_rate": "", "strike_slip_rate": "", "exposure_quality": "2", "shortening_rate": "", "notes": "May be at the next terrace flight down", "index_right": 26, "NAME_EN": "Morocco" }, "geometry": { "type": "LineString", "coordinates": [ [ -3.867749285419174, 35.1510914361563 ], [ -3.850150611661436, 35.1331944797925 ], [ -3.845974655176549, 35.126333979853044 ], [ -3.833745068327951, 35.101278240943721 ], [ -3.831060524873381, 35.078608762882901 ] ] } },
{ "type": "Feature", "properties": { "average_dip": "(50,40,65)", "average_rake": "", "catalog_id": "NAF_5", "catalog_name": "GEM_N_Africa", "dip_dir": "E", "lower_seis_depth": null, "name": "Trougout Fault", "net_slip_rate": "", "slip_type": "Normal-Sinistral", "upper_seis_depth": null, "downthrown_side_id": null, "reference": "Poujol et al., 2014 J. Geodynamics", "epistemic_quality": "1", "accuracy": "50000", "activity_confidence": "1", "fs_name": "Low-Nekor Graben", "last_movement": "", "downthrown_side_dir": "E", "vert_sep_rate": "", "strike_slip_rate": "", "exposure_quality": "2", "shortening_rate": "", "notes": "", "index_right": 26, "NAME_EN": "Morocco" }, "geometry": { "type": "LineString", "coordinates": [ [ -3.812119579388358, 35.05094305117052 ], [ -3.813461851115643, 35.044082551231064 ], [ -3.8113738728732, 35.024395899230882 ], [ -3.793924340418493, 34.982039769169894 ], [ -3.801232264267045, 34.966529073654598 ], [ -3.807048775085281, 34.936700813048262 ], [ -3.816742959782341, 34.917163302351099 ] ] } },
{ "type": "Feature", "properties": { "average_dip": "(45,30,50)", "average_rake": "", "catalog_id": "NAF_6", "catalog_name": "GEM_N_Africa", "dip_dir": "N", "lower_seis_depth": null, "name": "Amekchoud-Imidir Thrust", "net_slip_rate": "", "slip_type": "Reverse", "upper_seis_depth": null, "downthrown_side_id": null, "reference": "Pastor et al., 2012 Annals of Geophysics", "epistemic_quality": "1", "accuracy": "65000", "activity_confidence": "1", "fs_name": "Sub-Atlas Thrust", "last_movement": "", "downthrown_side_dir": "S", "vert_sep_rate": "", "strike_slip_rate": "", "exposure_quality": "1", "shortening_rate": "(0.1, 0.05, 0.15)", "notes": "", "index_right": 26, "NAME_EN": "Morocco" }, "geometry": { "type": "LineString", "coordinates": [ [ -6.790494071427936, 31.195919386853355 ], [ -6.757088202621633, 31.19910089816824 ], [ -6.745952913019532, 31.201964258351637 ], [ -6.734817623417431, 31.207054676455453 ], [ -6.714137799870671, 31.208645432112899 ], [ -6.666096979015892, 31.199419049299728 ], [ -6.649871271309974, 31.198146444773773 ], [ -6.597694485745842, 31.198146444773773 ], [ -6.574787604278661, 31.203873165140568 ] ] } },
{ "type": "Feature", "properties": { "average_dip": "(30,10,35)", "average_rake": "", "catalog_id": "NAF_7", "catalog_name": "GEM_N_Africa", "dip_dir": "N", "lower_seis_depth": null, "name": "Jebel Guersif Thrust", "net_slip_rate": "", "slip_type": "Reverse", "upper_seis_depth": null, "downthrown_side_id": null, "reference": "Teson et al., 2008 Int. J. Earth Sci.", "epistemic_quality": "1", "accuracy": "65000", "activity_confidence": "2", "fs_name": "Sub-Atlas Thrust", "last_movement": "", "downthrown_side_dir": "S", "vert_sep_rate": "", "strike_slip_rate": "", "exposure_quality": "2", "shortening_rate": "(0.1, 0.0, 0.15)", "notes": "Thrust breaks through anticline; Teson has another blind thrust ~~200 m south. He also has a steep (~30° ramp soling into a 5 flat at sea level.", "index_right": 26, "NAME_EN": "Morocco" }, "geometry": { "type": "LineString", "coordinates": [ [ -6.452408783106979, 31.249846003640677 ], [ -6.443023324728067, 31.248334785766097 ], [ -6.423536567924391, 31.251595834863856 ], [ -6.385597045494377, 31.246266803411423 ], [ -6.343123869440652, 31.257879319710757 ], [ -6.33342025993025, 31.263446964511807 ], [ -6.319898836841984, 31.274264102982414 ], [ -6.294605821888642, 31.273150574022203 ], [ -6.269153731369555, 31.274423178548158 ], [ -6.257223063938734, 31.280468050046441 ], [ -6.249746512348752, 31.286194770413235 ], [ -6.233679880208579, 31.303534007079371 ], [ -6.227953159841785, 31.306715518394256 ], [ -6.218090474765639, 31.309578878577653 ], [ -6.212045603267356, 31.313714843287006 ], [ -6.149369830364106, 31.338530631543115 ], [ -6.123599588713531, 31.341075840595025 ], [ -6.100454093897736, 31.348950081099364 ], [ -6.071422803149403, 31.36294873088486 ], [ -6.045970712630314, 31.365812091068257 ], [ -6.02465458682058, 31.384264856694593 ], [ -6.00651997232573, 31.392536786113297 ] ] } },
{ "type": "Feature", "properties": { "average_dip": "(20,10,30)", "average_rake": "", "catalog_id": "NAF_8", "catalog_name": "GEM_N_Africa", "dip_dir": "S", "lower_seis_depth": null, "name": "Midelt Thrust", "net_slip_rate": "", "slip_type": "Reverse", "upper_seis_depth": null, "downthrown_side_id": null, "reference": "DEM", "epistemic_quality": "2", "accuracy": "30000", "activity_confidence": "2", "fs_name": "", "last_movement": "", "downthrown_side_dir": "N", "vert_sep_rate": "", "strike_slip_rate": "", "exposure_quality": "2", "shortening_rate": "", "notes": "Good expression of scarp on DEM.", "index_right": 26, "NAME_EN": "Morocco" }, "geometry": { "type": "LineString", "coordinates": [ [ -5.021226930627393, 32.563363525904414 ], [ -4.976432005609456, 32.576455000469515 ], [ -4.936211210258842, 32.580240487090748 ], [ -4.930217523108555, 32.583868245102764 ], [ -4.917362641457281, 32.58741713881016 ], [ -4.877378439020496, 32.606344571916331 ], [ -4.85143208280412, 32.610051194232952 ], [ -4.81184220189038, 32.627716798465379 ], [ -4.777615093690055, 32.651060632629637 ], [ -4.751905330387507, 32.663442328453264 ], [ -4.729823325096974, 32.66990920143121 ], [ -4.708372234243313, 32.67874200354742 ], [ -4.690075715574015, 32.681423389904133 ] ] } },
{ "type": "Feature", "properties": { "average_dip": "(30,20,40)", "average_rake": "", "catalog_id": "NAF_9", "catalog_name": "GEM_N_Africa", "dip_dir": "NW", "lower_seis_depth": null, "name": "Ait Oufella Frontal Thrust", "net_slip_rate": "", "slip_type": "Reverse", "upper_seis_depth": null, "downthrown_side_id": null, "reference": "Rigby 2008 M.S. Thesis (Univ. Missouri)", "epistemic_quality": "1", "accuracy": "30000", "activity_confidence": "1", "fs_name": "Ait Oufella Thrust", "last_movement": "", "downthrown_side_dir": "SE", "vert_sep_rate": "", "strike_slip_rate": "", "exposure_quality": "1", "shortening_rate": "(0.1, 0.03, 1)", "notes": "Balanced X-Sec shows a flat at 1 km above sea level ~5 degree).", "index_right": 26, "NAME_EN": "Morocco" }, "geometry": { "type": "LineString", "coordinates": [ [ -5.224341947147989, 32.826060524557121 ], [ -5.214247316158032, 32.832842854753501 ], [ -5.199894012719187, 32.838363356076137 ], [ -5.167401919220261, 32.842622028525021 ], [ -5.157307288230303, 32.849246630112184 ], [ -5.129073867180264, 32.853820759779509 ], [ -5.124184280294504, 32.858552618056052 ], [ -5.106991861889733, 32.861391733021975 ], [ -5.101786817785535, 32.867069962953828 ], [ -5.091849915404795, 32.883946924140162 ], [ -5.084357806466936, 32.890886982945744 ], [ -5.073474532430888, 32.904924829166156 ], [ -5.062039208262576, 32.914782867242288 ], [ -5.051155934226529, 32.933710300348466 ], [ -5.042954046547187, 32.943489474119986 ], [ -5.033017144166448, 32.951849090408544 ], [ -5.026392542579289, 32.955319119811342 ], [ -5.012118103445053, 32.971407437951569 ], [ -5.004468265897975, 32.970539930600872 ], [ -4.996818428350897, 32.972038352388445 ], [ -4.99082474120061, 32.975114060268197 ], [ -4.987985626234685, 32.979451597021701 ], [ -4.978048723853945, 32.980713425895452 ], [ -4.971581850876004, 32.983867998079809 ], [ -4.9619604057137, 32.985918469999646 ], [ -4.942717515389091, 33.000429502047695 ], [ -4.930730141088516, 33.005082496019625 ], [ -4.925051911156666, 33.009341168468517 ], [ -4.915351601689752, 33.011312776083741 ], [ -4.900525112423254, 33.020224442504571 ], [ -4.873080334419306, 33.024956300781113 ], [ -4.86945257640729, 33.027322229919385 ], [ -4.852575615220955, 33.025902672436416 ], [ -4.812670277088777, 33.028426330183905 ], [ -4.800998360006639, 33.031580902368269 ], [ -4.795320130074789, 33.037416860909339 ], [ -4.784752313257176, 33.042779633622757 ], [ -4.781440012463596, 33.047984677726951 ] ] } },
{ "type": "Feature", "properties": { "average_dip": "(30,20,35)", "average_rake": "", "catalog_id": "NAF_10", "catalog_name": "GEM_N_Africa", "dip_dir": "N", "lower_seis_depth": null, "name": "Ait Oufella Frontal Thrust", "net_slip_rate": "", "slip_type": "Reverse", "upper_seis_depth": null, "downthrown_side_id": null, "reference": "DEM", "epistemic_quality": "1", "accuracy": "30000", "activity_confidence": "1", "fs_name": "Ait Oufella Thrust", "last_movement": "", "downthrown_side_dir": "S", "vert_sep_rate": "", "strike_slip_rate": "", "exposure_quality": "1", "shortening_rate": "", "notes": "little transfer structure", "index_right": 26, "NAME_EN": "Morocco" }, "geometry": { "type": "LineString", "coordinates": [ [ -4.820398978940461, 33.062337981165811 ], [ -4.805572489673961, 33.06785848248844 ], [ -4.782859569946556, 33.072117154937331 ], [ -4.758884821345406, 33.081580871490416 ], [ -4.755887977770263, 33.085997272548525 ], [ -4.742638774595942, 33.095934174929262 ], [ -4.728285471157097, 33.111707035851069 ], [ -4.726708185064916, 33.119435737702759 ], [ -4.721029955133065, 33.129214911474278 ] ] } },
{ "type": "Feature", "properties": { "average_dip": "(25,15,35)", "average_rake": "", "catalog_id": "NAF_11", "catalog_name": "GEM_N_Africa", "dip_dir": "N", "lower_seis_depth": null, "name": "Ait Oufella Frontal Thrust", "net_slip_rate": "", "slip_type": "Reverse", "upper_seis_depth": null, "downthrown_side_id": null, "reference": "DEM", "epistemic_quality": "1", "accuracy": "30000", "activity_confidence": "1", "fs_name": "Ait Oufella Thrust", "last_movement": "", "downthrown_side_dir": "S", "vert_sep_rate": "", "strike_slip_rate": "", "exposure_quality": "1", "shortening_rate": "", "notes": "", "index_right": 26, "NAME_EN": "Morocco" }, "geometry": { "type": "LineString", "coordinates": [ [ -4.754946531187634, 33.099036465572986 ], [ -4.752265144830926, 33.102191037757343 ], [ -4.750214672911091, 33.108815639344506 ], [ -4.748637386818911, 33.120645285035863 ], [ -4.731602697023357, 33.142885018935615 ], [ -4.709205234514388, 33.158026965420547 ], [ -4.697691046041467, 33.170802982767214 ], [ -4.677501784061552, 33.187364486735113 ], [ -4.663306209231924, 33.20802693454268 ] ] } },
{ "type": "Feature", "properties": { "average_dip": "", "average_rake": "", "catalog_id": "NAF_12", "catalog_name": "GEM_N_Africa", "dip_dir": "", "lower_seis_depth": null, "name": "", "net_slip_rate": "", "slip_type": "Anticline", "upper_seis_depth": null, "downthrown_side_id": null, "reference": "DEM, Google Earth", "epistemic_quality": "2", "accuracy": "30000", "activity_confidence": "2", "fs_name": "", "last_movement": "", "downthrown_side_dir": "", "vert_sep_rate": "", "strike_slip_rate": "", "exposure_quality": "2", "shortening_rate": "", "notes": "", "index_right": 26, "NAME_EN": "Morocco" }, "geometry": { "type": "LineString", "coordinates": [ [ -4.844142059700465, 32.756686519265088 ], [ -4.802501706866889, 32.768673893565662 ], [ -4.758968610722697, 32.777506695681879 ], [ -4.709757284646653, 32.784446754487469 ], [ -4.610703718057692, 32.791386813293066 ] ] } },
{ "type": "Feature", "properties": { "average_dip": "(75,60,90)", "average_rake": "", "catalog_id": "NAF_13", "catalog_name": "GEM_N_Africa", "dip_dir": "NW", "lower_seis_depth": null, "name": "El Ksabi Fault", "net_slip_rate": "", "slip_type": "Sinistral-Reverse", "upper_seis_depth": null, "downthrown_side_id": null, "reference": "DEM; Gomez et al. 1996 J. Geo. Soc. London", "epistemic_quality": "2", "accuracy": "30000", "activity_confidence": "1", "fs_name": "", "last_movement": "", "downthrown_side_dir": "SE", "vert_sep_rate": "", "strike_slip_rate": "", "exposure_quality": "2", "shortening_rate": "", "notes": "", "index_right": 26, "NAME_EN": "Morocco" }, "geometry": { "type": "LineString", "coordinates": [ [ -4.599978172630863, 32.781292182303112 ], [ -4.565908793039755, 32.790124984419322 ], [ -4.531208499011774, 32.8090524175255 ], [ -4.506287378755315, 32.826087107321051 ], [ -4.490514517833507, 32.843121797116609 ], [ -4.438148619573101, 32.911576013517255 ], [ -4.419852100903802, 32.940598077613387 ], [ -4.405025611637302, 32.96867377005421 ], [ -4.393353694555163, 32.983184802102272 ], [ -4.346350569008173, 33.061102735056004 ], [ -4.336886852455088, 33.073090109356578 ], [ -4.329946793649492, 33.078137424851555 ], [ -4.324268563717641, 33.090124799152129 ], [ -4.320167619877971, 33.110944975568927 ] ] } },
{ "type": "Feature", "properties": { "average_dip": "", "average_rake": "", "catalog_id": "NAF_14", "catalog_name": "GEM_N_Africa", "dip_dir": "N", "lower_seis_depth": null, "name": "South Middle Atlas Frontal Thrust", "net_slip_rate": "", "slip_type": "Blind Thrust", "upper_seis_depth": null, "downthrown_side_id": null, "reference": "DEM", "epistemic_quality": "2", "accuracy": "60000", "activity_confidence": "1", "fs_name": "", "last_movement": "", "downthrown_side_dir": "S", "vert_sep_rate": "", "strike_slip_rate": "", "exposure_quality": "2", "shortening_rate": "", "notes": "Blind thrust; anticline is very well exposed. Likely merges with South Middle Atlas Thrust at depth.", "index_right": 26, "NAME_EN": "Morocco" }, "geometry": { "type": "LineString", "coordinates": [ [ -4.006366551838583, 33.29690700583707 ], [ -3.991855519790519, 33.304162521861102 ], [ -3.976398116087146, 33.309209837356079 ], [ -3.936335049345751, 33.313310781195753 ], [ -3.912360300744602, 33.325613612714761 ], [ -3.901634755317771, 33.339493730325955 ], [ -3.891224667109378, 33.348326532442165 ], [ -3.862991246059342, 33.365676679456151 ], [ -3.847849299574405, 33.373089924089399 ], [ -3.837281482756793, 33.383342283688577 ], [ -3.803212103165686, 33.408894318381911 ], [ -3.796745230187744, 33.416780748842811 ], [ -3.785861956151696, 33.425298093740587 ], [ -3.781603283702808, 33.435392724730548 ], [ -3.76898499496536, 33.448326470686432 ], [ -3.757628535101658, 33.456055172538115 ], [ -3.740593845306104, 33.459525201940913 ], [ -3.732076500408327, 33.470881661804611 ], [ -3.728606471005529, 33.479714463920828 ], [ -3.722612783855242, 33.484446322197371 ] ] } },
{ "type": "Feature", "properties": { "average_dip": "(20,15,60)", "average_rake": "", "catalog_id": "NAF_15", "catalog_name": "GEM_N_Africa", "dip_dir": "SE", "lower_seis_depth": null, "name": "Beni-Mellal Fault", "net_slip_rate": "", "slip_type": "Reverse", "upper_seis_depth": null, "downthrown_side_id": null, "reference": "Arboleya et al., 2004 JAES", "epistemic_quality": "2", "accuracy": "30000", "activity_confidence": "2", "fs_name": "", "last_movement": "", "downthrown_side_dir": "NW", "vert_sep_rate": "", "strike_slip_rate": "", "exposure_quality": "2", "shortening_rate": "", "notes": "Lithologic boundary that likely corresponds to older rift-bounding normal fault. Could be steep, could be shallow. ", "index_right": 26, "NAME_EN": "Morocco" }, "geometry": { "type": "LineString", "coordinates": [ [ -7.087478751712686, 32.105105972351609 ], [ -7.080916534379292, 32.106000820169804 ], [ -7.069581795348885, 32.102421428897038 ], [ -7.049298578136576, 32.103912841927354 ], [ -7.026181676166666, 32.101377439775817 ], [ -7.016934915378702, 32.104211124533421 ], [ -7.010670980651371, 32.110922483169844 ], [ -7.008881285014991, 32.125240048260885 ], [ -7.002915632893724, 32.13538165686704 ], [ -6.996055132954266, 32.140750743776181 ], [ -6.989791198226936, 32.14239129810953 ], [ -6.976965046166211, 32.154471743655094 ], [ -6.972043383166165, 32.161183102291531 ], [ -6.948180774681096, 32.172517841321941 ], [ -6.935354622620372, 32.174307536958317 ], [ -6.922230187953584, 32.180571471685653 ], [ -6.900157275104895, 32.182361167322028 ], [ -6.896279601226071, 32.180273189079585 ], [ -6.888524253468424, 32.179676623867458 ], [ -6.886137992619918, 32.180869754291713 ], [ -6.876891231831953, 32.17908005865533 ], [ -6.872715275347066, 32.17639551520076 ], [ -6.859814552634827, 32.175426096731059 ], [ -6.852282916831727, 32.176992080412894 ], [ -6.836175656104306, 32.175575238034092 ], [ -6.831775987664871, 32.177886928231082 ], [ -6.821410667104169, 32.177215792367441 ], [ -6.817234710619283, 32.178930917352304 ], [ -6.814773879119258, 32.183144159162943 ], [ -6.80847265906617, 32.188513246072084 ], [ -6.795982074937267, 32.191980781367576 ], [ -6.789867281512968, 32.200929259549476 ], [ -6.785206615793228, 32.199885270428247 ], [ -6.782447501687142, 32.201824107367663 ], [ -6.775363289793138, 32.200332694337341 ], [ -6.768465504527923, 32.196007596549428 ], [ -6.762126999149076, 32.198692140003999 ], [ -6.747697578080761, 32.199810699776734 ], [ -6.737481398823091, 32.193695906352438 ], [ -6.730248045626054, 32.197946433488838 ], [ -6.713544219686506, 32.197722721534291 ], [ -6.703328040428836, 32.195933025897908 ], [ -6.690054464459016, 32.189892803125126 ], [ -6.670666095064897, 32.197200726973676 ], [ -6.661568475579965, 32.203762944307073 ], [ -6.654111410428381, 32.204657792125261 ], [ -6.64158354097372, 32.213009705095033 ], [ -6.627415117185711, 32.217185661579919 ], [ -6.604447356518832, 32.217334802882952 ], [ -6.588638378397474, 32.20659662906467 ], [ -6.580733889336795, 32.210325161640462 ], [ -6.575215661124623, 32.209877737731368 ], [ -6.568355161185165, 32.206000063852542 ], [ -6.561196378639645, 32.197499009579737 ], [ -6.5473262374577, 32.208237183398019 ], [ -6.538974324487926, 32.210623444246522 ], [ -6.528832715881772, 32.205850922549509 ], [ -6.51630484642711, 32.204061226913133 ], [ -6.506163237820957, 32.207044052973764 ], [ -6.493038803154169, 32.206447487761636 ], [ -6.482300629335888, 32.203464661701005 ], [ -6.471562455517607, 32.204061226913133 ], [ -6.459034586062946, 32.209430313822267 ], [ -6.451875803517425, 32.21360627030716 ], [ -6.448296412244665, 32.22255474848906 ], [ -6.444717020971905, 32.255365835156027 ], [ -6.431592586305118, 32.277438748004712 ], [ -6.417871586426203, 32.289966617459378 ], [ -6.393412412729007, 32.29831853042915 ], [ -6.370146369456065, 32.311442965095935 ], [ -6.353442543516517, 32.329936486671869 ], [ -6.319438326425295, 32.349623138672051 ], [ -6.308849293910045, 32.352605964732682 ], [ -6.300646522243302, 32.352456823429648 ], [ -6.281258152849184, 32.36483555158128 ], [ -6.276783913758234, 32.366028682005528 ], [ -6.26843200078846, 32.364537268975212 ], [ -6.265896598636921, 32.368564084157072 ], [ -6.259930946515654, 32.372590899338924 ], [ -6.257097261758052, 32.400331181702818 ], [ -6.255456707424704, 32.406147692521053 ], [ -6.251728174848912, 32.409577942490778 ], [ -6.237112327151808, 32.41539445330902 ], [ -6.230699251121444, 32.422851518460604 ], [ -6.182824892848275, 32.458198007279108 ], [ -6.168358186454203, 32.460285985521551 ], [ -6.154040621363161, 32.47296299627925 ], [ -6.133608262847821, 32.482657180976311 ], [ -6.124958067271983, 32.485192583127848 ], [ -6.110938784787005, 32.493842778703687 ], [ -6.09796349142325, 32.510248322037171 ], [ -6.094980665362615, 32.515319126340252 ], [ -6.094682382756552, 32.521433919764547 ], [ -6.089760719756507, 32.527250430582782 ], [ -6.068284372119945, 32.540971430461695 ], [ -6.050238274453111, 32.554990712946676 ], [ -6.023691122513473, 32.563939191128576 ], [ -6.007882144392115, 32.566922017189206 ], [ -6.002214774876911, 32.572589386704408 ], [ -5.982229840270666, 32.578853321431744 ], [ -5.966719144755371, 32.588100082219704 ], [ -5.963438036088674, 32.596153712583416 ], [ -5.938382297179351, 32.627473386220075 ], [ -5.908554036573015, 32.630157929674645 ], [ -5.901991819239622, 32.645668625189941 ], [ -5.898412427966861, 32.651335994705143 ], [ -5.893043341057721, 32.655213668583968 ], [ -5.874848102087856, 32.659986190280982 ], [ -5.870970428209032, 32.665355277190123 ], [ -5.866197906512019, 32.668039820644694 ], [ -5.850090645784597, 32.671619211917452 ], [ -5.836071363299619, 32.681462537917547 ], [ -5.829509145966226, 32.682953950947862 ], [ -5.825333189481339, 32.687726472644876 ], [ -5.819964102572198, 32.690709298705507 ], [ -5.810419059178171, 32.690411016099446 ], [ -5.792820385420432, 32.694586972584332 ], [ -5.782977059420342, 32.702342320341977 ], [ -5.778204537723328, 32.714273624584514 ], [ -5.770449189965681, 32.723818667978541 ], [ -5.752552233601879, 32.734855124402884 ], [ -5.745393451056358, 32.771543884948677 ], [ -5.740919211965408, 32.781983776160892 ] ] } },
{ "type": "Feature", "properties": { "average_dip": "(25,10,40)", "average_rake": "", "catalog_id": "NAF_16", "catalog_name": "GEM_N_Africa", "dip_dir": "S", "lower_seis_depth": null, "name": "Tigheboula Thrust", "net_slip_rate": "", "slip_type": "Reverse", "upper_seis_depth": null, "downthrown_side_id": null, "reference": "Arboleya et al., 2004 JAES", "epistemic_quality": "1", "accuracy": "60000", "activity_confidence": "1", "fs_name": "", "last_movement": "", "downthrown_side_dir": "N", "vert_sep_rate": "", "strike_slip_rate": "", "exposure_quality": "1", "shortening_rate": "", "notes": "frontal nappe-bounding thrust to main Beni-Mellal thrust", "index_right": 26, "NAME_EN": "Morocco" }, "geometry": { "type": "LineString", "coordinates": [ [ -6.149864664878273, 32.475796681036854 ], [ -6.151356077908591, 32.488026267885452 ], [ -6.1504612300904, 32.496378180855231 ], [ -6.143899012757006, 32.507414637279574 ], [ -6.143004164938817, 32.514573419825098 ], [ -6.149864664878273, 32.527101289279756 ], [ -6.146583556211577, 32.538137745704098 ], [ -6.143004164938817, 32.544103397825367 ], [ -6.137336795423613, 32.548279354310253 ], [ -6.130476295484155, 32.559315810734596 ], [ -6.124212360756825, 32.563491767219482 ], [ -6.122124382514381, 32.568562571522563 ], [ -6.10601712178696, 32.5804938757651 ], [ -6.095577230574743, 32.585266397462114 ], [ -6.079171687241257, 32.587652658310617 ], [ -6.051431404877365, 32.584371549643919 ], [ -6.049641709240985, 32.587652658310617 ], [ -6.040394948453021, 32.594513158250074 ], [ -6.037412122392388, 32.594214875644013 ], [ -6.029358492028677, 32.599583962553154 ], [ -6.022796274695283, 32.600478810371342 ], [ -6.004004470513292, 32.596899419098584 ], [ -5.991774883664694, 32.590337201765188 ], [ -5.985510948937363, 32.583476701825731 ], [ -5.978352166391843, 32.581090440977221 ] ] } },
{ "type": "Feature", "properties": { "average_dip": "(30,14,50)", "average_rake": "", "catalog_id": "NAF_17", "catalog_name": "GEM_N_Africa", "dip_dir": "NW", "lower_seis_depth": null, "name": "South Middle Atlas Rangefront Thrust", "net_slip_rate": "", "slip_type": "Reverse", "upper_seis_depth": null, "downthrown_side_id": null, "reference": "Pastor et al., 2015 Tectonophysics", "epistemic_quality": "1", "accuracy": "30000", "activity_confidence": "2", "fs_name": "", "last_movement": "", "downthrown_side_dir": "SE", "vert_sep_rate": "", "strike_slip_rate": "", "exposure_quality": "1", "shortening_rate": "", "notes": "Rangefront thrust; may not be currently active, but basinward blind thrusts probably sole in at ~1 km depth or so. May be steep reactivated rift-bounding normal fault, or may be shallower thrust.", "index_right": 26, "NAME_EN": "Morocco" }, "geometry": { "type": "LineString", "coordinates": [ [ -3.949061026691303, 33.445960857257937 ], [ -3.93944141264576, 33.444022020318521 ], [ -3.93548916811542, 33.441561188818504 ], [ -3.923930717130465, 33.445438862697323 ], [ -3.919754760645578, 33.449391107227662 ], [ -3.912894260706121, 33.448272547454927 ], [ -3.905884619463632, 33.449763960485242 ], [ -3.897980130402953, 33.457071884333793 ], [ -3.896190434766573, 33.461247840818679 ], [ -3.883066000099785, 33.471687732030901 ], [ -3.878144337099739, 33.481829340637056 ], [ -3.86934500022087, 33.482724188455244 ], [ -3.859054250311684, 33.487347568849231 ], [ -3.849509206917657, 33.487198427546197 ], [ -3.841903000463041, 33.490330394909861 ], [ -3.834296794008426, 33.490926960121989 ], [ -3.827138011462905, 33.497340036152352 ], [ -3.820426652826479, 33.505095383910003 ], [ -3.820575794129511, 33.508376492576694 ], [ -3.815952413735529, 33.51896552509195 ], [ -3.798950305189917, 33.527764861970816 ], [ -3.787913848765573, 33.545810959637656 ], [ -3.781948196644306, 33.54894292700132 ], [ -3.777772240159419, 33.555206861728649 ], [ -3.768376338068423, 33.563111350789328 ], [ -3.768376338068423, 33.569673568122724 ], [ -3.75748902294711, 33.587421383183489 ], [ -3.7583838707653, 33.596519002668423 ], [ -3.756146751219825, 33.600396676547248 ], [ -3.744662870886386, 33.606064046062457 ], [ -3.741381762219689, 33.609196013426121 ], [ -3.731538436219598, 33.627242111092954 ], [ -3.732284142734757, 33.630821502365713 ], [ -3.738249794856024, 33.636339730577888 ], [ -3.746601707825798, 33.639769980547612 ], [ -3.750926805613717, 33.646332197881009 ], [ -3.74854054476521, 33.657666936911419 ], [ -3.716624305916431, 33.682722675820742 ], [ -3.70767582773453, 33.693460849639024 ], [ -3.701113610401136, 33.70658528430581 ], [ -3.692761697431362, 33.710761240790703 ], [ -3.685602914885842, 33.721499414608978 ], [ -3.681426958400954, 33.725078805881743 ], [ -3.673671610643307, 33.725675371093871 ], [ -3.651002132582492, 33.732834153639388 ], [ -3.648466730430953, 33.735145843836371 ] ] } },
{ "type": "Feature", "properties": { "average_dip": "(15,5,30)", "average_rake": "", "catalog_id": "NAF_18", "catalog_name": "GEM_N_Africa", "dip_dir": "NW", "lower_seis_depth": null, "name": "South Middle Atlas Frontal Thrust", "net_slip_rate": "", "slip_type": "Reverse", "upper_seis_depth": null, "downthrown_side_id": null, "reference": "DEM", "epistemic_quality": "1", "accuracy": "30000", "activity_confidence": "1", "fs_name": "", "last_movement": "", "downthrown_side_dir": "SE", "vert_sep_rate": "", "strike_slip_rate": "", "exposure_quality": "2", "shortening_rate": "", "notes": "Blind thrust and anticline. ", "index_right": 26, "NAME_EN": "Morocco" }, "geometry": { "type": "LineString", "coordinates": [ [ -3.705886132098149, 33.649091311987085 ], [ -3.706780979916339, 33.654460398896227 ], [ -3.703947295158736, 33.661619181441758 ], [ -3.68560291488584, 33.683393811684383 ], [ -3.681576099703984, 33.68428865950257 ], [ -3.673522469340274, 33.692193148563248 ], [ -3.672478480219052, 33.700395920229994 ], [ -3.663977425946246, 33.713520354896779 ], [ -3.656818643400726, 33.716652322260444 ], [ -3.650256426067332, 33.722021409169585 ], [ -3.630868056673214, 33.741260637260673 ], [ -3.614164230733667, 33.765123245745741 ], [ -3.601338078672943, 33.775264854351896 ], [ -3.581353144066698, 33.786301310776238 ], [ -3.560771644248326, 33.804198267140038 ], [ -3.553911144308868, 33.803228848670329 ], [ -3.5479454921876, 33.806659098640054 ], [ -3.536014187945067, 33.826718603897817 ], [ -3.527065709763166, 33.834175669049401 ], [ -3.505887644732668, 33.841931016807052 ] ] } },
{ "type": "Feature", "properties": { "average_dip": "(10,5,30)", "average_rake": "", "catalog_id": "NAF_19", "catalog_name": "GEM_N_Africa", "dip_dir": "NW", "lower_seis_depth": null, "name": "", "net_slip_rate": "", "slip_type": "Reverse", "upper_seis_depth": null, "downthrown_side_id": null, "reference": "DEM", "epistemic_quality": "2", "accuracy": "60000", "activity_confidence": "2", "fs_name": "", "last_movement": "", "downthrown_side_dir": "SE", "vert_sep_rate": "", "strike_slip_rate": "", "exposure_quality": "2", "shortening_rate": "", "notes": "Possible blind thrust in basin.", "index_right": 26, "NAME_EN": "Morocco" }, "geometry": { "type": "LineString", "coordinates": [ [ -3.626393817582265, 33.688315474684408 ], [ -3.629376643642899, 33.674296192199435 ], [ -3.641009665279369, 33.65252156195681 ], [ -3.665468838976565, 33.62060532310803 ], [ -3.688436599643444, 33.581530301713727 ] ] } },
{ "type": "Feature", "properties": { "average_dip": "", "average_rake": "", "catalog_id": "NAF_20", "catalog_name": "GEM_N_Africa", "dip_dir": "", "lower_seis_depth": null, "name": "Tsouaint-Arhal-Tamdafelt Anticline", "net_slip_rate": "", "slip_type": "Anticline", "upper_seis_depth": null, "downthrown_side_id": null, "reference": "Laville et al., 2007 Int. J. Earth Sci., Pastor et al., 2015 Tectonophysics", "epistemic_quality": "1", "accuracy": "60000", "activity_confidence": "2", "fs_name": "", "last_movement": "", "downthrown_side_dir": "", "vert_sep_rate": "", "strike_slip_rate": "", "exposure_quality": "1", "shortening_rate": "", "notes": "", "index_right": 26, "NAME_EN": "Morocco" }, "geometry": { "type": "LineString", "coordinates": [ [ -4.31691805061894, 33.201518261589008 ], [ -4.312145528921927, 33.213747848437606 ], [ -4.30081078989152, 33.231644804801405 ], [ -4.290669181285365, 33.241189848195432 ], [ -4.277246464012514, 33.257893674134984 ], [ -4.269192833648804, 33.263262761044125 ], [ -4.231310942678757, 33.278176891347293 ], [ -4.19700844298147, 33.275790630498783 ], [ -4.143019291284003, 33.277878608741226 ], [ -4.111103052435223, 33.274597500074528 ], [ -4.103347704677576, 33.27638719571091 ], [ -4.070834900616671, 33.314269086680959 ], [ -4.039515226980018, 33.327990086559872 ], [ -4.022513118434406, 33.348273303772181 ], [ -4.005809292494858, 33.384663781711907 ], [ -3.985227792676486, 33.415088607530372 ], [ -3.972401640615762, 33.441039194257883 ], [ -3.958680640736848, 33.451180802864037 ] ] } },
{ "type": "Feature", "properties": { "average_dip": "(20,15,60)", "average_rake": "(90,,)", "catalog_id": "NAF_21", "catalog_name": "GEM_N_Africa", "dip_dir": "N", "lower_seis_depth": null, "name": "Kasbah Thrust", "net_slip_rate": "None", "slip_type": "Reverse", "upper_seis_depth": null, "downthrown_side_id": null, "reference": "1998 GSL", "epistemic_quality": "2", "accuracy": "70000", "activity_confidence": "2", "fs_name": "South Atlas Fault", "last_movement": "1960", "downthrown_side_dir": "S", "vert_sep_rate": "", "strike_slip_rate": "", "exposure_quality": "2", "shortening_rate": "", "notes": "Some surface rupturing during the 1960 Agadir earthqake, which may or may not have been on a ramp of this fault at depth to the north.", "index_right": 26, "NAME_EN": "Morocco" }, "geometry": { "type": "LineString", "coordinates": [ [ -9.654368687918041, 30.435654513134075 ], [ -9.638200558810251, 30.428774458194592 ], [ -9.618936404979692, 30.426022436218798 ], [ -9.601048262137029, 30.431526480170383 ], [ -9.588320160498983, 30.441502559832639 ], [ -9.560799940741042, 30.444254581808433 ], [ -9.551167863825762, 30.441502559832639 ], [ -9.534311729224022, 30.430838474676438 ], [ -9.481679308936961, 30.409854307111008 ], [ -9.457943119395736, 30.407790290629162 ], [ -9.416662789758824, 30.417078364797465 ], [ -9.398086641422214, 30.426022436218798 ], [ -9.386046545278115, 30.434966507640127 ] ] } },
{ "type": "Feature", "properties": { "average_dip": "(20,15,50)", "average_rake": "", "catalog_id": "NAF_22", "catalog_name": "GEM_N_Africa", "dip_dir": "N", "lower_seis_depth": null, "name": "South Atlas Thrust", "net_slip_rate": "", "slip_type": "Reverse", "upper_seis_depth": null, "downthrown_side_id": null, "reference": "Sebrier et al., 2006 Geodynamics", "epistemic_quality": "2", "accuracy": "50000", "activity_confidence": "2", "fs_name": "South Atlas Thrust", "last_movement": "", "downthrown_side_dir": "S", "vert_sep_rate": "", "strike_slip_rate": "", "exposure_quality": "2", "shortening_rate": "(0.1,,)", "notes": "Blind?", "index_right": 26, "NAME_EN": "Morocco" }, "geometry": { "type": "LineString", "coordinates": [ [ -9.512983558911618, 30.49258696775831 ], [ -9.481851310310448, 30.491554959517387 ], [ -9.463963167467785, 30.489318941662056 ], [ -9.446591028745585, 30.482094883975595 ], [ -9.418898807614157, 30.477106844144469 ], [ -9.40255867713288, 30.478654856505852 ], [ -9.369706414796838, 30.476074835903546 ], [ -9.359558333761097, 30.477794849638418 ], [ -9.354054289809509, 30.483470894963492 ], [ -9.354398292556484, 30.488802937541596 ], [ -9.343906208773769, 30.502735048794055 ], [ -9.337714159328232, 30.52096719438369 ], [ -9.329286092027361, 30.528535254817125 ], [ -9.319654015112082, 30.533007290527788 ], [ -9.304345892871728, 30.536103315250557 ], [ -9.298669847546654, 30.538855337226355 ], [ -9.290585782992759, 30.553475453972762 ], [ -9.267881601692457, 30.550551430623479 ], [ -9.224365254200212, 30.554507462213685 ], [ -9.213701169044009, 30.552787448478814 ], [ -9.195211021394142, 30.557517486249719 ], [ -9.182654921129583, 30.561301516466436 ], [ -9.162186757684614, 30.577985649694689 ], [ -9.15341468763677, 30.580737671670484 ], [ -9.129162493975084, 30.583833696393249 ], [ -9.103362287952015, 30.600517829621502 ], [ -9.081002109398687, 30.608601894175397 ], [ -9.070510025615972, 30.614105938126983 ], [ -9.046429833327773, 30.620297987572521 ], [ -9.013749572365219, 30.620641990319495 ], [ -8.960773149331182, 30.607913888681445 ], [ -8.916396794971503, 30.606537877693548 ], [ -8.894380619165148, 30.60189384060941 ], [ -8.87055842893718, 30.602151842669638 ], [ -8.858862335540055, 30.603011849537076 ], [ -8.833062129516986, 30.609375900356088 ], [ -8.821538037493347, 30.618491973150906 ], [ -8.801413876795353, 30.623136010235061 ], [ -8.795221827349817, 30.628812055560136 ], [ -8.782493725711769, 30.62674803907829 ], [ -8.770797632314645, 30.620899992379726 ], [ -8.740181387833934, 30.615051945681159 ], [ -8.732269324653526, 30.616083953922082 ], [ -8.720401229882913, 30.614019937440236 ], [ -8.69305301149846, 30.617803967656954 ], [ -8.673444854920927, 30.623824015729003 ], [ -8.661060756029853, 30.625888032210849 ], [ -8.636808562368168, 30.636208114620075 ], [ -8.607052324754894, 30.635520109126126 ], [ -8.603784298658638, 30.639304139342844 ], [ -8.575576073406749, 30.636552117367049 ], [ -8.511935565216511, 30.641712158571664 ], [ -8.497143447096617, 30.652032240980891 ], [ -8.490607394904105, 30.659428300040833 ] ] } },
{ "type": "Feature", "properties": { "average_dip": "(20,15,40)", "average_rake": "", "catalog_id": "NAF_23", "catalog_name": "GEM_N_Africa", "dip_dir": "N", "lower_seis_depth": null, "name": "South Atlas Thrust", "net_slip_rate": "", "slip_type": "Reverse", "upper_seis_depth": null, "downthrown_side_id": null, "reference": "Sebrier et al., 2006 Geodynamics", "epistemic_quality": "2", "accuracy": "70000", "activity_confidence": "2", "fs_name": "South Atlas Thrust", "last_movement": "", "downthrown_side_dir": "S", "vert_sep_rate": "", "strike_slip_rate": "", "exposure_quality": "2", "shortening_rate": "None", "notes": "No clear rupture but some possibilities. Also some evidence of folding/ blind thrusting into the basin.", "index_right": 26, "NAME_EN": "Morocco" }, "geometry": { "type": "LineString", "coordinates": [ [ -8.623908459356631, 30.685056504690429 ], [ -8.587444168177358, 30.696752598087556 ], [ -8.551667882492035, 30.716016751918115 ], [ -8.517955613288558, 30.749729021121592 ], [ -8.4746112671698, 30.757985087048972 ], [ -8.453283096857396, 30.764865141988448 ], [ -8.43625496088217, 30.76658515572332 ], [ -8.419914830400892, 30.764865141988448 ], [ -8.399102664208948, 30.756781077434553 ], [ -8.369690429342649, 30.748869014254144 ], [ -8.316112001501406, 30.743622972362793 ], [ -8.286871768008593, 30.734678900941461 ], [ -8.265543597696189, 30.732442883086129 ], [ -8.222887257071381, 30.721262793809466 ], [ -8.21566319938492, 30.721950799303428 ], [ -8.193991026325541, 30.709910703159327 ], [ -8.161998770856936, 30.70268664547287 ], [ -8.140670600544532, 30.692710565810614 ] ] } },
{ "type": "Feature", "properties": { "average_dip": "(15,15,30)", "average_rake": "", "catalog_id": "NAF_24", "catalog_name": "GEM_N_Africa", "dip_dir": "S", "lower_seis_depth": null, "name": "", "net_slip_rate": "", "slip_type": "Reverse", "upper_seis_depth": null, "downthrown_side_id": null, "reference": "DEM", "epistemic_quality": "2", "accuracy": "70000", "activity_confidence": "2", "fs_name": "North Atlas Thrust", "last_movement": "", "downthrown_side_dir": "N", "vert_sep_rate": "", "strike_slip_rate": "", "exposure_quality": "1", "shortening_rate": "", "notes": "Spotted on DEM and Google Earth. ", "index_right": 26, "NAME_EN": "Morocco" }, "geometry": { "type": "LineString", "coordinates": [ [ -8.937724965283898, 31.26547513952276 ], [ -8.917084800465442, 31.264443131281837 ], [ -8.900572668610677, 31.260659101065119 ], [ -8.851724278540331, 31.259627092824196 ], [ -8.83383613569767, 31.254123048872611 ], [ -8.816291995601983, 31.245178977451278 ], [ -8.798059850012347, 31.23073086207836 ] ] } },
{ "type": "Feature", "properties": { "average_dip": "(25,15,40)", "average_rake": "", "catalog_id": "NAF_25", "catalog_name": "GEM_N_Africa", "dip_dir": "S", "lower_seis_depth": null, "name": "North Atlas Fault", "net_slip_rate": "", "slip_type": "Reverse", "upper_seis_depth": null, "downthrown_side_id": null, "reference": "Sebrier et al., 2006 Geodynamics", "epistemic_quality": "2", "accuracy": "70000", "activity_confidence": "2", "fs_name": "North Atlas Fault", "last_movement": "", "downthrown_side_dir": "N", "vert_sep_rate": "", "strike_slip_rate": "", "exposure_quality": "2", "shortening_rate": "", "notes": "Rangefront fault, mostly (some deformed rocks to north). No idea if it's active or where the trace is, mapped mostly from DEM.", "index_right": 26, "NAME_EN": "Morocco" }, "geometry": { "type": "LineString", "coordinates": [ [ -8.965073183668355, 31.203038640946936 ], [ -8.934972943308106, 31.202178634079491 ], [ -8.917428803212418, 31.195814583260468 ], [ -8.892144601309809, 31.191686550296776 ], [ -8.855336307383563, 31.176894432176883 ], [ -8.83039610822793, 31.17637842805642 ], [ -8.816807999722446, 31.180162458273138 ], [ -8.804939904951834, 31.191342547549802 ], [ -8.791179795072864, 31.19512657776653 ], [ -8.784987745627328, 31.199254610730222 ], [ -8.770195627507434, 31.203038640946939 ], [ -8.754715503893593, 31.210606701380371 ], [ -8.701395078112581, 31.219894775548678 ], [ -8.685570951751766, 31.225742822247241 ], [ -8.673530855607666, 31.232966879933699 ], [ -8.66080275396962, 31.237782918391325 ], [ -8.620382431200143, 31.241394947234554 ], [ -8.61401838038112, 31.239158929379222 ], [ -8.605246310333277, 31.231074864825327 ], [ -8.587702170237588, 31.232106873066247 ], [ -8.580478112551129, 31.236578908776913 ], [ -8.572222046623747, 31.236922911523891 ], [ -8.568610017780518, 31.238986928005737 ], [ -8.566201998551698, 31.242942959595943 ], [ -8.555537913395495, 31.246554988439172 ], [ -8.550549873564369, 31.254123048872607 ], [ -8.547453848841601, 31.256187065354453 ], [ -8.53850977742027, 31.257563076342347 ], [ -8.529049701878478, 31.255499059860504 ], [ -8.526125678529196, 31.252575036511221 ], [ -8.514257583758583, 31.256359066727939 ], [ -8.499293464265206, 31.251371026896816 ], [ -8.491037398337822, 31.244146969210355 ], [ -8.472117247254237, 31.239674933499693 ], [ -8.433932942340094, 31.236578908776924 ], [ -8.408476739064, 31.244834974704304 ], [ -8.389556587980415, 31.244146969210355 ], [ -8.380956519306059, 31.242426955475487 ], [ -8.366164401186165, 31.229010848343489 ], [ -8.337268170440327, 31.231074864825334 ], [ -8.313187978152129, 31.22832284284954 ], [ -8.297707854538286, 31.2248828153798 ], [ -8.269155626539423, 31.215250738464519 ], [ -8.255739519407426, 31.213186721982673 ], [ -8.225123274926716, 31.198738606609755 ], [ -8.216179203505385, 31.197362595621858 ], [ -8.190378997482316, 31.198394603862781 ], [ -8.184186948036778, 31.201834631332524 ], [ -8.162858777724374, 31.20871468627201 ], [ -8.127770497533, 31.211122705500831 ], [ -8.11813842061772, 31.213530724729647 ], [ -8.112290373919159, 31.213702726103126 ], [ -8.095950243437882, 31.209746694512923 ], [ -8.074622073125477, 31.206994672537128 ], [ -8.052949900066098, 31.210090697259897 ], [ -8.024913676187696, 31.226602829114661 ], [ -8.013389584164058, 31.235202897789019 ], [ -7.970389240792276, 31.256531068101413 ], [ -7.960069158383048, 31.277171232919869 ], [ -7.944245032022232, 31.288179320823048 ], [ -7.885764565036607, 31.317075551568884 ], [ -7.816964015641754, 31.344595771326826 ], [ -7.781875735450379, 31.36661194713318 ], [ -7.761235570631923, 31.382436073493995 ], [ -7.743691430536235, 31.409268287757996 ], [ -7.727179298681471, 31.42096438115512 ], [ -7.723051265717779, 31.429220447082503 ], [ -7.720987249235934, 31.447108589925165 ], [ -7.726491293187522, 31.46293271628598 ], [ -7.723739271211728, 31.48150886462259 ], [ -7.71823522726014, 31.498709001971303 ], [ -7.701723095405375, 31.509717089874481 ], [ -7.683146947068765, 31.535861298644523 ], [ -7.672826864659537, 31.544117364571907 ], [ -7.65769074379267, 31.562005507414568 ], [ -7.650122683359236, 31.577141628281435 ], [ -7.646682655889493, 31.588837721678562 ], [ -7.63911459545606, 31.590901738160404 ], [ -7.629310517167293, 31.596577783485483 ], [ -7.62466648008314, 31.596405782111994 ], [ -7.613142388059503, 31.604145843918914 ], [ -7.606262333120017, 31.6056938562803 ], [ -7.596114252084276, 31.602253828810557 ], [ -7.580634128470434, 31.599845809581737 ], [ -7.565842010350541, 31.600533815075686 ], [ -7.558617952664082, 31.602769832931017 ], [ -7.549845882616238, 31.611369901605375 ], [ -7.540385807074446, 31.612573911219783 ], [ -7.523873675219681, 31.629086043074548 ], [ -7.498761474690561, 31.635278092520085 ], [ -7.4688332357038, 31.640094130977726 ], [ -7.416888820910685, 31.657294268326439 ], [ -7.339488202841477, 31.67569841528956 ], [ -7.315580011926766, 31.685502493578326 ], [ -7.303367914409179, 31.694446564999659 ], [ -7.285651772940003, 31.702186626806583 ], [ -7.256239538073704, 31.711302699601401 ], [ -7.249187481760732, 31.711990705095349 ], [ -7.232675349905967, 31.718354755914376 ], [ -7.212895191954947, 31.722310787504579 ], [ -7.186406980437931, 31.724546805359907 ], [ -7.159574766173938, 31.723858799865958 ], [ -7.132742551909946, 31.726266819094779 ], [ -7.12104645851282, 31.729362843817547 ], [ -7.106942345886876, 31.738650917985851 ], [ -7.091462222273034, 31.745874975672312 ], [ -7.078734120634986, 31.748282994901132 ], [ -7.061877986033247, 31.744842967431389 ], [ -7.051557903624019, 31.745530972925337 ], [ -7.040893818467817, 31.749659005889029 ], [ -7.034357766275306, 31.755163049840618 ], [ -7.03057373605859, 31.761699102033127 ] ] } },
{ "type": "Feature", "properties": { "average_dip": "(15,10,30)", "average_rake": "", "catalog_id": "NAF_26", "catalog_name": "GEM_N_Africa", "dip_dir": "S", "lower_seis_depth": null, "name": "", "net_slip_rate": "", "slip_type": "Reverse", "upper_seis_depth": null, "downthrown_side_id": null, "reference": "DEM", "epistemic_quality": "2", "accuracy": "70000", "activity_confidence": "2", "fs_name": "North Atlas Fault", "last_movement": "", "downthrown_side_dir": "N", "vert_sep_rate": "", "strike_slip_rate": "", "exposure_quality": "2", "shortening_rate": "", "notes": "Front of uplifted fan basinward of the North Atlas Fault.  Looks more active than rangefront fault but this is a tricky orogen.", "index_right": 26, "NAME_EN": "Morocco" }, "geometry": { "type": "LineString", "coordinates": [ [ -8.457153127760863, 31.310023495255933 ], [ -8.43995299041215, 31.326535627110701 ], [ -8.430320913496871, 31.332383673809261 ], [ -8.427224888774102, 31.337543715013876 ], [ -8.427912894268051, 31.366439945759716 ], [ -8.42309685581041, 31.376760028168942 ], [ -8.396608644293392, 31.398432201228321 ], [ -8.387664572872062, 31.408408280890573 ], [ -8.380784517932577, 31.410128294625444 ], [ -8.357048328391352, 31.411160302866367 ], [ -8.346040240488175, 31.413912324842162 ], [ -8.339160185548691, 31.418728363299802 ], [ -8.334688149838025, 31.42836044021508 ], [ -8.318520020730235, 31.447280591298664 ], [ -8.306479924586135, 31.450720618768408 ], [ -8.282399732297938, 31.454504648985125 ], [ -8.265199594949223, 31.45966469018974 ], [ -8.219791232348623, 31.481336863249119 ], [ -8.207235132084064, 31.483228878357476 ], [ -8.182982938422377, 31.493032956646243 ], [ -8.169738832663867, 31.501633025320601 ], [ -8.157526735146282, 31.506965067898701 ], [ -8.145142636255208, 31.521241181898134 ], [ -8.135166556592955, 31.529841250572488 ], [ -8.113494383533576, 31.544633368692381 ], [ -8.106958331341064, 31.544633368692381 ], [ -8.075310078619433, 31.555985459342534 ], [ -8.058453944017693, 31.556673464836479 ] ] } },
{ "type": "Feature", "properties": { "average_dip": "(15,5,30)", "average_rake": "", "catalog_id": "NAF_27", "catalog_name": "GEM_N_Africa", "dip_dir": "S", "lower_seis_depth": null, "name": "North Atlas Fault", "net_slip_rate": "", "slip_type": "Reverse", "upper_seis_depth": null, "downthrown_side_id": null, "reference": "DEM", "epistemic_quality": "2", "accuracy": "100000", "activity_confidence": "2", "fs_name": "North Atlas Fault", "last_movement": "", "downthrown_side_dir": "N", "vert_sep_rate": "", "strike_slip_rate": "", "exposure_quality": "1", "shortening_rate": "", "notes": "Strange triangular bedrock salient at North Atlas rangefront. Possibly a nappe.", "index_right": 26, "NAME_EN": "Morocco" }, "geometry": { "type": "LineString", "coordinates": [ [ -8.112806378039627, 31.22436681125933 ], [ -8.108678345075937, 31.236062904656457 ], [ -8.103174301124348, 31.245006976077786 ], [ -8.099046268160658, 31.264271129908344 ], [ -8.083910147293789, 31.300735421087616 ], [ -8.069462031920871, 31.31380752547264 ], [ -8.035061757223444, 31.360591899061138 ], [ -8.02749369679001, 31.365407937518778 ], [ -8.019925636356577, 31.367471954000624 ], [ -8.009605553947349, 31.366783948506676 ], [ -7.99034140011679, 31.361279904555087 ], [ -7.940116999058548, 31.337887717760836 ], [ -7.921540850721938, 31.331007662821353 ], [ -7.898836669421636, 31.319311569424226 ], [ -7.894708636457945, 31.318623563930277 ] ] } },
{ "type": "Feature", "properties": { "average_dip": "(80,55,90)", "average_rake": "", "catalog_id": "NAF_28", "catalog_name": "GEM_N_Africa", "dip_dir": "N", "lower_seis_depth": null, "name": "Nekor Fault", "net_slip_rate": "(1., 0.1, 2.)", "slip_type": "Sinistral", "upper_seis_depth": null, "downthrown_side_id": null, "reference": "Poujol et al., 2014 J. Geodynamics", "epistemic_quality": "2", "accuracy": "70000", "activity_confidence": "1", "fs_name": "Nekor Fault", "last_movement": "", "downthrown_side_dir": "S", "vert_sep_rate": "", "strike_slip_rate": "", "exposure_quality": "2", "shortening_rate": "", "notes": "sinistral-normal in NE, sinistral-reverse in SW", "index_right": 26, "NAME_EN": "Morocco" }, "geometry": { "type": "LineString", "coordinates": [ [ -3.815825065240735, 34.935726447677922 ], [ -3.831821192975038, 34.922998346039876 ], [ -3.851601350926058, 34.914742280112492 ], [ -3.863641447070158, 34.906314212811623 ], [ -3.88926965171974, 34.893070107053099 ], [ -3.902685758851737, 34.877933986186235 ], [ -3.920573901694398, 34.853853793898033 ], [ -3.942590077500751, 34.838029667537221 ], [ -4.048542923568825, 34.781785218406931 ], [ -4.072623115857025, 34.76561708929912 ], [ -4.091543266940609, 34.745664929974616 ], [ -4.118719483951575, 34.722616745927354 ], [ -4.157247791612693, 34.703352592096792 ], [ -4.193024077298016, 34.681336416290442 ], [ -4.244624489344156, 34.658632234990144 ], [ -4.269392687126303, 34.651752180050657 ], [ -4.348513318930383, 34.614599883377437 ], [ -4.382913593627809, 34.600839773498464 ], [ -4.415593854590365, 34.602903789980289 ], [ -4.469602285865324, 34.59189570207711 ], [ -4.509506604514338, 34.587423666366448 ], [ -4.542530868223868, 34.588455674607367 ], [ -4.563171033042324, 34.592239704824102 ], [ -4.581747181378934, 34.590863693836205 ], [ -4.597915310486725, 34.587079663619484 ], [ -4.652611747255632, 34.591207696583176 ], [ -4.69595609337439, 34.589831685595279 ], [ -4.711092214241257, 34.590863693836212 ], [ -4.785052804840724, 34.60875183667887 ], [ -4.892381661896694, 34.627671987762454 ], [ -4.965998249749187, 34.651752180050664 ] ] } },
{ "type": "Feature", "properties": { "average_dip": "(35,15,70)", "average_rake": "", "catalog_id": "NAF_29", "catalog_name": "GEM_N_Africa", "dip_dir": "N", "lower_seis_depth": null, "name": "Fez Fault", "net_slip_rate": "(1., 0.1, 2.)", "slip_type": "Reverse-Sinistral", "upper_seis_depth": null, "downthrown_side_id": null, "reference": "DEM, drawn approx. on many maps", "epistemic_quality": "2", "accuracy": "70000", "activity_confidence": "1", "fs_name": "Fez Fault", "last_movement": "", "downthrown_side_dir": "S", "vert_sep_rate": "", "strike_slip_rate": "", "exposure_quality": "2", "shortening_rate": "", "notes": "Signs of active deformation and GPS gradient at approx. location of frontal thrust of the Rif belt. The Rif structures look very thin-skinned, however, some of the structures observed in the DEM look to be strike-slip. Things are unclear.", "index_right": 26, "NAME_EN": "Morocco" }, "geometry": { "type": "LineString", "coordinates": [ [ -5.757892573283941, 34.187348471635417 ], [ -5.764772628223427, 34.177716394720136 ], [ -5.775092710632654, 34.169460328792752 ], [ -5.784724787547933, 34.157076229901683 ], [ -5.788164815017677, 34.144692131010608 ], [ -5.79091683699347, 34.095843740940261 ], [ -5.788164815017677, 34.071075543158116 ], [ -5.773028694150809, 34.048371361857811 ], [ -5.767524650199221, 34.04217931241228 ], [ -5.753076534826302, 34.031171224509102 ], [ -5.731748364513897, 34.020851142099872 ], [ -5.720740276610721, 34.018787125618026 ], [ -5.695972078828574, 34.009843054196693 ], [ -5.671547883793401, 34.005371018486031 ], [ -5.649875710734023, 34.010531059690656 ], [ -5.605499356374342, 34.012939078919459 ], [ -5.584859191555887, 34.011907070678532 ], [ -5.564219026737431, 34.007091032220899 ], [ -5.54633088389477, 34.007779037714847 ], [ -5.521218683365649, 34.002618996510229 ], [ -5.496106482836527, 33.991954911354028 ], [ -5.485786400427299, 33.981978831691777 ], [ -5.479250348234788, 33.973034760270444 ], [ -5.457234172428436, 33.965810702583987 ], [ -5.423521903224957, 33.959274650391492 ], [ -5.411825809827832, 33.962026672367287 ], [ -5.400129716430707, 33.961338666873338 ], [ -5.383617584575942, 33.963402683355184 ], [ -5.369857474696972, 33.968218721812818 ], [ -5.338897227469288, 33.96684271082492 ], [ -5.32376110660242, 33.968906727306766 ], [ -5.31000099672345, 33.974410771258356 ], [ -5.301056925302119, 33.981290826197842 ], [ -5.288672826411045, 34.015003095401319 ], [ -5.259776595665207, 34.026699188798446 ], [ -5.246016485786237, 34.030139216268189 ], [ -5.217808260534349, 34.041147304171353 ], [ -5.210928205594864, 34.045275337135045 ], [ -5.183063983089949, 34.051811389327561 ], [ -5.171711892439798, 34.057659436026121 ], [ -5.14281566169396, 34.063507482724681 ], [ -5.113919430948122, 34.065227496459556 ], [ -5.064383035383828, 34.072795556892999 ], [ -5.028606749698504, 34.074171567880896 ], [ -4.994206475001078, 34.078299600844588 ], [ -4.953442149484627, 34.07847160221808 ] ] } },
{ "type": "Feature", "properties": { "average_dip": "(70,30,90)", "average_rake": "", "catalog_id": "NAF_30", "catalog_name": "GEM_N_Africa", "dip_dir": "N", "lower_seis_depth": null, "name": "", "net_slip_rate": "", "slip_type": "Sinistral-Reverse", "upper_seis_depth": null, "downthrown_side_id": null, "reference": "DEM", "epistemic_quality": "2", "accuracy": "70000", "activity_confidence": "2", "fs_name": "Rif Thrust", "last_movement": "", "downthrown_side_dir": "S", "vert_sep_rate": "", "strike_slip_rate": "", "exposure_quality": "2", "shortening_rate": "", "notes": "Possible trace observed by linking geomorphic features on DEM. Essentially at the southern Rif thrust front, but may not be reactivating old thrust. Some GPS velocity gradient. City of Fez is at western end, should be a primary target of field investigation.", "index_right": 26, "NAME_EN": "Morocco" }, "geometry": { "type": "LineString", "coordinates": [ [ -4.526276738429328, 34.140908100793894 ], [ -4.472612309901344, 34.156388224407735 ], [ -4.40690778522926, 34.170664338407178 ], [ -4.392459669856342, 34.170148334286722 ], [ -4.372679511905321, 34.17479237137087 ], [ -4.355823377303583, 34.176340383732253 ], [ -4.341719264677638, 34.181672426310357 ], [ -4.306114980365803, 34.189068485370306 ], [ -4.283066796318528, 34.191648505972616 ], [ -4.24694650788623, 34.204892611731118 ], [ -4.204634170008397, 34.213836683152451 ], [ -4.11467745167463, 34.216932707875223 ], [ -4.056884990182954, 34.234820850717888 ], [ -4.014228649558147, 34.252708993560546 ], [ -3.986020424306258, 34.275413174860851 ], [ -3.939580053464733, 34.291237301221663 ], [ -3.932871999898735, 34.29794535478765 ], [ -3.90019173893618, 34.312221468787087 ], [ -3.87507953840706, 34.318413518232617 ] ] } },
{ "type": "Feature", "properties": { "average_dip": "(90.0,,)", "average_rake": "", "catalog_id": "NAF_31", "catalog_name": "GEM_N_Africa", "dip_dir": "", "lower_seis_depth": null, "name": "Sanhaja Fault", "net_slip_rate": "", "slip_type": "Sinistral", "upper_seis_depth": null, "downthrown_side_id": null, "reference": "DEM", "epistemic_quality": "2", "accuracy": "60000", "activity_confidence": "2", "fs_name": "Sanhaja Fault", "last_movement": "", "downthrown_side_dir": "", "vert_sep_rate": "", "strike_slip_rate": "(0.1, 0., 0.5)", "exposure_quality": "1", "shortening_rate": "", "notes": "Very well expressed lineament in DEM; worth investigation", "index_right": 26, "NAME_EN": "Morocco" }, "geometry": { "type": "LineString", "coordinates": [ [ -4.626897541919297, 34.03203123137655 ], [ -4.644441682014985, 34.002618996510257 ], [ -4.65372975618329, 33.99350292371544 ], [ -4.676949941604052, 33.95377060643991 ], [ -4.695354088567174, 33.937258474585143 ], [ -4.726314335794857, 33.923154361959199 ], [ -4.74833051160121, 33.896322147695209 ], [ -4.755210566540695, 33.885658062539008 ], [ -4.77172269839546, 33.866995913515659 ], [ -4.802768946309887, 33.796475350385933 ], [ -4.826161133104136, 33.762075075688507 ], [ -4.83132117430875, 33.749346974050461 ], [ -4.839921242983106, 33.739370894388209 ], [ -4.845081284187719, 33.729566816099442 ], [ -4.855917370717408, 33.718042724075808 ], [ -4.865893450379661, 33.704282614196835 ], [ -4.86778546548802, 33.696026548269451 ], [ -4.908893793751444, 33.616217910971429 ], [ -4.925749928353182, 33.602113798345485 ], [ -4.935038002521487, 33.585945669237695 ], [ -4.952582142617174, 33.540107303203378 ] ] } },
{ "type": "Feature", "properties": { "average_dip": "(20,10,40)", "average_rake": "", "catalog_id": "NAF_32", "catalog_name": "GEM_N_Africa", "dip_dir": "N", "lower_seis_depth": null, "name": "", "net_slip_rate": "", "slip_type": "Reverse", "upper_seis_depth": null, "downthrown_side_id": null, "reference": "DEM", "epistemic_quality": "2", "accuracy": "60000", "activity_confidence": "1", "fs_name": "", "last_movement": "", "downthrown_side_dir": "S", "vert_sep_rate": "", "strike_slip_rate": "", "exposure_quality": "2", "shortening_rate": "(0.1, 0.01, 0.2)", "notes": "", "index_right": 26, "NAME_EN": "Morocco" }, "geometry": { "type": "LineString", "coordinates": [ [ -2.674251949406634, 34.949830560303923 ], [ -2.651203765359358, 34.952582582279703 ], [ -2.621275526372597, 34.951550574038777 ], [ -2.601667369795064, 34.956366612496417 ], [ -2.564859075868818, 34.95946263721919 ], [ -2.528394784689546, 34.97012672237539 ], [ -2.488834468787505, 34.975286763580002 ], [ -2.462346257270487, 34.976318771820928 ], [ -2.44239409794598, 34.980102802037642 ], [ -2.412809861706194, 34.98629485148318 ], [ -2.394233713369583, 34.993518909169637 ], [ -2.364305474382823, 35.008999032783478 ], [ -2.336785254624882, 35.015535084975994 ] ] } },
{ "type": "Feature", "properties": { "average_dip": "(20,10,30)", "average_rake": "", "catalog_id": "NAF_33", "catalog_name": "GEM_N_Africa", "dip_dir": "N", "lower_seis_depth": null, "name": "", "net_slip_rate": "", "slip_type": "Reverse", "upper_seis_depth": null, "downthrown_side_id": null, "reference": "DEM", "epistemic_quality": "2", "accuracy": "60000", "activity_confidence": "2", "fs_name": "", "last_movement": "", "downthrown_side_dir": "S", "vert_sep_rate": "", "strike_slip_rate": "", "exposure_quality": "2", "shortening_rate": "(0.1, 0., 0.2)", "notes": "", "index_right": 26, "NAME_EN": "Morocco" }, "geometry": { "type": "LineString", "coordinates": [ [ -2.356737413949389, 35.022415139915481 ], [ -2.349513356262929, 35.025511164638246 ], [ -2.342633301323444, 35.026199170132195 ], [ -2.317521100794323, 35.0234471481564 ], [ -2.298944952457712, 35.025511164638246 ], [ -2.259040633808698, 35.022759142662451 ], [ -2.234960441520499, 35.026199170132195 ], [ -2.217760304171787, 35.026887175626143 ], [ -2.200216164076099, 35.024135153650349 ] ] } },
{ "type": "Feature", "properties": { "average_dip": "(20,10,30)", "average_rake": "(90,,)", "catalog_id": "NAF_132", "catalog_name": "GEM_N_Africa", "dip_dir": "E", "lower_seis_depth": null, "name": "", "net_slip_rate": "(0.75,0.25,1.5)", "slip_type": "Reverse", "upper_seis_depth": null, "downthrown_side_id": null, "reference": "DEM", "epistemic_quality": "2", "accuracy": "60000", "activity_confidence": "2", "fs_name": "", "last_movement": "", "downthrown_side_dir": "W", "vert_sep_rate": "", "strike_slip_rate": "", "exposure_quality": "2", "shortening_rate": "", "notes": "westernmost Rif thrust. It's got to be somewhere and this is a convenient topographic escarpemnt.", "index_right": 26, "NAME_EN": "Morocco" }, "geometry": { "type": "LineString", "coordinates": [ [ -6.220204957057903, 35.078419084704869 ], [ -6.207610938103906, 35.043785532581381 ], [ -6.197265851105981, 35.028043008888886 ], [ -6.18737055049927, 35.016348562717319 ], [ -6.166680376503418, 35.006003475719396 ], [ -6.139243406639355, 34.996108175112681 ], [ -6.137444261074498, 34.993859243156614 ], [ -6.134745542727213, 34.985763088114759 ], [ -6.134295756335999, 34.975867787508044 ], [ -6.127998746859001, 34.958326118250689 ], [ -6.127998746859001, 34.952029108773694 ], [ -6.120802164599574, 34.941234235384556 ], [ -6.119452805425932, 34.933587866733916 ], [ -6.11495494151379, 34.924592138909631 ], [ -6.113380689144541, 34.917620449845813 ], [ -6.107983252449971, 34.908399828825928 ], [ -6.108433038841185, 34.902102819348926 ], [ -6.092465621953083, 34.891757732351003 ], [ -6.09111626277944, 34.885460722874001 ], [ -6.082345428150764, 34.874665849484863 ], [ -6.07424927310891, 34.859822898574798 ], [ -6.063904186110983, 34.851052063946121 ], [ -6.060530788176878, 34.838907831383338 ], [ -6.048386555614095, 34.829462317167838 ], [ -6.041639759745883, 34.813944686670951 ], [ -6.041189973354669, 34.807872570389563 ], [ -6.037366789029349, 34.79752748339164 ], [ -6.032419138725992, 34.790555794327815 ] ] } },
{ "type": "Feature", "properties": { "average_dip": "(20,10,30)", "average_rake": "(90,,)", "catalog_id": "NAF_133", "catalog_name": "GEM_N_Africa", "dip_dir": "E", "lower_seis_depth": null, "name": "", "net_slip_rate": "(0.75,0.25,1.5)", "slip_type": "Reverse", "upper_seis_depth": null, "downthrown_side_id": null, "reference": "DEM", "epistemic_quality": "2", "accuracy": "100000", "activity_confidence": "2", "fs_name": "Rif thrusts", "last_movement": "", "downthrown_side_dir": "W", "vert_sep_rate": "", "strike_slip_rate": "", "exposure_quality": "2", "shortening_rate": "", "notes": "Westernmost Rif thrust; hard to place trace exactly but seismicity and GPS stop here", "index_right": 26, "NAME_EN": "Morocco" }, "geometry": { "type": "LineString", "coordinates": [ [ -6.067502477240695, 34.778186668569447 ], [ -6.05940632219884, 34.767616688375917 ], [ -6.058281856220805, 34.759295640138454 ], [ -6.053109312721841, 34.751199485096599 ], [ -6.047711876027272, 34.747151407575672 ], [ -6.036467216246918, 34.743778009641566 ], [ -6.026347022444599, 34.737481000164564 ], [ -6.011054285143318, 34.718814864929179 ], [ -5.9977855866025, 34.707795098344434 ], [ -5.997335800211286, 34.700148729693794 ], [ -6.000709198145392, 34.692952147434369 ], [ -5.998685159384928, 34.685980458370544 ], [ -5.99935983897175, 34.669338361895605 ], [ -6.002958130101463, 34.641451605640327 ], [ -5.996211334233251, 34.631556305033619 ], [ -5.951232695111835, 34.609066985472907 ], [ -5.901756192078278, 34.590175957041929 ], [ -5.895009396210065, 34.576232578914293 ], [ -5.896358755383709, 34.558915802852553 ], [ -5.889387066319889, 34.539574988030346 ], [ -5.885563881994569, 34.51236291136189 ], [ -5.881515804473642, 34.502467610755176 ], [ -5.851155223066686, 34.49234741695286 ], [ -5.843733747611653, 34.492122523757253 ], [ -5.806176583945271, 34.477279572847188 ], [ -5.797405749316595, 34.4714323497614 ], [ -5.794482137773702, 34.45816365122058 ], [ -5.791558526230811, 34.452766214526015 ], [ -5.78706066231867, 34.448268350613873 ], [ -5.778064934494386, 34.443995379897338 ], [ -5.766145595127211, 34.44174644794127 ], [ -5.745005634740146, 34.443320700310515 ], [ -5.727239072287187, 34.441296661550055 ] ] } },
{ "type": "Feature", "properties": { "average_dip": "(20,10,30)", "average_rake": "(90.,,)", "catalog_id": "NAF_134", "catalog_name": "GEM_N_Africa", "dip_dir": "E", "lower_seis_depth": null, "name": "", "net_slip_rate": "(1.,0.5,2.)", "slip_type": "Reverse", "upper_seis_depth": null, "downthrown_side_id": null, "reference": "DEM; Koulali et al., 2011", "epistemic_quality": "2", "accuracy": "150000", "activity_confidence": "1", "fs_name": "", "last_movement": "", "downthrown_side_dir": "W", "vert_sep_rate": "", "strike_slip_rate": "", "exposure_quality": "2", "shortening_rate": "", "notes": "Koulali has it mapped (from earlier sources?) but does not draw a GPS block boundary along it. Nonetheless there  is a ~1mm/yr velocity gradient across it.", "index_right": 26, "NAME_EN": "Morocco" }, "geometry": { "type": "LineString", "coordinates": [ [ -5.918398288553179, 35.587464832961537 ], [ -5.891860891471544, 35.569023590921759 ], [ -5.884664309212117, 35.560927435879904 ], [ -5.877467726952691, 35.558228717532621 ], [ -5.863524348825051, 35.544735125796194 ], [ -5.857677125739268, 35.541136834666482 ], [ -5.852279689044698, 35.531241534059774 ], [ -5.833388660613703, 35.518647515105776 ], [ -5.820344855268492, 35.501105845848421 ], [ -5.814047845791494, 35.487612254111994 ], [ -5.800104467663855, 35.477267167114071 ], [ -5.785711303145002, 35.461524643421576 ], [ -5.785261516753788, 35.450729770032439 ], [ -5.779864080059218, 35.439934896643294 ], [ -5.770868352234935, 35.434987246339944 ], [ -5.754676042151225, 35.430039596036586 ], [ -5.731287149808089, 35.419244722647441 ], [ -5.721391849201376, 35.407550276475881 ], [ -5.699802102423097, 35.393606898348239 ], [ -5.68495915151303, 35.389558820827311 ], [ -5.671915346167819, 35.389109034436096 ], [ -5.630085211784902, 35.370218006005103 ], [ -5.608495465006624, 35.348178472835613 ], [ -5.587355504619558, 35.318492571015483 ], [ -5.582857640707417, 35.302300260931773 ], [ -5.581958067924988, 35.282959446109565 ], [ -5.58398210668545, 35.2683413883951 ], [ -5.597025912030661, 35.244952496051965 ], [ -5.59095379574927, 35.234382515858435 ], [ -5.582407854316201, 35.22718593359901 ], [ -5.572962340100704, 35.223812535664898 ], [ -5.559243855168671, 35.210543837124085 ], [ -5.556770030016994, 35.198399604561303 ], [ -5.550473020539996, 35.191877701888693 ], [ -5.547099622605889, 35.180857935303948 ], [ -5.531806885304608, 35.1635411592422 ], [ -5.518313293568183, 35.154545431417922 ], [ -5.493575042051405, 35.130256966292357 ], [ -5.486378459791978, 35.118562520120783 ], [ -5.478282304750123, 35.09112555025672 ], [ -5.465238499404912, 35.079431104085153 ], [ -5.452644480450916, 35.070885162652083 ], [ -5.432404092846278, 35.064138366783872 ], [ -5.382028017030292, 35.02140865961853 ], [ -5.357739551904727, 35.007015495099679 ], [ -5.333451086779163, 34.984526175538967 ], [ -5.309162621653598, 34.974630874932259 ], [ -5.276778001486178, 34.942246254764839 ], [ -5.246192526883616, 34.92425479911627 ], [ -5.230899789582334, 34.911660780162279 ], [ -5.173327131506921, 34.845991967045009 ], [ -5.149038666381356, 34.802812473488451 ], [ -5.134645501862503, 34.782122299492599 ], [ -5.114854900649081, 34.740741951500894 ], [ -5.104060027259941, 34.729047505329326 ] ] } }
]
}
