{
"type": "FeatureCollection",
"name": "faults_italy",
"crs": { "type": "name", "properties": { "name": "urn:ogc:def:crs:OGC:1.3:CRS84" } },
"features": [
{ "type": "Feature", "properties": { "average_dip": "(80.0,70,90)", "average_rake": "(150,130,170)", "catalog_id": "EUR_ATCS010", "catalog_name": "SHARE", "dip_dir": null, "lower_seis_depth": "(19.0,,)", "name": null, "net_slip_rate": "(0.8,0.5,1.0)", "slip_type": "Dextral-Reverse", "upper_seis_depth": "(0.0,,)", "downthrown_side_id": null, "reference": null, "epistemic_quality": null, "accuracy": null, "activity_confidence": null, "fs_name": null, "last_movement": null, "downthrown_side_dir": null, "vert_sep_rate": null, "strike_slip_rate": null, "exposure_quality": null, "shortening_rate": null, "notes": null, "index_right": 90, "NAME_EN": "Italy" }, "geometry": { "type": "LineString", "coordinates": [ [ 11.487199, 46.858958 ], [ 11.536688, 46.855005 ], [ 11.701916, 46.82453 ], [ 11.839157, 46.811022 ], [ 11.949022, 46.79318 ], [ 12.110772, 46.755655 ], [ 12.263325, 46.742721 ], [ 12.403976, 46.728388 ], [ 12.510237, 46.722751 ], [ 12.642955, 46.703035 ], [ 12.756988, 46.700201 ], [ 12.853361, 46.683892 ], [ 12.945788, 46.677681 ], [ 13.129459, 46.643891 ], [ 13.258012, 46.623688 ], [ 13.38337, 46.608664 ], [ 13.515483, 46.590448 ], [ 13.608446, 46.567376 ], [ 13.672486, 46.554451 ], [ 13.71813, 46.551853 ], [ 13.773532, 46.551853 ], [ 13.875446, 46.546856 ], [ 13.959088, 46.534844 ], [ 13.993833, 46.524985 ], [ 14.021986, 46.520837 ] ] } },
{ "type": "Feature", "properties": { "average_dip": "(40.0,30,50)", "average_rake": "(-90,-100,-80)", "catalog_id": "EUR_ATCS012", "catalog_name": "SHARE", "dip_dir": null, "lower_seis_depth": "(16.5,,)", "name": null, "net_slip_rate": "(0.8,0.5,1.0)", "slip_type": "Normal", "upper_seis_depth": "(3.5,,)", "downthrown_side_id": null, "reference": null, "epistemic_quality": null, "accuracy": null, "activity_confidence": null, "fs_name": null, "last_movement": null, "downthrown_side_dir": null, "vert_sep_rate": null, "strike_slip_rate": null, "exposure_quality": null, "shortening_rate": null, "notes": null, "index_right": 90, "NAME_EN": "Italy" }, "geometry": { "type": "LineString", "coordinates": [ [ 11.418127, 46.866061 ], [ 11.449192, 46.910808 ], [ 11.479058, 46.976209 ], [ 11.497197, 47.012025 ], [ 11.502098, 47.034956 ], [ 11.496859, 47.061152 ], [ 11.479139, 47.105428 ], [ 11.441408, 47.182261 ], [ 11.41191, 47.214503 ], [ 11.325667, 47.267024 ], [ 11.26501, 47.284049 ], [ 11.214655, 47.290328 ], [ 11.12394, 47.321127 ] ] } },
{ "type": "Feature", "properties": { "average_dip": "(35.0,30,40)", "average_rake": "(90,80,100)", "catalog_id": "EUR_ITCS001", "catalog_name": "SHARE", "dip_dir": null, "lower_seis_depth": "(8.0,,)", "name": null, "net_slip_rate": "(0.3,0.1,0.5)", "slip_type": "Reverse", "upper_seis_depth": "(2.0,,)", "downthrown_side_id": null, "reference": null, "epistemic_quality": null, "accuracy": null, "activity_confidence": null, "fs_name": null, "last_movement": null, "downthrown_side_dir": null, "vert_sep_rate": null, "strike_slip_rate": null, "exposure_quality": null, "shortening_rate": null, "notes": null, "index_right": 90, "NAME_EN": "Italy" }, "geometry": { "type": "LineString", "coordinates": [ [ 11.581817, 44.381368 ], [ 11.664856, 44.346979 ], [ 11.762831, 44.32052 ], [ 11.875749, 44.293444 ], [ 11.953589, 44.263265 ], [ 12.123661, 44.141629 ] ] } },
{ "type": "Feature", "properties": { "average_dip": "(32.5,25,40)", "average_rake": "(90,80,100)", "catalog_id": "EUR_ITCS002", "catalog_name": "SHARE", "dip_dir": null, "lower_seis_depth": "(9.0,,)", "name": null, "net_slip_rate": "(0.3,0.1,0.5)", "slip_type": "Reverse", "upper_seis_depth": "(2.0,,)", "downthrown_side_id": null, "reference": null, "epistemic_quality": null, "accuracy": null, "activity_confidence": null, "fs_name": null, "last_movement": null, "downthrown_side_dir": null, "vert_sep_rate": null, "strike_slip_rate": null, "exposure_quality": null, "shortening_rate": null, "notes": null, "index_right": 90, "NAME_EN": "Italy" }, "geometry": { "type": "LineString", "coordinates": [ [ 10.549523, 45.326208 ], [ 10.427579, 45.303258 ], [ 10.171523, 45.306182 ], [ 10.049554, 45.301827 ], [ 9.967816, 45.302479 ], [ 9.905284, 45.307502 ], [ 9.755682, 45.315476 ], [ 9.693771, 45.32299 ], [ 9.617504, 45.33818 ], [ 9.565754, 45.356252 ], [ 9.497376, 45.374882 ], [ 9.461598, 45.389228 ], [ 9.423148, 45.422096 ], [ 9.379297, 45.464783 ], [ 9.341642, 45.517251 ] ] } },
{ "type": "Feature", "properties": { "average_dip": "(85.0,80,90)", "average_rake": "(20,180,-140)", "catalog_id": "EUR_ITCS003", "catalog_name": "SHARE", "dip_dir": null, "lower_seis_depth": "(25.0,,)", "name": null, "net_slip_rate": "(0.3,0.1,0.5)", "slip_type": "Sinistral", "upper_seis_depth": "(6.0,,)", "downthrown_side_id": null, "reference": null, "epistemic_quality": null, "accuracy": null, "activity_confidence": null, "fs_name": null, "last_movement": null, "downthrown_side_dir": null, "vert_sep_rate": null, "strike_slip_rate": null, "exposure_quality": null, "shortening_rate": null, "notes": null, "index_right": 90, "NAME_EN": "Italy" }, "geometry": { "type": "LineString", "coordinates": [ [ 15.567158, 41.709536 ], [ 15.061285, 41.685733 ], [ 14.982141, 41.679701 ], [ 14.902268, 41.676878 ], [ 14.752326, 41.678017 ] ] } },
{ "type": "Feature", "properties": { "average_dip": "(80.0,70,90)", "average_rake": "(0,170,-170)", "catalog_id": "EUR_ITCS004", "catalog_name": "SHARE", "dip_dir": null, "lower_seis_depth": "(22.5,,)", "name": null, "net_slip_rate": "(0.3,0.1,0.5)", "slip_type": "Sinistral", "upper_seis_depth": "(11.0,,)", "downthrown_side_id": null, "reference": null, "epistemic_quality": null, "accuracy": null, "activity_confidence": null, "fs_name": null, "last_movement": null, "downthrown_side_dir": null, "vert_sep_rate": null, "strike_slip_rate": null, "exposure_quality": null, "shortening_rate": null, "notes": null, "index_right": 90, "NAME_EN": "Italy" }, "geometry": { "type": "LineString", "coordinates": [ [ 15.404703, 41.272089 ], [ 16.521918, 41.270183 ] ] } },
{ "type": "Feature", "properties": { "average_dip": "(85.0,80,90)", "average_rake": "(0,170,-170)", "catalog_id": "EUR_ITCS005", "catalog_name": "SHARE", "dip_dir": null, "lower_seis_depth": "(22.0,,)", "name": null, "net_slip_rate": "(0.3,0.1,0.5)", "slip_type": "Sinistral", "upper_seis_depth": "(13.0,,)", "downthrown_side_id": null, "reference": null, "epistemic_quality": null, "accuracy": null, "activity_confidence": null, "fs_name": null, "last_movement": null, "downthrown_side_dir": null, "vert_sep_rate": null, "strike_slip_rate": null, "exposure_quality": null, "shortening_rate": null, "notes": null, "index_right": 90, "NAME_EN": "Italy" }, "geometry": { "type": "LineString", "coordinates": [ [ 15.577227, 40.69561 ], [ 17.0926, 40.625653 ] ] } },
{ "type": "Feature", "properties": { "average_dip": "(30.0,20,40)", "average_rake": "(100,75,125)", "catalog_id": "EUR_ITCS006", "catalog_name": "SHARE", "dip_dir": null, "lower_seis_depth": "(10.0,,)", "name": null, "net_slip_rate": "(0.3,0.1,0.5)", "slip_type": "Reverse", "upper_seis_depth": "(3.0,,)", "downthrown_side_id": null, "reference": null, "epistemic_quality": null, "accuracy": null, "activity_confidence": null, "fs_name": null, "last_movement": null, "downthrown_side_dir": null, "vert_sep_rate": null, "strike_slip_rate": null, "exposure_quality": null, "shortening_rate": null, "notes": null, "index_right": 90, "NAME_EN": "Italy" }, "geometry": { "type": "LineString", "coordinates": [ [ 14.221261, 37.068041 ], [ 13.915394, 37.057574 ], [ 13.708928, 37.108662 ], [ 13.454138, 37.228779 ], [ 13.305031, 37.352139 ], [ 13.188542, 37.433578 ], [ 13.086158, 37.501861 ], [ 12.997223, 37.548874 ], [ 12.899737, 37.585428 ], [ 12.797176, 37.586272 ] ] } },
{ "type": "Feature", "properties": { "average_dip": "(35.0,30,40)", "average_rake": "(90,80,100)", "catalog_id": "EUR_ITCS007", "catalog_name": "SHARE", "dip_dir": null, "lower_seis_depth": "(6.5,,)", "name": null, "net_slip_rate": "(0.9,0.6,1.2)", "slip_type": "Reverse", "upper_seis_depth": "(0.5,,)", "downthrown_side_id": null, "reference": null, "epistemic_quality": null, "accuracy": null, "activity_confidence": null, "fs_name": null, "last_movement": null, "downthrown_side_dir": null, "vert_sep_rate": null, "strike_slip_rate": null, "exposure_quality": null, "shortening_rate": null, "notes": null, "index_right": 90, "NAME_EN": "Italy" }, "geometry": { "type": "LineString", "coordinates": [ [ 11.423613, 45.631653 ], [ 11.743512, 45.742647 ], [ 11.796546, 45.739584 ], [ 12.017185, 45.821047 ] ] } },
{ "type": "Feature", "properties": { "average_dip": "(30.0,20,40)", "average_rake": "(105,90,120)", "catalog_id": "EUR_ITCS009", "catalog_name": "SHARE", "dip_dir": null, "lower_seis_depth": "(8.0,,)", "name": null, "net_slip_rate": "(0.5,0.4,0.6)", "slip_type": "Reverse", "upper_seis_depth": "(2.0,,)", "downthrown_side_id": null, "reference": null, "epistemic_quality": null, "accuracy": null, "activity_confidence": null, "fs_name": null, "last_movement": null, "downthrown_side_dir": null, "vert_sep_rate": null, "strike_slip_rate": null, "exposure_quality": null, "shortening_rate": null, "notes": null, "index_right": 90, "NAME_EN": "Italy" }, "geometry": { "type": "LineString", "coordinates": [ [ 10.043031, 44.995277 ], [ 10.202684, 44.907448 ], [ 10.347025, 44.824303 ], [ 10.568185, 44.716312 ] ] } },
{ "type": "Feature", "properties": { "average_dip": "(35.0,25,45)", "average_rake": "(90,80,100)", "catalog_id": "EUR_ITCS010", "catalog_name": "SHARE", "dip_dir": null, "lower_seis_depth": "(10.0,,)", "name": null, "net_slip_rate": "(0.3,0.1,0.5)", "slip_type": "Reverse", "upper_seis_depth": "(5.0,,)", "downthrown_side_id": null, "reference": null, "epistemic_quality": null, "accuracy": null, "activity_confidence": null, "fs_name": null, "last_movement": null, "downthrown_side_dir": null, "vert_sep_rate": null, "strike_slip_rate": null, "exposure_quality": null, "shortening_rate": null, "notes": null, "index_right": 90, "NAME_EN": "Italy" }, "geometry": { "type": "LineString", "coordinates": [ [ 9.354718, 45.662625 ], [ 9.408198, 45.650937 ], [ 9.465096, 45.641043 ], [ 9.640842, 45.600798 ], [ 9.811467, 45.553672 ], [ 9.937365, 45.523185 ], [ 10.019362, 45.51081 ], [ 10.200987, 45.489703 ], [ 10.272254, 45.483877 ], [ 10.319751, 45.483012 ] ] } },
{ "type": "Feature", "properties": { "average_dip": "(30.0,20,40)", "average_rake": "(90,80,100)", "catalog_id": "EUR_ITCS011", "catalog_name": "SHARE", "dip_dir": null, "lower_seis_depth": "(8.0,,)", "name": null, "net_slip_rate": "(0.3,0.1,0.5)", "slip_type": "Reverse", "upper_seis_depth": "(3.0,,)", "downthrown_side_id": null, "reference": null, "epistemic_quality": null, "accuracy": null, "activity_confidence": null, "fs_name": null, "last_movement": null, "downthrown_side_dir": null, "vert_sep_rate": null, "strike_slip_rate": null, "exposure_quality": null, "shortening_rate": null, "notes": null, "index_right": 90, "NAME_EN": "Italy" }, "geometry": { "type": "LineString", "coordinates": [ [ 12.295708, 44.290263 ], [ 12.230929, 44.351256 ], [ 12.193205, 44.378649 ], [ 12.148348, 44.402943 ], [ 12.099917, 44.426704 ], [ 12.051471, 44.447393 ], [ 11.998724, 44.468552 ], [ 11.945291, 44.48307 ], [ 11.89121, 44.48891 ], [ 11.817149, 44.490999 ] ] } },
{ "type": "Feature", "properties": { "average_dip": "(30.0,20,40)", "average_rake": "(100,80,120)", "catalog_id": "EUR_ITCS012", "catalog_name": "SHARE", "dip_dir": null, "lower_seis_depth": "(8.0,,)", "name": null, "net_slip_rate": "(0.5,0.42,0.62)", "slip_type": "Reverse", "upper_seis_depth": "(2.0,,)", "downthrown_side_id": null, "reference": null, "epistemic_quality": null, "accuracy": null, "activity_confidence": null, "fs_name": null, "last_movement": null, "downthrown_side_dir": null, "vert_sep_rate": null, "strike_slip_rate": null, "exposure_quality": null, "shortening_rate": null, "notes": null, "index_right": 90, "NAME_EN": "Italy" }, "geometry": { "type": "LineString", "coordinates": [ [ 11.522629, 44.744756 ], [ 11.638796, 44.753503 ], [ 11.800049, 44.739531 ], [ 11.963925, 44.713766 ], [ 12.089217, 44.672075 ], [ 12.162242, 44.619829 ], [ 12.317845, 44.457635 ] ] } },
{ "type": "Feature", "properties": { "average_dip": "(50.0,40,60)", "average_rake": "(-90,-100,-80)", "catalog_id": "EUR_ITCS013", "catalog_name": "SHARE", "dip_dir": null, "lower_seis_depth": "(14.0,,)", "name": null, "net_slip_rate": "(0.6,0.1,1.0)", "slip_type": "Normal", "upper_seis_depth": "(2.0,,)", "downthrown_side_id": null, "reference": null, "epistemic_quality": null, "accuracy": null, "activity_confidence": null, "fs_name": null, "last_movement": null, "downthrown_side_dir": null, "vert_sep_rate": null, "strike_slip_rate": null, "exposure_quality": null, "shortening_rate": null, "notes": null, "index_right": 90, "NAME_EN": "Italy" }, "geometry": { "type": "LineString", "coordinates": [ [ 13.156327, 42.554168 ], [ 13.346434, 42.430643 ], [ 13.445314, 42.370743 ], [ 13.511687, 42.327845 ], [ 13.583203, 42.273437 ], [ 13.813735, 42.089594 ], [ 13.891312, 42.015639 ], [ 14.033124, 41.861766 ], [ 14.095688, 41.791375 ] ] } },
{ "type": "Feature", "properties": { "average_dip": "(27.5,15,40)", "average_rake": "(90,60,120)", "catalog_id": "EUR_ITCS014", "catalog_name": "SHARE", "dip_dir": null, "lower_seis_depth": "(18.0,,)", "name": null, "net_slip_rate": "(0.8,0.1,1.4)", "slip_type": "Reverse", "upper_seis_depth": "(2.0,,)", "downthrown_side_id": null, "reference": null, "epistemic_quality": null, "accuracy": null, "activity_confidence": null, "fs_name": null, "last_movement": null, "downthrown_side_dir": null, "vert_sep_rate": null, "strike_slip_rate": null, "exposure_quality": null, "shortening_rate": null, "notes": null, "index_right": 90, "NAME_EN": "Italy" }, "geometry": { "type": "LineString", "coordinates": [ [ 14.650324, 38.700188 ], [ 14.500278, 38.716478 ], [ 14.340498, 38.730282 ], [ 14.145215, 38.739224 ], [ 13.920277, 38.730516 ], [ 13.733596, 38.716456 ], [ 13.540727, 38.707537 ], [ 13.377287, 38.711168 ], [ 13.178118, 38.704839 ], [ 12.988229, 38.690801 ], [ 12.804302, 38.666526 ], [ 12.364875, 38.595506 ], [ 12.157706, 38.55354 ], [ 11.98204, 38.498619 ], [ 11.819655, 38.453807 ], [ 11.692772, 38.413858 ], [ 11.56555, 38.366264 ] ] } },
{ "type": "Feature", "properties": { "average_dip": "(60.0,50,70)", "average_rake": "(-90,-100,-80)", "catalog_id": "EUR_ITCS015", "catalog_name": "SHARE", "dip_dir": null, "lower_seis_depth": "(10.0,,)", "name": null, "net_slip_rate": "(0.6,0.1,1.0)", "slip_type": "Normal", "upper_seis_depth": "(1.0,,)", "downthrown_side_id": null, "reference": null, "epistemic_quality": null, "accuracy": null, "activity_confidence": null, "fs_name": null, "last_movement": null, "downthrown_side_dir": null, "vert_sep_rate": null, "strike_slip_rate": null, "exposure_quality": null, "shortening_rate": null, "notes": null, "index_right": 90, "NAME_EN": "Italy" }, "geometry": { "type": "LineString", "coordinates": [ [ 16.265008, 39.604417 ], [ 16.283028, 39.486331 ], [ 16.292512, 39.373711 ], [ 16.286736, 39.147402 ] ] } },
{ "type": "Feature", "properties": { "average_dip": "(32.5,25,40)", "average_rake": "(-95,-110,-80)", "catalog_id": "EUR_ITCS016", "catalog_name": "SHARE", "dip_dir": null, "lower_seis_depth": "(13.0,,)", "name": null, "net_slip_rate": "(1.4,0.9,2.0)", "slip_type": "Normal", "upper_seis_depth": "(2.0,,)", "downthrown_side_id": null, "reference": null, "epistemic_quality": null, "accuracy": null, "activity_confidence": null, "fs_name": null, "last_movement": null, "downthrown_side_dir": null, "vert_sep_rate": null, "strike_slip_rate": null, "exposure_quality": null, "shortening_rate": null, "notes": null, "index_right": 90, "NAME_EN": "Italy" }, "geometry": { "type": "LineString", "coordinates": [ [ 15.602863, 38.305249 ], [ 15.584875, 38.270223 ], [ 15.399604, 37.872159 ] ] } },
{ "type": "Feature", "properties": { "average_dip": "(80.0,70,90)", "average_rake": "(0,-10,10)", "catalog_id": "EUR_ITCS017", "catalog_name": "SHARE", "dip_dir": null, "lower_seis_depth": "(23.0,,)", "name": null, "net_slip_rate": "(1.2,1.0,1.4)", "slip_type": "Sinistral", "upper_seis_depth": "(1.0,,)", "downthrown_side_id": null, "reference": null, "epistemic_quality": null, "accuracy": null, "activity_confidence": null, "fs_name": null, "last_movement": null, "downthrown_side_dir": null, "vert_sep_rate": null, "strike_slip_rate": null, "exposure_quality": null, "shortening_rate": null, "notes": null, "index_right": 90, "NAME_EN": "Italy" }, "geometry": { "type": "LineString", "coordinates": [ [ 14.65614, 36.677436 ], [ 14.726562, 36.913222 ], [ 14.816656, 37.073206 ] ] } },
{ "type": "Feature", "properties": { "average_dip": "(32.5,20,45)", "average_rake": "(75,60,90)", "catalog_id": "EUR_ITCS018", "catalog_name": "SHARE", "dip_dir": null, "lower_seis_depth": "(8.0,,)", "name": null, "net_slip_rate": "(0.2,0.1,0.25)", "slip_type": "Reverse", "upper_seis_depth": "(2.0,,)", "downthrown_side_id": null, "reference": null, "epistemic_quality": null, "accuracy": null, "activity_confidence": null, "fs_name": null, "last_movement": null, "downthrown_side_dir": null, "vert_sep_rate": null, "strike_slip_rate": null, "exposure_quality": null, "shortening_rate": null, "notes": null, "index_right": 90, "NAME_EN": "Italy" }, "geometry": { "type": "LineString", "coordinates": [ [ 8.985882, 44.92087 ], [ 9.074922, 44.987017 ], [ 9.168426, 45.084991 ], [ 9.241165, 45.133897 ] ] } },
{ "type": "Feature", "properties": { "average_dip": "(40.0,30,50)", "average_rake": "(90,80,100)", "catalog_id": "EUR_ITCS020", "catalog_name": "SHARE", "dip_dir": null, "lower_seis_depth": "(9.0,,)", "name": null, "net_slip_rate": "(0.3,0.1,0.5)", "slip_type": "Reverse", "upper_seis_depth": "(3.0,,)", "downthrown_side_id": null, "reference": null, "epistemic_quality": null, "accuracy": null, "activity_confidence": null, "fs_name": null, "last_movement": null, "downthrown_side_dir": null, "vert_sep_rate": null, "strike_slip_rate": null, "exposure_quality": null, "shortening_rate": null, "notes": null, "index_right": 90, "NAME_EN": "Italy" }, "geometry": { "type": "LineString", "coordinates": [ [ 13.980373, 42.283339 ], [ 13.968511, 42.329143 ], [ 13.920702, 42.474179 ], [ 13.902064, 42.535323 ], [ 13.886717, 42.598031 ], [ 13.883531, 42.636536 ], [ 13.862717, 42.702219 ], [ 13.829502, 42.774635 ], [ 13.791941, 42.845794 ], [ 13.679881, 43.03206 ], [ 13.579176, 43.227925 ], [ 13.529375, 43.36427 ] ] } },
{ "type": "Feature", "properties": { "average_dip": "(50.0,40,60)", "average_rake": "(110,85,135)", "catalog_id": "EUR_ITCS021", "catalog_name": "SHARE", "dip_dir": null, "lower_seis_depth": "(10.0,,)", "name": null, "net_slip_rate": "(0.3,0.1,0.5)", "slip_type": "Reverse", "upper_seis_depth": "(3.0,,)", "downthrown_side_id": null, "reference": null, "epistemic_quality": null, "accuracy": null, "activity_confidence": null, "fs_name": null, "last_movement": null, "downthrown_side_dir": null, "vert_sep_rate": null, "strike_slip_rate": null, "exposure_quality": null, "shortening_rate": null, "notes": null, "index_right": 90, "NAME_EN": "Italy" }, "geometry": { "type": "LineString", "coordinates": [ [ 13.066967, 37.752421 ], [ 12.855949, 37.773561 ], [ 12.71373, 37.780208 ], [ 12.551698, 37.752174 ], [ 12.403623, 37.719209 ] ] } },
{ "type": "Feature", "properties": { "average_dip": "(45.0,40,50)", "average_rake": "(142,130,155)", "catalog_id": "EUR_ITCS023", "catalog_name": "SHARE", "dip_dir": null, "lower_seis_depth": "(7.0,,)", "name": null, "net_slip_rate": "(0.6,0.1,1.0)", "slip_type": "Dextral-Reverse", "upper_seis_depth": "(1.0,,)", "downthrown_side_id": null, "reference": null, "epistemic_quality": null, "accuracy": null, "activity_confidence": null, "fs_name": null, "last_movement": null, "downthrown_side_dir": null, "vert_sep_rate": null, "strike_slip_rate": null, "exposure_quality": null, "shortening_rate": null, "notes": null, "index_right": 90, "NAME_EN": "Italy" }, "geometry": { "type": "LineString", "coordinates": [ [ 7.547455, 44.960552 ], [ 7.194259, 44.85061 ] ] } },
{ "type": "Feature", "properties": { "average_dip": "(55.0,50,60)", "average_rake": "(-90,-100,-80)", "catalog_id": "EUR_ITCS024", "catalog_name": "SHARE", "dip_dir": null, "lower_seis_depth": "(14.0,,)", "name": null, "net_slip_rate": "(0.6,0.1,1.0)", "slip_type": "Normal", "upper_seis_depth": "(1.0,,)", "downthrown_side_id": null, "reference": null, "epistemic_quality": null, "accuracy": null, "activity_confidence": null, "fs_name": null, "last_movement": null, "downthrown_side_dir": null, "vert_sep_rate": null, "strike_slip_rate": null, "exposure_quality": null, "shortening_rate": null, "notes": null, "index_right": 90, "NAME_EN": "Italy" }, "geometry": { "type": "LineString", "coordinates": [ [ 14.181706, 41.595868 ], [ 14.562019, 41.390306 ], [ 14.583832, 41.33669 ], [ 14.937545, 41.105206 ] ] } },
{ "type": "Feature", "properties": { "average_dip": "(52.5,40,65)", "average_rake": "(-90,-100,-80)", "catalog_id": "EUR_ITCS025", "catalog_name": "SHARE", "dip_dir": null, "lower_seis_depth": "(14.5,,)", "name": null, "net_slip_rate": "(0.9,0.1,1.7)", "slip_type": "Normal", "upper_seis_depth": "(1.0,,)", "downthrown_side_id": null, "reference": null, "epistemic_quality": null, "accuracy": null, "activity_confidence": null, "fs_name": null, "last_movement": null, "downthrown_side_dir": null, "vert_sep_rate": null, "strike_slip_rate": null, "exposure_quality": null, "shortening_rate": null, "notes": null, "index_right": 90, "NAME_EN": "Italy" }, "geometry": { "type": "LineString", "coordinates": [ [ 14.072919, 41.691816 ], [ 13.988533, 41.75007 ], [ 13.812573, 41.862788 ], [ 13.515422, 42.083335 ], [ 13.034012, 42.414358 ] ] } },
{ "type": "Feature", "properties": { "average_dip": "(37.5,30,45)", "average_rake": "(-90,-100,-80)", "catalog_id": "EUR_ITCS026", "catalog_name": "SHARE", "dip_dir": null, "lower_seis_depth": "(10.0,,)", "name": null, "net_slip_rate": "(0.6,0.1,1.0)", "slip_type": "Normal", "upper_seis_depth": "(1.0,,)", "downthrown_side_id": null, "reference": null, "epistemic_quality": null, "accuracy": null, "activity_confidence": null, "fs_name": null, "last_movement": null, "downthrown_side_dir": null, "vert_sep_rate": null, "strike_slip_rate": null, "exposure_quality": null, "shortening_rate": null, "notes": null, "index_right": 90, "NAME_EN": "Italy" }, "geometry": { "type": "LineString", "coordinates": [ [ 9.602357, 44.52127 ], [ 10.030988, 44.1496 ] ] } },
{ "type": "Feature", "properties": { "average_dip": "(37.5,20,55)", "average_rake": "(90,70,110)", "catalog_id": "EUR_ITCS027", "catalog_name": "SHARE", "dip_dir": null, "lower_seis_depth": "(22.0,,)", "name": null, "net_slip_rate": "(0.3,0.1,0.5)", "slip_type": "Reverse", "upper_seis_depth": "(12.0,,)", "downthrown_side_id": null, "reference": null, "epistemic_quality": null, "accuracy": null, "activity_confidence": null, "fs_name": null, "last_movement": null, "downthrown_side_dir": null, "vert_sep_rate": null, "strike_slip_rate": null, "exposure_quality": null, "shortening_rate": null, "notes": null, "index_right": 90, "NAME_EN": "Italy" }, "geometry": { "type": "LineString", "coordinates": [ [ 13.704738, 42.6209 ], [ 13.382391, 42.918122 ], [ 13.085179, 43.35673 ], [ 12.997778, 43.436676 ], [ 12.707125, 43.552921 ], [ 12.093814, 43.96078 ], [ 11.323823, 44.301895 ], [ 11.034095, 44.383863 ], [ 10.824869, 44.391572 ], [ 10.628791, 44.46428 ], [ 10.459504, 44.529722 ], [ 10.339465, 44.562638 ], [ 10.095678, 44.607498 ], [ 9.824973, 44.784589 ] ] } },
{ "type": "Feature", "properties": { "average_dip": "(45.0,35,55)", "average_rake": "(-90,-100,-80)", "catalog_id": "EUR_ITCS028", "catalog_name": "SHARE", "dip_dir": null, "lower_seis_depth": "(14.0,,)", "name": null, "net_slip_rate": "(0.6,0.1,1.0)", "slip_type": "Normal", "upper_seis_depth": "(2.5,,)", "downthrown_side_id": null, "reference": null, "epistemic_quality": null, "accuracy": null, "activity_confidence": null, "fs_name": null, "last_movement": null, "downthrown_side_dir": null, "vert_sep_rate": null, "strike_slip_rate": null, "exposure_quality": null, "shortening_rate": null, "notes": null, "index_right": 90, "NAME_EN": "Italy" }, "geometry": { "type": "LineString", "coordinates": [ [ 13.471855, 42.484438 ], [ 13.268502, 42.644909 ], [ 13.036328, 42.929864 ], [ 12.863816, 43.128736 ], [ 12.753538, 43.252816 ], [ 12.736062, 43.275167 ] ] } },
{ "type": "Feature", "properties": { "average_dip": "(30.0,20,40)", "average_rake": "(90,80,100)", "catalog_id": "EUR_ITCS029", "catalog_name": "SHARE", "dip_dir": null, "lower_seis_depth": "(10.0,,)", "name": null, "net_slip_rate": "(0.3,0.1,0.5)", "slip_type": "Reverse", "upper_seis_depth": "(3.0,,)", "downthrown_side_id": null, "reference": null, "epistemic_quality": null, "accuracy": null, "activity_confidence": null, "fs_name": null, "last_movement": null, "downthrown_side_dir": null, "vert_sep_rate": null, "strike_slip_rate": null, "exposure_quality": null, "shortening_rate": null, "notes": null, "index_right": 90, "NAME_EN": "Italy" }, "geometry": { "type": "LineString", "coordinates": [ [ 15.155454, 37.528147 ], [ 14.916891, 37.443202 ], [ 14.702217, 37.356596 ], [ 14.472969, 37.229986 ], [ 14.23391, 37.075559 ] ] } },
{ "type": "Feature", "properties": { "average_dip": "(32.5,30,35)", "average_rake": "(90,80,100)", "catalog_id": "EUR_ITCS032", "catalog_name": "SHARE", "dip_dir": null, "lower_seis_depth": "(7.5,,)", "name": null, "net_slip_rate": "(0.3,0.2,0.4)", "slip_type": "Reverse", "upper_seis_depth": "(2.5,,)", "downthrown_side_id": null, "reference": null, "epistemic_quality": null, "accuracy": null, "activity_confidence": null, "fs_name": null, "last_movement": null, "downthrown_side_dir": null, "vert_sep_rate": null, "strike_slip_rate": null, "exposure_quality": null, "shortening_rate": null, "notes": null, "index_right": 90, "NAME_EN": "Italy" }, "geometry": { "type": "LineString", "coordinates": [ [ 13.425174, 43.591884 ], [ 13.354226, 43.63422 ], [ 13.244811, 43.723083 ], [ 13.186078, 43.766366 ], [ 13.034156, 43.831062 ], [ 12.93443, 43.898584 ], [ 12.883103, 43.936036 ], [ 12.766049, 43.979274 ] ] } },
{ "type": "Feature", "properties": { "average_dip": "(60.0,55,65)", "average_rake": "(-90,-100,-80)", "catalog_id": "EUR_ITCS033", "catalog_name": "SHARE", "dip_dir": null, "lower_seis_depth": "(10.0,,)", "name": null, "net_slip_rate": "(0.4,0.2,0.6)", "slip_type": "Normal", "upper_seis_depth": "(1.0,,)", "downthrown_side_id": null, "reference": null, "epistemic_quality": null, "accuracy": null, "activity_confidence": null, "fs_name": null, "last_movement": null, "downthrown_side_dir": null, "vert_sep_rate": null, "strike_slip_rate": null, "exposure_quality": null, "shortening_rate": null, "notes": null, "index_right": 90, "NAME_EN": "Italy" }, "geometry": { "type": "LineString", "coordinates": [ [ 16.312218, 39.70764 ], [ 16.216167, 39.88771 ] ] } },
{ "type": "Feature", "properties": { "average_dip": "(60.0,50,70)", "average_rake": "(-90,-100,-80)", "catalog_id": "EUR_ITCS034", "catalog_name": "SHARE", "dip_dir": null, "lower_seis_depth": "(14.0,,)", "name": null, "net_slip_rate": "(0.6,0.1,1.0)", "slip_type": "Normal", "upper_seis_depth": "(1.0,,)", "downthrown_side_id": null, "reference": null, "epistemic_quality": null, "accuracy": null, "activity_confidence": null, "fs_name": null, "last_movement": null, "downthrown_side_dir": null, "vert_sep_rate": null, "strike_slip_rate": null, "exposure_quality": null, "shortening_rate": null, "notes": null, "index_right": 90, "NAME_EN": "Italy" }, "geometry": { "type": "LineString", "coordinates": [ [ 15.13063, 40.857178 ], [ 15.392442, 40.685022 ], [ 15.483909, 40.627463 ], [ 15.497108, 40.562632 ], [ 15.588879, 40.476945 ], [ 15.644013, 40.412247 ], [ 15.718675, 40.35318 ], [ 15.860393, 40.233579 ] ] } },
{ "type": "Feature", "properties": { "average_dip": "(75.0,60,90)", "average_rake": "(10,-10,30)", "catalog_id": "EUR_ITCS035", "catalog_name": "SHARE", "dip_dir": null, "lower_seis_depth": "(23.0,,)", "name": null, "net_slip_rate": "(0.6,0.1,1.0)", "slip_type": "Sinistral", "upper_seis_depth": "(1.0,,)", "downthrown_side_id": null, "reference": null, "epistemic_quality": null, "accuracy": null, "activity_confidence": null, "fs_name": null, "last_movement": null, "downthrown_side_dir": null, "vert_sep_rate": null, "strike_slip_rate": null, "exposure_quality": null, "shortening_rate": null, "notes": null, "index_right": 90, "NAME_EN": "Italy" }, "geometry": { "type": "LineString", "coordinates": [ [ 14.715289, 36.935412 ], [ 14.7333, 37.330387 ] ] } },
{ "type": "Feature", "properties": { "average_dip": "(45.0,40,50)", "average_rake": "(75,60,90)", "catalog_id": "EUR_ITCS036", "catalog_name": "SHARE", "dip_dir": null, "lower_seis_depth": "(15.0,,)", "name": null, "net_slip_rate": "(0.3,0.1,0.5)", "slip_type": "Reverse", "upper_seis_depth": "(3.0,,)", "downthrown_side_id": null, "reference": null, "epistemic_quality": null, "accuracy": null, "activity_confidence": null, "fs_name": null, "last_movement": null, "downthrown_side_dir": null, "vert_sep_rate": null, "strike_slip_rate": null, "exposure_quality": null, "shortening_rate": null, "notes": null, "index_right": 90, "NAME_EN": "Italy" }, "geometry": { "type": "LineString", "coordinates": [ [ 14.839836, 37.129388 ], [ 15.140597, 37.280634 ] ] } },
{ "type": "Feature", "properties": { "average_dip": "(32.5,25,40)", "average_rake": "(-90,-100,-80)", "catalog_id": "EUR_ITCS037", "catalog_name": "SHARE", "dip_dir": null, "lower_seis_depth": "(8.0,,)", "name": null, "net_slip_rate": "(0.6,0.1,1.0)", "slip_type": "Normal", "upper_seis_depth": "(0.5,,)", "downthrown_side_id": null, "reference": null, "epistemic_quality": null, "accuracy": null, "activity_confidence": null, "fs_name": null, "last_movement": null, "downthrown_side_dir": null, "vert_sep_rate": null, "strike_slip_rate": null, "exposure_quality": null, "shortening_rate": null, "notes": null, "index_right": 90, "NAME_EN": "Italy" }, "geometry": { "type": "LineString", "coordinates": [ [ 13.045338, 42.478125 ], [ 12.934675, 42.546546 ], [ 12.846366, 42.614794 ], [ 12.760819, 42.709019 ], [ 12.181489, 43.413811 ], [ 11.993347, 43.557494 ], [ 11.792004, 43.616671 ], [ 11.51958, 43.880435 ], [ 11.227504, 43.994211 ], [ 11.153961, 44.020865 ] ] } },
{ "type": "Feature", "properties": { "average_dip": "(60.0,55,65)", "average_rake": "(-90,-100,-80)", "catalog_id": "EUR_ITCS038", "catalog_name": "SHARE", "dip_dir": null, "lower_seis_depth": "(12.0,,)", "name": null, "net_slip_rate": "(0.6,0.1,1.0)", "slip_type": "Normal", "upper_seis_depth": "(1.0,,)", "downthrown_side_id": null, "reference": null, "epistemic_quality": null, "accuracy": null, "activity_confidence": null, "fs_name": null, "last_movement": null, "downthrown_side_dir": null, "vert_sep_rate": null, "strike_slip_rate": null, "exposure_quality": null, "shortening_rate": null, "notes": null, "index_right": 90, "NAME_EN": "Italy" }, "geometry": { "type": "LineString", "coordinates": [ [ 15.804075, 40.206257 ], [ 16.023637, 39.840503 ] ] } },
{ "type": "Feature", "properties": { "average_dip": "(30.0,25,35)", "average_rake": "(90,80,100)", "catalog_id": "EUR_ITCS039", "catalog_name": "SHARE", "dip_dir": null, "lower_seis_depth": "(7.0,,)", "name": null, "net_slip_rate": "(0.3,0.1,0.5)", "slip_type": "Reverse", "upper_seis_depth": "(3.0,,)", "downthrown_side_id": null, "reference": null, "epistemic_quality": null, "accuracy": null, "activity_confidence": null, "fs_name": null, "last_movement": null, "downthrown_side_dir": null, "vert_sep_rate": null, "strike_slip_rate": null, "exposure_quality": null, "shortening_rate": null, "notes": null, "index_right": 90, "NAME_EN": "Italy" }, "geometry": { "type": "LineString", "coordinates": [ [ 12.706269, 43.981804 ], [ 12.394104, 44.191686 ] ] } },
{ "type": "Feature", "properties": { "average_dip": "(52.5,40,65)", "average_rake": "(-90,-100,-80)", "catalog_id": "EUR_ITCS040", "catalog_name": "SHARE", "dip_dir": null, "lower_seis_depth": "(14.0,,)", "name": null, "net_slip_rate": "(0.6,0.1,1.0)", "slip_type": "Normal", "upper_seis_depth": "(1.0,,)", "downthrown_side_id": null, "reference": null, "epistemic_quality": null, "accuracy": null, "activity_confidence": null, "fs_name": null, "last_movement": null, "downthrown_side_dir": null, "vert_sep_rate": null, "strike_slip_rate": null, "exposure_quality": null, "shortening_rate": null, "notes": null, "index_right": 90, "NAME_EN": "Italy" }, "geometry": { "type": "LineString", "coordinates": [ [ 14.02476, 42.038657 ], [ 13.727521, 42.259381 ], [ 13.436513, 42.429473 ] ] } },
{ "type": "Feature", "properties": { "average_dip": "(45.0,40,50)", "average_rake": "(-90,-100,-80)", "catalog_id": "EUR_ITCS041", "catalog_name": "SHARE", "dip_dir": null, "lower_seis_depth": "(5.0,,)", "name": null, "net_slip_rate": "(0.6,0.1,1.0)", "slip_type": "Normal", "upper_seis_depth": "(1.0,,)", "downthrown_side_id": null, "reference": null, "epistemic_quality": null, "accuracy": null, "activity_confidence": null, "fs_name": null, "last_movement": null, "downthrown_side_dir": null, "vert_sep_rate": null, "strike_slip_rate": null, "exposure_quality": null, "shortening_rate": null, "notes": null, "index_right": 90, "NAME_EN": "Italy" }, "geometry": { "type": "LineString", "coordinates": [ [ 12.283098, 43.498209 ], [ 12.095656, 43.623121 ] ] } },
{ "type": "Feature", "properties": { "average_dip": "(80.0,70,90)", "average_rake": "(20,180,-140)", "catalog_id": "EUR_ITCS042", "catalog_name": "SHARE", "dip_dir": null, "lower_seis_depth": "(25.0,,)", "name": null, "net_slip_rate": "(0.3,0.1,0.5)", "slip_type": "Sinistral", "upper_seis_depth": "(1.0,,)", "downthrown_side_id": null, "reference": null, "epistemic_quality": null, "accuracy": null, "activity_confidence": null, "fs_name": null, "last_movement": null, "downthrown_side_dir": null, "vert_sep_rate": null, "strike_slip_rate": null, "exposure_quality": null, "shortening_rate": null, "notes": null, "index_right": 90, "NAME_EN": "Italy" }, "geometry": { "type": "LineString", "coordinates": [ [ 14.915102, 38.635064 ], [ 15.006065, 38.422467 ], [ 15.030225, 38.315113 ], [ 15.082498, 38.247746 ], [ 15.112053, 38.192592 ], [ 15.207108, 38.034404 ] ] } },
{ "type": "Feature", "properties": { "average_dip": "(30.0,20,40)", "average_rake": "(90,80,100)", "catalog_id": "EUR_ITCS044", "catalog_name": "SHARE", "dip_dir": null, "lower_seis_depth": "(7.0,,)", "name": null, "net_slip_rate": "(0.5,0.41,0.61)", "slip_type": "Reverse", "upper_seis_depth": "(2.0,,)", "downthrown_side_id": null, "reference": null, "epistemic_quality": null, "accuracy": null, "activity_confidence": null, "fs_name": null, "last_movement": null, "downthrown_side_dir": null, "vert_sep_rate": null, "strike_slip_rate": null, "exposure_quality": null, "shortening_rate": null, "notes": null, "index_right": 90, "NAME_EN": "Italy" }, "geometry": { "type": "LineString", "coordinates": [ [ 9.249097, 45.134877 ], [ 9.329992, 45.199253 ], [ 9.390276, 45.21915 ], [ 9.462146, 45.219472 ], [ 9.549019, 45.215543 ], [ 9.70341, 45.199336 ], [ 10.037269, 45.091039 ] ] } },
{ "type": "Feature", "properties": { "average_dip": "(30.0,20,40)", "average_rake": "(90,80,100)", "catalog_id": "EUR_ITCS045", "catalog_name": "SHARE", "dip_dir": null, "lower_seis_depth": "(10.0,,)", "name": null, "net_slip_rate": "(0.3,0.1,0.5)", "slip_type": "Reverse", "upper_seis_depth": "(2.0,,)", "downthrown_side_id": null, "reference": null, "epistemic_quality": null, "accuracy": null, "activity_confidence": null, "fs_name": null, "last_movement": null, "downthrown_side_dir": null, "vert_sep_rate": null, "strike_slip_rate": null, "exposure_quality": null, "shortening_rate": null, "notes": null, "index_right": 90, "NAME_EN": "Italy" }, "geometry": { "type": "LineString", "coordinates": [ [ 9.728034, 44.978787 ], [ 9.910055, 44.914362 ], [ 10.051936, 44.796708 ], [ 10.150341, 44.68116 ] ] } },
{ "type": "Feature", "properties": { "average_dip": "(30.0,20,40)", "average_rake": "(90,80,100)", "catalog_id": "EUR_ITCS046", "catalog_name": "SHARE", "dip_dir": null, "lower_seis_depth": "(8.0,,)", "name": null, "net_slip_rate": "(0.3,0.1,0.5)", "slip_type": "Reverse", "upper_seis_depth": "(2.0,,)", "downthrown_side_id": null, "reference": null, "epistemic_quality": null, "accuracy": null, "activity_confidence": null, "fs_name": null, "last_movement": null, "downthrown_side_dir": null, "vert_sep_rate": null, "strike_slip_rate": null, "exposure_quality": null, "shortening_rate": null, "notes": null, "index_right": 90, "NAME_EN": "Italy" }, "geometry": { "type": "LineString", "coordinates": [ [ 10.190075, 44.685912 ], [ 10.355787, 44.674814 ], [ 10.52561, 44.625186 ], [ 10.69528, 44.580241 ], [ 10.776332, 44.550024 ], [ 10.883064, 44.516862 ] ] } },
{ "type": "Feature", "properties": { "average_dip": "(30.0,20,40)", "average_rake": "(90,80,100)", "catalog_id": "EUR_ITCS047", "catalog_name": "SHARE", "dip_dir": null, "lower_seis_depth": "(8.0,,)", "name": null, "net_slip_rate": "(0.3,0.1,0.5)", "slip_type": "Reverse", "upper_seis_depth": "(2.0,,)", "downthrown_side_id": null, "reference": null, "epistemic_quality": null, "accuracy": null, "activity_confidence": null, "fs_name": null, "last_movement": null, "downthrown_side_dir": null, "vert_sep_rate": null, "strike_slip_rate": null, "exposure_quality": null, "shortening_rate": null, "notes": null, "index_right": 90, "NAME_EN": "Italy" }, "geometry": { "type": "LineString", "coordinates": [ [ 10.914507, 44.515242 ], [ 11.119151, 44.513465 ], [ 11.348311, 44.504079 ], [ 11.458096, 44.467448 ], [ 11.57422, 44.40299 ] ] } },
{ "type": "Feature", "properties": { "average_dip": "(35.0,25,45)", "average_rake": "(85,70,100)", "catalog_id": "EUR_ITCS048", "catalog_name": "SHARE", "dip_dir": null, "lower_seis_depth": "(10.0,,)", "name": null, "net_slip_rate": "(0.3,0.1,0.5)", "slip_type": "Reverse", "upper_seis_depth": "(5.0,,)", "downthrown_side_id": null, "reference": null, "epistemic_quality": null, "accuracy": null, "activity_confidence": null, "fs_name": null, "last_movement": null, "downthrown_side_dir": null, "vert_sep_rate": null, "strike_slip_rate": null, "exposure_quality": null, "shortening_rate": null, "notes": null, "index_right": 90, "NAME_EN": "Italy" }, "geometry": { "type": "LineString", "coordinates": [ [ 11.070047, 46.085982 ], [ 11.046951, 46.054774 ], [ 10.899414, 45.88573 ], [ 10.876792, 45.850026 ], [ 10.784819, 45.745096 ], [ 10.744302, 45.694465 ], [ 10.688154, 45.638599 ], [ 10.591897, 45.5597 ], [ 10.525853, 45.521521 ], [ 10.463518, 45.493864 ], [ 10.427184, 45.48766 ], [ 10.37971, 45.483397 ], [ 10.321137, 45.482878 ] ] } },
{ "type": "Feature", "properties": { "average_dip": "(40.0,30,50)", "average_rake": "(75,60,90)", "catalog_id": "EUR_ITCS049", "catalog_name": "SHARE", "dip_dir": null, "lower_seis_depth": "(10.0,,)", "name": null, "net_slip_rate": "(0.2,0.1,0.25)", "slip_type": "Reverse", "upper_seis_depth": "(3.0,,)", "downthrown_side_id": null, "reference": null, "epistemic_quality": null, "accuracy": null, "activity_confidence": null, "fs_name": null, "last_movement": null, "downthrown_side_dir": null, "vert_sep_rate": null, "strike_slip_rate": null, "exposure_quality": null, "shortening_rate": null, "notes": null, "index_right": 90, "NAME_EN": "Italy" }, "geometry": { "type": "LineString", "coordinates": [ [ 10.873176, 44.934457 ], [ 10.709251, 44.866372 ], [ 10.549505, 44.756504 ] ] } },
{ "type": "Feature", "properties": { "average_dip": "(40.0,25,55)", "average_rake": "(90,80,100)", "catalog_id": "EUR_ITCS050", "catalog_name": "SHARE", "dip_dir": null, "lower_seis_depth": "(8.0,,)", "name": null, "net_slip_rate": "(0.4,0.34,0.5)", "slip_type": "Reverse", "upper_seis_depth": "(1.0,,)", "downthrown_side_id": null, "reference": null, "epistemic_quality": null, "accuracy": null, "activity_confidence": null, "fs_name": null, "last_movement": null, "downthrown_side_dir": null, "vert_sep_rate": null, "strike_slip_rate": null, "exposure_quality": null, "shortening_rate": null, "notes": null, "index_right": 90, "NAME_EN": "Italy" }, "geometry": { "type": "LineString", "coordinates": [ [ 11.968501, 44.819647 ], [ 11.545447, 44.954921 ], [ 11.390976, 44.94631 ], [ 11.086554, 45.01156 ] ] } },
{ "type": "Feature", "properties": { "average_dip": "(35.0,25,45)", "average_rake": "(90,80,100)", "catalog_id": "EUR_ITCS051", "catalog_name": "SHARE", "dip_dir": null, "lower_seis_depth": "(10.0,,)", "name": null, "net_slip_rate": "(0.4,0.25,0.5)", "slip_type": "Reverse", "upper_seis_depth": "(3.0,,)", "downthrown_side_id": null, "reference": null, "epistemic_quality": null, "accuracy": null, "activity_confidence": null, "fs_name": null, "last_movement": null, "downthrown_side_dir": null, "vert_sep_rate": null, "strike_slip_rate": null, "exposure_quality": null, "shortening_rate": null, "notes": null, "index_right": 90, "NAME_EN": "Italy" }, "geometry": { "type": "LineString", "coordinates": [ [ 10.893295, 44.934877 ], [ 10.986105, 44.925783 ], [ 11.172666, 44.878788 ], [ 11.230779, 44.850607 ], [ 11.30557, 44.818303 ], [ 11.531022, 44.766657 ] ] } },
{ "type": "Feature", "properties": { "average_dip": "(30.0,20,40)", "average_rake": "(-90,-100,-80)", "catalog_id": "EUR_ITCS053", "catalog_name": "SHARE", "dip_dir": null, "lower_seis_depth": "(11.0,,)", "name": null, "net_slip_rate": "(0.6,0.1,1.0)", "slip_type": "Normal", "upper_seis_depth": "(3.0,,)", "downthrown_side_id": null, "reference": null, "epistemic_quality": null, "accuracy": null, "activity_confidence": null, "fs_name": null, "last_movement": null, "downthrown_side_dir": null, "vert_sep_rate": null, "strike_slip_rate": null, "exposure_quality": null, "shortening_rate": null, "notes": null, "index_right": 90, "NAME_EN": "Italy" }, "geometry": { "type": "LineString", "coordinates": [ [ 16.058819, 38.530652 ], [ 16.094231, 38.574389 ], [ 16.219328, 38.741411 ] ] } },
{ "type": "Feature", "properties": { "average_dip": "(40.0,30,50)", "average_rake": "(95,80,110)", "catalog_id": "EUR_ITCS054", "catalog_name": "SHARE", "dip_dir": null, "lower_seis_depth": "(6.5,,)", "name": null, "net_slip_rate": "(0.3,0.1,0.5)", "slip_type": "Reverse", "upper_seis_depth": "(3.0,,)", "downthrown_side_id": null, "reference": null, "epistemic_quality": null, "accuracy": null, "activity_confidence": null, "fs_name": null, "last_movement": null, "downthrown_side_dir": null, "vert_sep_rate": null, "strike_slip_rate": null, "exposure_quality": null, "shortening_rate": null, "notes": null, "index_right": 90, "NAME_EN": "Italy" }, "geometry": { "type": "LineString", "coordinates": [ [ 13.804102, 43.393148 ], [ 13.880853, 43.311721 ], [ 13.954416, 43.211366 ], [ 13.98379, 43.078725 ], [ 14.020925, 42.889795 ], [ 14.028297, 42.836263 ], [ 14.034677, 42.717152 ], [ 14.032239, 42.629706 ], [ 14.046345, 42.532472 ], [ 14.062937, 42.452862 ], [ 14.068099, 42.387656 ], [ 14.068049, 42.296514 ] ] } },
{ "type": "Feature", "properties": { "average_dip": "(70.0,60,80)", "average_rake": "(-135,-150,-120)", "catalog_id": "EUR_ITCS055", "catalog_name": "SHARE", "dip_dir": null, "lower_seis_depth": "(12.0,,)", "name": null, "net_slip_rate": "(0.3,0.1,0.5)", "slip_type": "Dextral-Normal", "upper_seis_depth": "(3.0,,)", "downthrown_side_id": null, "reference": null, "epistemic_quality": null, "accuracy": null, "activity_confidence": null, "fs_name": null, "last_movement": null, "downthrown_side_dir": null, "vert_sep_rate": null, "strike_slip_rate": null, "exposure_quality": null, "shortening_rate": null, "notes": null, "index_right": 90, "NAME_EN": "Italy" }, "geometry": { "type": "LineString", "coordinates": [ [ 16.223833, 38.077018 ], [ 15.596482, 38.359655 ] ] } },
{ "type": "Feature", "properties": { "average_dip": "(20.0,15,25)", "average_rake": "(-90,-100,-80)", "catalog_id": "EUR_ITCS056", "catalog_name": "SHARE", "dip_dir": null, "lower_seis_depth": "(7.0,,)", "name": null, "net_slip_rate": "(0.6,0.1,1.0)", "slip_type": "Normal", "upper_seis_depth": "(2.0,,)", "downthrown_side_id": null, "reference": null, "epistemic_quality": null, "accuracy": null, "activity_confidence": null, "fs_name": null, "last_movement": null, "downthrown_side_dir": null, "vert_sep_rate": null, "strike_slip_rate": null, "exposure_quality": null, "shortening_rate": null, "notes": null, "index_right": 90, "NAME_EN": "Italy" }, "geometry": { "type": "LineString", "coordinates": [ [ 12.691421, 43.254306 ], [ 12.440055, 43.415878 ] ] } },
{ "type": "Feature", "properties": { "average_dip": "(70.0,60,80)", "average_rake": "(-130,-140,-120)", "catalog_id": "EUR_ITCS057", "catalog_name": "SHARE", "dip_dir": null, "lower_seis_depth": "(25.0,,)", "name": null, "net_slip_rate": "(0.6,0.1,1.0)", "slip_type": "Dextral-Normal", "upper_seis_depth": "(11.0,,)", "downthrown_side_id": null, "reference": null, "epistemic_quality": null, "accuracy": null, "activity_confidence": null, "fs_name": null, "last_movement": null, "downthrown_side_dir": null, "vert_sep_rate": null, "strike_slip_rate": null, "exposure_quality": null, "shortening_rate": null, "notes": null, "index_right": 90, "NAME_EN": "Italy" }, "geometry": { "type": "LineString", "coordinates": [ [ 14.827568, 41.238924 ], [ 15.244018, 41.198615 ] ] } },
{ "type": "Feature", "properties": { "average_dip": "(85.0,80,90)", "average_rake": "(-145,-160,-130)", "catalog_id": "EUR_ITCS058", "catalog_name": "SHARE", "dip_dir": null, "lower_seis_depth": "(25.0,,)", "name": null, "net_slip_rate": "(0.7,0.1,1.2)", "slip_type": "Dextral-Normal", "upper_seis_depth": "(0.0,,)", "downthrown_side_id": null, "reference": null, "epistemic_quality": null, "accuracy": null, "activity_confidence": null, "fs_name": null, "last_movement": null, "downthrown_side_dir": null, "vert_sep_rate": null, "strike_slip_rate": null, "exposure_quality": null, "shortening_rate": null, "notes": null, "index_right": 90, "NAME_EN": "Italy" }, "geometry": { "type": "LineString", "coordinates": [ [ 16.093386, 41.689311 ], [ 15.978926, 41.706224 ], [ 15.926636, 41.710097 ], [ 15.721715, 41.698896 ], [ 15.578103, 41.707125 ] ] } },
{ "type": "Feature", "properties": { "average_dip": "(80.0,70,90)", "average_rake": "(20,170,-130)", "catalog_id": "EUR_ITCS059", "catalog_name": "SHARE", "dip_dir": null, "lower_seis_depth": "(20.0,,)", "name": null, "net_slip_rate": "(0.3,0.1,0.5)", "slip_type": "Sinistral", "upper_seis_depth": "(11.0,,)", "downthrown_side_id": null, "reference": null, "epistemic_quality": null, "accuracy": null, "activity_confidence": null, "fs_name": null, "last_movement": null, "downthrown_side_dir": null, "vert_sep_rate": null, "strike_slip_rate": null, "exposure_quality": null, "shortening_rate": null, "notes": null, "index_right": 90, "NAME_EN": "Italy" }, "geometry": { "type": "LineString", "coordinates": [ [ 13.812713, 42.234735 ], [ 14.183643, 42.222152 ], [ 14.931912, 42.185874 ], [ 15.68138, 42.159118 ] ] } },
{ "type": "Feature", "properties": { "average_dip": "(40.0,30,50)", "average_rake": "(80,60,100)", "catalog_id": "EUR_ITCS060", "catalog_name": "SHARE", "dip_dir": null, "lower_seis_depth": "(9.0,,)", "name": null, "net_slip_rate": "(0.7,0.3,1.0)", "slip_type": "Reverse", "upper_seis_depth": "(1.0,,)", "downthrown_side_id": null, "reference": null, "epistemic_quality": null, "accuracy": null, "activity_confidence": null, "fs_name": null, "last_movement": null, "downthrown_side_dir": null, "vert_sep_rate": null, "strike_slip_rate": null, "exposure_quality": null, "shortening_rate": null, "notes": null, "index_right": 90, "NAME_EN": "Italy" }, "geometry": { "type": "LineString", "coordinates": [ [ 12.051046, 45.757526 ], [ 12.315503, 45.856471 ], [ 12.553268, 46.035156 ], [ 12.637215, 46.108647 ], [ 12.680736, 46.149167 ] ] } },
{ "type": "Feature", "properties": { "average_dip": "(35.0,30,40)", "average_rake": "(100,90,110)", "catalog_id": "EUR_ITCS061", "catalog_name": "SHARE", "dip_dir": null, "lower_seis_depth": "(11.0,,)", "name": null, "net_slip_rate": "(0.4,0.3,0.5)", "slip_type": "Reverse", "upper_seis_depth": "(6.0,,)", "downthrown_side_id": null, "reference": null, "epistemic_quality": null, "accuracy": null, "activity_confidence": null, "fs_name": null, "last_movement": null, "downthrown_side_dir": null, "vert_sep_rate": null, "strike_slip_rate": null, "exposure_quality": null, "shortening_rate": null, "notes": null, "index_right": 90, "NAME_EN": "Italy" }, "geometry": { "type": "LineString", "coordinates": [ [ 13.400268, 46.208223 ], [ 13.297698, 46.227023 ], [ 13.057566, 46.245741 ] ] } },
{ "type": "Feature", "properties": { "average_dip": "(35.0,30,40)", "average_rake": "(90,80,100)", "catalog_id": "EUR_ITCS062", "catalog_name": "SHARE", "dip_dir": null, "lower_seis_depth": "(7.0,,)", "name": null, "net_slip_rate": "(0.2,0.1,0.34)", "slip_type": "Reverse", "upper_seis_depth": "(1.0,,)", "downthrown_side_id": null, "reference": null, "epistemic_quality": null, "accuracy": null, "activity_confidence": null, "fs_name": null, "last_movement": null, "downthrown_side_dir": null, "vert_sep_rate": null, "strike_slip_rate": null, "exposure_quality": null, "shortening_rate": null, "notes": null, "index_right": 90, "NAME_EN": "Italy" }, "geometry": { "type": "LineString", "coordinates": [ [ 12.702572, 46.145269 ], [ 12.788909, 46.143254 ], [ 12.876466, 46.157943 ], [ 12.99855, 46.194763 ] ] } },
{ "type": "Feature", "properties": { "average_dip": "(70.0,60,80)", "average_rake": "(-120,-130,-110)", "catalog_id": "EUR_ITCS063", "catalog_name": "SHARE", "dip_dir": null, "lower_seis_depth": "(18.0,,)", "name": null, "net_slip_rate": "(0.6,0.1,1.0)", "slip_type": "Dextral-Normal", "upper_seis_depth": "(2.0,,)", "downthrown_side_id": null, "reference": null, "epistemic_quality": null, "accuracy": null, "activity_confidence": null, "fs_name": null, "last_movement": null, "downthrown_side_dir": null, "vert_sep_rate": null, "strike_slip_rate": null, "exposure_quality": null, "shortening_rate": null, "notes": null, "index_right": 90, "NAME_EN": "Italy" }, "geometry": { "type": "LineString", "coordinates": [ [ 15.247394, 40.930909 ], [ 15.706558, 40.759816 ] ] } },
{ "type": "Feature", "properties": { "average_dip": "(37.5,30,45)", "average_rake": "(90,80,100)", "catalog_id": "EUR_ITCS064", "catalog_name": "SHARE", "dip_dir": null, "lower_seis_depth": "(5.5,,)", "name": null, "net_slip_rate": "(0.4,0.3,0.5)", "slip_type": "Reverse", "upper_seis_depth": "(1.0,,)", "downthrown_side_id": null, "reference": null, "epistemic_quality": null, "accuracy": null, "activity_confidence": null, "fs_name": null, "last_movement": null, "downthrown_side_dir": null, "vert_sep_rate": null, "strike_slip_rate": null, "exposure_quality": null, "shortening_rate": null, "notes": null, "index_right": 90, "NAME_EN": "Italy" }, "geometry": { "type": "LineString", "coordinates": [ [ 12.740609, 46.262524 ], [ 13.078582, 46.274853 ], [ 13.131453, 46.283652 ], [ 13.1905, 46.283341 ], [ 13.242886, 46.285668 ], [ 13.301448, 46.278886 ], [ 13.42402, 46.27811 ] ] } },
{ "type": "Feature", "properties": { "average_dip": "(45.0,40,50)", "average_rake": "(120,110,130)", "catalog_id": "EUR_ITCS065", "catalog_name": "SHARE", "dip_dir": null, "lower_seis_depth": "(7.0,,)", "name": null, "net_slip_rate": "(0.2,0.1,0.3)", "slip_type": "Dextral-Reverse", "upper_seis_depth": "(0.5,,)", "downthrown_side_id": null, "reference": null, "epistemic_quality": null, "accuracy": null, "activity_confidence": null, "fs_name": null, "last_movement": null, "downthrown_side_dir": null, "vert_sep_rate": null, "strike_slip_rate": null, "exposure_quality": null, "shortening_rate": null, "notes": null, "index_right": 90, "NAME_EN": "Italy" }, "geometry": { "type": "LineString", "coordinates": [ [ 13.195488, 45.95713 ], [ 13.412824, 45.914032 ], [ 13.510219, 45.902105 ], [ 13.586784, 45.915008 ] ] } },
{ "type": "Feature", "properties": { "average_dip": "(35.0,30,40)", "average_rake": "(100,90,110)", "catalog_id": "EUR_ITCS066", "catalog_name": "SHARE", "dip_dir": null, "lower_seis_depth": "(8.0,,)", "name": null, "net_slip_rate": "(0.4,0.3,0.5)", "slip_type": "Reverse", "upper_seis_depth": "(2.0,,)", "downthrown_side_id": null, "reference": null, "epistemic_quality": null, "accuracy": null, "activity_confidence": null, "fs_name": null, "last_movement": null, "downthrown_side_dir": null, "vert_sep_rate": null, "strike_slip_rate": null, "exposure_quality": null, "shortening_rate": null, "notes": null, "index_right": 90, "NAME_EN": "Italy" }, "geometry": { "type": "LineString", "coordinates": [ [ 13.442121, 46.109589 ], [ 13.326142, 46.14805 ], [ 13.000403, 46.214592 ] ] } },
{ "type": "Feature", "properties": { "average_dip": "(75.0,60,90)", "average_rake": "(25,0,50)", "catalog_id": "EUR_ITCS067", "catalog_name": "SHARE", "dip_dir": null, "lower_seis_depth": "(9.0,,)", "name": null, "net_slip_rate": "(0.1,0.05,0.15)", "slip_type": "Sinistral-Reverse", "upper_seis_depth": "(1.0,,)", "downthrown_side_id": null, "reference": null, "epistemic_quality": null, "accuracy": null, "activity_confidence": null, "fs_name": null, "last_movement": null, "downthrown_side_dir": null, "vert_sep_rate": null, "strike_slip_rate": null, "exposure_quality": null, "shortening_rate": null, "notes": null, "index_right": 90, "NAME_EN": "Italy" }, "geometry": { "type": "LineString", "coordinates": [ [ 13.007788, 46.405105 ], [ 13.036709, 46.442745 ], [ 13.04245, 46.459377 ], [ 13.091156, 46.483207 ], [ 13.116871, 46.500989 ], [ 13.134538, 46.543374 ] ] } },
{ "type": "Feature", "properties": { "average_dip": "(80.0,70,90)", "average_rake": "(-10,-30,10)", "catalog_id": "EUR_ITCS068", "catalog_name": "SHARE", "dip_dir": null, "lower_seis_depth": "(15.0,,)", "name": null, "net_slip_rate": "(0.3,0.1,0.5)", "slip_type": "Sinistral", "upper_seis_depth": "(3.0,,)", "downthrown_side_id": null, "reference": null, "epistemic_quality": null, "accuracy": null, "activity_confidence": null, "fs_name": null, "last_movement": null, "downthrown_side_dir": null, "vert_sep_rate": null, "strike_slip_rate": null, "exposure_quality": null, "shortening_rate": null, "notes": null, "index_right": 90, "NAME_EN": "Italy" }, "geometry": { "type": "LineString", "coordinates": [ [ 15.916597, 38.958944 ], [ 16.831587, 38.841049 ] ] } },
{ "type": "Feature", "properties": { "average_dip": "(35.0,30,40)", "average_rake": "(90,80,100)", "catalog_id": "EUR_ITCS071", "catalog_name": "SHARE", "dip_dir": null, "lower_seis_depth": "(4.0,,)", "name": null, "net_slip_rate": "(0.2,0.1,0.34)", "slip_type": "Reverse", "upper_seis_depth": "(0.5,,)", "downthrown_side_id": null, "reference": null, "epistemic_quality": null, "accuracy": null, "activity_confidence": null, "fs_name": null, "last_movement": null, "downthrown_side_dir": null, "vert_sep_rate": null, "strike_slip_rate": null, "exposure_quality": null, "shortening_rate": null, "notes": null, "index_right": 90, "NAME_EN": "Italy" }, "geometry": { "type": "LineString", "coordinates": [ [ 12.681323, 46.151981 ], [ 12.728858, 46.176427 ], [ 12.792625, 46.196393 ], [ 12.8352, 46.201246 ], [ 12.986114, 46.213858 ] ] } },
{ "type": "Feature", "properties": { "average_dip": "(37.5,30,45)", "average_rake": "(90,80,100)", "catalog_id": "EUR_ITCS072", "catalog_name": "SHARE", "dip_dir": null, "lower_seis_depth": "(7.0,,)", "name": null, "net_slip_rate": "(0.3,0.1,0.5)", "slip_type": "Reverse", "upper_seis_depth": "(1.0,,)", "downthrown_side_id": null, "reference": null, "epistemic_quality": null, "accuracy": null, "activity_confidence": null, "fs_name": null, "last_movement": null, "downthrown_side_dir": null, "vert_sep_rate": null, "strike_slip_rate": null, "exposure_quality": null, "shortening_rate": null, "notes": null, "index_right": 90, "NAME_EN": "Italy" }, "geometry": { "type": "LineString", "coordinates": [ [ 9.871985, 45.44219 ], [ 9.919598, 45.455718 ], [ 9.9949, 45.469683 ], [ 10.082922, 45.475138 ], [ 10.174809, 45.47562 ], [ 10.386357, 45.480894 ] ] } },
{ "type": "Feature", "properties": { "average_dip": "(35.0,25,45)", "average_rake": "(85,70,100)", "catalog_id": "EUR_ITCS073", "catalog_name": "SHARE", "dip_dir": null, "lower_seis_depth": "(9.0,,)", "name": null, "net_slip_rate": "(0.3,0.1,0.5)", "slip_type": "Reverse", "upper_seis_depth": "(3.0,,)", "downthrown_side_id": null, "reference": null, "epistemic_quality": null, "accuracy": null, "activity_confidence": null, "fs_name": null, "last_movement": null, "downthrown_side_dir": null, "vert_sep_rate": null, "strike_slip_rate": null, "exposure_quality": null, "shortening_rate": null, "notes": null, "index_right": 90, "NAME_EN": "Italy" }, "geometry": { "type": "LineString", "coordinates": [ [ 10.550689, 45.326465 ], [ 10.605328, 45.345069 ], [ 10.642186, 45.362813 ], [ 10.655145, 45.371726 ], [ 10.705513, 45.414798 ], [ 10.74497, 45.455707 ], [ 10.775891, 45.501348 ], [ 11.01685, 45.799682 ] ] } },
{ "type": "Feature", "properties": { "average_dip": "(80.0,70,90)", "average_rake": "(20,170,-130)", "catalog_id": "EUR_ITCS075", "catalog_name": "SHARE", "dip_dir": null, "lower_seis_depth": "(20.0,,)", "name": null, "net_slip_rate": "(0.3,0.1,0.5)", "slip_type": "Sinistral", "upper_seis_depth": "(11.0,,)", "downthrown_side_id": null, "reference": null, "epistemic_quality": null, "accuracy": null, "activity_confidence": null, "fs_name": null, "last_movement": null, "downthrown_side_dir": null, "vert_sep_rate": null, "strike_slip_rate": null, "exposure_quality": null, "shortening_rate": null, "notes": null, "index_right": 90, "NAME_EN": "Italy" }, "geometry": { "type": "LineString", "coordinates": [ [ 14.358788, 42.49558 ], [ 13.489947, 42.515553 ] ] } },
{ "type": "Feature", "properties": { "average_dip": "(30.0,20,40)", "average_rake": "(90,80,100)", "catalog_id": "EUR_ITCS076", "catalog_name": "SHARE", "dip_dir": null, "lower_seis_depth": "(10.0,,)", "name": null, "net_slip_rate": "(0.3,0.1,0.5)", "slip_type": "Reverse", "upper_seis_depth": "(2.0,,)", "downthrown_side_id": null, "reference": null, "epistemic_quality": null, "accuracy": null, "activity_confidence": null, "fs_name": null, "last_movement": null, "downthrown_side_dir": null, "vert_sep_rate": null, "strike_slip_rate": null, "exposure_quality": null, "shortening_rate": null, "notes": null, "index_right": 90, "NAME_EN": "Italy" }, "geometry": { "type": "LineString", "coordinates": [ [ 10.677312, 45.141221 ], [ 10.833955, 45.174366 ], [ 11.195657, 45.280909 ], [ 11.262852, 45.303431 ] ] } },
{ "type": "Feature", "properties": { "average_dip": "(70.0,60,80)", "average_rake": "(-130,-140,-120)", "catalog_id": "EUR_ITCS077", "catalog_name": "SHARE", "dip_dir": null, "lower_seis_depth": "(25.0,,)", "name": null, "net_slip_rate": "(0.6,0.1,1.0)", "slip_type": "Dextral-Normal", "upper_seis_depth": "(11.0,,)", "downthrown_side_id": null, "reference": null, "epistemic_quality": null, "accuracy": null, "activity_confidence": null, "fs_name": null, "last_movement": null, "downthrown_side_dir": null, "vert_sep_rate": null, "strike_slip_rate": null, "exposure_quality": null, "shortening_rate": null, "notes": null, "index_right": 90, "NAME_EN": "Italy" }, "geometry": { "type": "LineString", "coordinates": [ [ 14.740184, 41.633931 ], [ 14.281032, 41.63062 ] ] } },
{ "type": "Feature", "properties": { "average_dip": "(25.0,20,30)", "average_rake": "(90,80,100)", "catalog_id": "EUR_ITCS078", "catalog_name": "SHARE", "dip_dir": null, "lower_seis_depth": "(18.0,,)", "name": null, "net_slip_rate": "(0.3,0.1,0.5)", "slip_type": "Reverse", "upper_seis_depth": "(8.0,,)", "downthrown_side_id": null, "reference": null, "epistemic_quality": null, "accuracy": null, "activity_confidence": null, "fs_name": null, "last_movement": null, "downthrown_side_dir": null, "vert_sep_rate": null, "strike_slip_rate": null, "exposure_quality": null, "shortening_rate": null, "notes": null, "index_right": 90, "NAME_EN": "Italy" }, "geometry": { "type": "LineString", "coordinates": [ [ 14.453134, 41.888194 ], [ 14.340951, 42.024504 ], [ 14.304976, 42.059077 ], [ 14.249652, 42.100311 ], [ 14.172328, 42.149927 ], [ 14.108111, 42.183077 ], [ 14.033339, 42.215944 ], [ 13.950698, 42.246399 ] ] } },
{ "type": "Feature", "properties": { "average_dip": "(30.0,20,40)", "average_rake": "(90,80,100)", "catalog_id": "EUR_ITCS079", "catalog_name": "SHARE", "dip_dir": null, "lower_seis_depth": "(8.0,,)", "name": null, "net_slip_rate": "(0.3,0.1,0.5)", "slip_type": "Reverse", "upper_seis_depth": "(3.0,,)", "downthrown_side_id": null, "reference": null, "epistemic_quality": null, "accuracy": null, "activity_confidence": null, "fs_name": null, "last_movement": null, "downthrown_side_dir": null, "vert_sep_rate": null, "strike_slip_rate": null, "exposure_quality": null, "shortening_rate": null, "notes": null, "index_right": 90, "NAME_EN": "Italy" }, "geometry": { "type": "LineString", "coordinates": [ [ 14.464472, 42.114925 ], [ 14.4116, 42.167486 ], [ 14.387825, 42.193235 ], [ 14.351674, 42.221432 ], [ 14.321072, 42.238328 ], [ 14.276329, 42.257418 ], [ 14.217555, 42.278884 ], [ 14.181138, 42.290017 ], [ 14.148514, 42.296081 ] ] } },
{ "type": "Feature", "properties": { "average_dip": "(70.0,60,80)", "average_rake": "(-45,-60,-30)", "catalog_id": "EUR_ITCS080", "catalog_name": "SHARE", "dip_dir": null, "lower_seis_depth": "(12.0,,)", "name": null, "net_slip_rate": "(0.3,0.1,0.5)", "slip_type": "Sinistral-Normal", "upper_seis_depth": "(3.0,,)", "downthrown_side_id": null, "reference": null, "epistemic_quality": null, "accuracy": null, "activity_confidence": null, "fs_name": null, "last_movement": null, "downthrown_side_dir": null, "vert_sep_rate": null, "strike_slip_rate": null, "exposure_quality": null, "shortening_rate": null, "notes": null, "index_right": 90, "NAME_EN": "Italy" }, "geometry": { "type": "LineString", "coordinates": [ [ 15.938969, 38.545421 ], [ 16.236174, 38.412886 ], [ 16.401309, 38.335833 ] ] } },
{ "type": "Feature", "properties": { "average_dip": "(65.0,60,70)", "average_rake": "(-90,-100,-80)", "catalog_id": "EUR_ITCS081", "catalog_name": "SHARE", "dip_dir": null, "lower_seis_depth": "(13.0,,)", "name": null, "net_slip_rate": "(1.2,0.4,2.0)", "slip_type": "Normal", "upper_seis_depth": "(1.0,,)", "downthrown_side_id": null, "reference": null, "epistemic_quality": null, "accuracy": null, "activity_confidence": null, "fs_name": null, "last_movement": null, "downthrown_side_dir": null, "vert_sep_rate": null, "strike_slip_rate": null, "exposure_quality": null, "shortening_rate": null, "notes": null, "index_right": 90, "NAME_EN": "Italy" }, "geometry": { "type": "LineString", "coordinates": [ [ 14.270897, 41.409289 ], [ 14.02367, 41.539284 ] ] } },
{ "type": "Feature", "properties": { "average_dip": "(30.0,20,40)", "average_rake": "(-90,-100,-80)", "catalog_id": "EUR_ITCS082", "catalog_name": "SHARE", "dip_dir": null, "lower_seis_depth": "(11.0,,)", "name": null, "net_slip_rate": "(0.6,0.1,1.0)", "slip_type": "Normal", "upper_seis_depth": "(3.0,,)", "downthrown_side_id": null, "reference": null, "epistemic_quality": null, "accuracy": null, "activity_confidence": null, "fs_name": null, "last_movement": null, "downthrown_side_dir": null, "vert_sep_rate": null, "strike_slip_rate": null, "exposure_quality": null, "shortening_rate": null, "notes": null, "index_right": 90, "NAME_EN": "Italy" }, "geometry": { "type": "LineString", "coordinates": [ [ 15.871745, 38.275269 ], [ 16.014981, 38.473148 ] ] } },
{ "type": "Feature", "properties": { "average_dip": "(37.5,30,45)", "average_rake": "(-90,-100,-80)", "catalog_id": "EUR_ITCS083", "catalog_name": "SHARE", "dip_dir": null, "lower_seis_depth": "(10.0,,)", "name": null, "net_slip_rate": "(0.6,0.1,1.0)", "slip_type": "Normal", "upper_seis_depth": "(1.0,,)", "downthrown_side_id": null, "reference": null, "epistemic_quality": null, "accuracy": null, "activity_confidence": null, "fs_name": null, "last_movement": null, "downthrown_side_dir": null, "vert_sep_rate": null, "strike_slip_rate": null, "exposure_quality": null, "shortening_rate": null, "notes": null, "index_right": 90, "NAME_EN": "Italy" }, "geometry": { "type": "LineString", "coordinates": [ [ 10.168911, 44.195813 ], [ 10.582487, 43.991575 ] ] } },
{ "type": "Feature", "properties": { "average_dip": "(65.0,55,75)", "average_rake": "(-120,-130,-110)", "catalog_id": "EUR_ITCS084", "catalog_name": "SHARE", "dip_dir": null, "lower_seis_depth": "(16.0,,)", "name": null, "net_slip_rate": "(0.6,0.1,1.0)", "slip_type": "Dextral-Normal", "upper_seis_depth": "(1.0,,)", "downthrown_side_id": null, "reference": null, "epistemic_quality": null, "accuracy": null, "activity_confidence": null, "fs_name": null, "last_movement": null, "downthrown_side_dir": null, "vert_sep_rate": null, "strike_slip_rate": null, "exposure_quality": null, "shortening_rate": null, "notes": null, "index_right": 90, "NAME_EN": "Italy" }, "geometry": { "type": "LineString", "coordinates": [ [ 14.941822, 41.0399 ], [ 15.29794, 41.016528 ], [ 15.64566, 40.972871 ] ] } },
{ "type": "Feature", "properties": { "average_dip": "(85.0,80,90)", "average_rake": "(-90,-100,-80)", "catalog_id": "EUR_ITCS085", "catalog_name": "SHARE", "dip_dir": null, "lower_seis_depth": "(4.0,,)", "name": null, "net_slip_rate": "(0.6,0.1,1.0)", "slip_type": "Normal", "upper_seis_depth": "(0.0,,)", "downthrown_side_id": null, "reference": null, "epistemic_quality": null, "accuracy": null, "activity_confidence": null, "fs_name": null, "last_movement": null, "downthrown_side_dir": null, "vert_sep_rate": null, "strike_slip_rate": null, "exposure_quality": null, "shortening_rate": null, "notes": null, "index_right": 90, "NAME_EN": "Italy" }, "geometry": { "type": "LineString", "coordinates": [ [ 13.933662, 40.759296 ], [ 13.839129, 40.709678 ] ] } },
{ "type": "Feature", "properties": { "average_dip": "(70.0,60,80)", "average_rake": "(-90,-100,-80)", "catalog_id": "EUR_ITCS086", "catalog_name": "SHARE", "dip_dir": null, "lower_seis_depth": "(11.0,,)", "name": null, "net_slip_rate": "(0.6,0.1,1.0)", "slip_type": "Normal", "upper_seis_depth": "(5.0,,)", "downthrown_side_id": null, "reference": null, "epistemic_quality": null, "accuracy": null, "activity_confidence": null, "fs_name": null, "last_movement": null, "downthrown_side_dir": null, "vert_sep_rate": null, "strike_slip_rate": null, "exposure_quality": null, "shortening_rate": null, "notes": null, "index_right": 90, "NAME_EN": "Italy" }, "geometry": { "type": "LineString", "coordinates": [ [ 12.808858, 41.75276 ], [ 12.74766, 41.712031 ], [ 12.617638, 41.630452 ] ] } },
{ "type": "Feature", "properties": { "average_dip": "(70.0,60,80)", "average_rake": "(-90,-100,-80)", "catalog_id": "EUR_ITCS087", "catalog_name": "SHARE", "dip_dir": null, "lower_seis_depth": "(12.0,,)", "name": null, "net_slip_rate": "(0.5,0.4,0.6)", "slip_type": "Normal", "upper_seis_depth": "(1.0,,)", "downthrown_side_id": null, "reference": null, "epistemic_quality": null, "accuracy": null, "activity_confidence": null, "fs_name": null, "last_movement": null, "downthrown_side_dir": null, "vert_sep_rate": null, "strike_slip_rate": null, "exposure_quality": null, "shortening_rate": null, "notes": null, "index_right": 90, "NAME_EN": "Italy" }, "geometry": { "type": "LineString", "coordinates": [ [ 15.473417, 40.809991 ], [ 15.254298, 40.922477 ] ] } },
{ "type": "Feature", "properties": { "average_dip": "(50.0,40,60)", "average_rake": "(-90,-100,-80)", "catalog_id": "EUR_ITCS088", "catalog_name": "SHARE", "dip_dir": null, "lower_seis_depth": "(7.0,,)", "name": null, "net_slip_rate": "(0.6,0.1,1.0)", "slip_type": "Normal", "upper_seis_depth": "(1.0,,)", "downthrown_side_id": null, "reference": null, "epistemic_quality": null, "accuracy": null, "activity_confidence": null, "fs_name": null, "last_movement": null, "downthrown_side_dir": null, "vert_sep_rate": null, "strike_slip_rate": null, "exposure_quality": null, "shortening_rate": null, "notes": null, "index_right": 90, "NAME_EN": "Italy" }, "geometry": { "type": "LineString", "coordinates": [ [ 10.487116, 43.438078 ], [ 10.414316, 43.5802 ] ] } },
{ "type": "Feature", "properties": { "average_dip": "(80.0,70,90)", "average_rake": "(0,170,-170)", "catalog_id": "EUR_ITCS089", "catalog_name": "SHARE", "dip_dir": null, "lower_seis_depth": "(23.0,,)", "name": null, "net_slip_rate": "(0.3,0.1,0.5)", "slip_type": "Sinistral", "upper_seis_depth": "(12.0,,)", "downthrown_side_id": null, "reference": null, "epistemic_quality": null, "accuracy": null, "activity_confidence": null, "fs_name": null, "last_movement": null, "downthrown_side_dir": null, "vert_sep_rate": null, "strike_slip_rate": null, "exposure_quality": null, "shortening_rate": null, "notes": null, "index_right": 90, "NAME_EN": "Italy" }, "geometry": { "type": "LineString", "coordinates": [ [ 16.209912, 40.961752 ], [ 15.549199, 40.961039 ] ] } },
{ "type": "Feature", "properties": { "average_dip": "(55.0,50,60)", "average_rake": "(145,130,160)", "catalog_id": "EUR_ITCS100", "catalog_name": "SHARE", "dip_dir": null, "lower_seis_depth": "(15.0,,)", "name": null, "net_slip_rate": "(0.2,0.1,0.3)", "slip_type": "Dextral-Reverse", "upper_seis_depth": "(1.0,,)", "downthrown_side_id": null, "reference": null, "epistemic_quality": null, "accuracy": null, "activity_confidence": null, "fs_name": null, "last_movement": null, "downthrown_side_dir": null, "vert_sep_rate": null, "strike_slip_rate": null, "exposure_quality": null, "shortening_rate": null, "notes": null, "index_right": 90, "NAME_EN": "Italy" }, "geometry": { "type": "LineString", "coordinates": [ [ 13.374062, 45.900445 ], [ 13.410342, 45.867765 ], [ 13.459989, 45.833083 ], [ 13.521092, 45.801736 ], [ 13.656212, 45.71889 ], [ 13.720634, 45.675015 ], [ 13.756914, 45.648337 ], [ 13.863783, 45.590242 ] ] } },
{ "type": "Feature", "properties": { "average_dip": "(37.5,30,45)", "average_rake": "(110,100,120)", "catalog_id": "EUR_ITCS101", "catalog_name": "SHARE", "dip_dir": null, "lower_seis_depth": "(12.0,,)", "name": null, "net_slip_rate": "(0.2,0.1,0.3)", "slip_type": "Reverse", "upper_seis_depth": "(1.5,,)", "downthrown_side_id": null, "reference": null, "epistemic_quality": null, "accuracy": null, "activity_confidence": null, "fs_name": null, "last_movement": null, "downthrown_side_dir": null, "vert_sep_rate": null, "strike_slip_rate": null, "exposure_quality": null, "shortening_rate": null, "notes": null, "index_right": 90, "NAME_EN": "Italy" }, "geometry": { "type": "LineString", "coordinates": [ [ 13.23276, 45.846422 ], [ 13.293864, 45.810407 ], [ 13.36165, 45.773724 ], [ 13.412252, 45.743044 ], [ 13.481948, 45.712364 ], [ 13.524025, 45.688115 ], [ 13.562301, 45.660368 ], [ 13.6473, 45.610589 ], [ 13.698703, 45.574953 ], [ 13.76144, 45.534704 ], [ 13.836492, 45.496485 ] ] } },
{ "type": "Feature", "properties": { "average_dip": "(75.0,65,85)", "average_rake": "(150,140,160)", "catalog_id": "EUR_ITCS102", "catalog_name": "SHARE", "dip_dir": null, "lower_seis_depth": "(14.0,,)", "name": null, "net_slip_rate": "(0.1,0.05,0.15)", "slip_type": "Dextral-Reverse", "upper_seis_depth": "(1.0,,)", "downthrown_side_id": null, "reference": null, "epistemic_quality": null, "accuracy": null, "activity_confidence": null, "fs_name": null, "last_movement": null, "downthrown_side_dir": null, "vert_sep_rate": null, "strike_slip_rate": null, "exposure_quality": null, "shortening_rate": null, "notes": null, "index_right": 90, "NAME_EN": "Italy" }, "geometry": { "type": "LineString", "coordinates": [ [ 13.142739, 46.531078 ], [ 13.227497, 46.523868 ], [ 13.354177, 46.510336 ], [ 13.436251, 46.506031 ], [ 13.533491, 46.506646 ], [ 13.712211, 46.491522 ], [ 13.783282, 46.486963 ], [ 13.830401, 46.481788 ] ] } },
{ "type": "Feature", "properties": { "average_dip": "(62.5,40,85)", "average_rake": "(150,120,180)", "catalog_id": "EUR_SICS005", "catalog_name": "SHARE", "dip_dir": null, "lower_seis_depth": "(9.0,,)", "name": null, "net_slip_rate": "(0.3,0.1,0.5)", "slip_type": "Dextral-Reverse", "upper_seis_depth": "(1.0,,)", "downthrown_side_id": null, "reference": null, "epistemic_quality": null, "accuracy": null, "activity_confidence": null, "fs_name": null, "last_movement": null, "downthrown_side_dir": null, "vert_sep_rate": null, "strike_slip_rate": null, "exposure_quality": null, "shortening_rate": null, "notes": null, "index_right": 90, "NAME_EN": "Italy" }, "geometry": { "type": "LineString", "coordinates": [ [ 13.459777, 46.090342 ], [ 13.599898, 45.994133 ], [ 13.660153, 45.945411 ], [ 13.699515, 45.909445 ], [ 13.723377, 45.892713 ], [ 13.742296, 45.876984 ], [ 13.755007, 45.863895 ] ] } }
]
}
