{
"type": "FeatureCollection",
"name": "faults_dominican_republic",
"crs": { "type": "name", "properties": { "name": "urn:ogc:def:crs:OGC:1.3:CRS84" } },
"features": [
{ "type": "Feature", "properties": { "average_dip": "(90.0,,)", "average_rake": null, "catalog_id": "CA_135.0", "catalog_name": "GEM_Central_Am_Carib", "dip_dir": null, "lower_seis_depth": null, "name": "Monte Cristi Fault", "net_slip_rate": null, "slip_type": null, "upper_seis_depth": null, "downthrown_side_id": null, "reference": "", "epistemic_quality": null, "accuracy": null, "activity_confidence": "1", "fs_name": "Septentrional Fault", "last_movement": null, "downthrown_side_dir": null, "vert_sep_rate": null, "strike_slip_rate": null, "exposure_quality": null, "shortening_rate": null, "notes": null, "index_right": 113, "NAME_EN": "Dominican Republic" }, "geometry": { "type": "LineString", "coordinates": [ [ -71.690633898234978, 19.840199914800912 ], [ -71.663835209396183, 19.839525733949621 ], [ -71.563719352979547, 19.824862300434052 ], [ -71.539280297120271, 19.819974489262197 ], [ -71.533549759884295, 19.816603585005744 ], [ -71.502874531150582, 19.808681960003081 ], [ -71.49946149059096, 19.810957320376193 ], [ -71.482101333670229, 19.810451684737725 ], [ -71.455386917437835, 19.801855878883767 ], [ -71.442493208656899, 19.80261433234147 ], [ -71.436931216633752, 19.80143451585171 ], [ -71.373747829976878, 19.778343821695017 ] ] } },
{ "type": "Feature", "properties": { "average_dip": null, "average_rake": null, "catalog_id": "CA_136.0", "catalog_name": "GEM_Central_Am_Carib", "dip_dir": null, "lower_seis_depth": null, "name": "[rename]", "net_slip_rate": null, "slip_type": "Sinistral", "upper_seis_depth": null, "downthrown_side_id": null, "reference": null, "epistemic_quality": null, "accuracy": null, "activity_confidence": "1", "fs_name": "Septentrional Fault", "last_movement": null, "downthrown_side_dir": null, "vert_sep_rate": null, "strike_slip_rate": null, "exposure_quality": null, "shortening_rate": null, "notes": null, "index_right": 113, "NAME_EN": "Dominican Republic" }, "geometry": { "type": "LineString", "coordinates": [ [ -71.693267417185339, 19.830887791792474 ], [ -71.618686160511331, 19.822966166789811 ], [ -71.41002718703696, 19.772823965975089 ], [ -71.38145877346355, 19.764396705333958 ], [ -71.348592456963132, 19.75175581437226 ], [ -71.305107792054869, 19.731698934046371 ], [ -71.187463233504687, 19.684169184030395 ], [ -71.17397961647886, 19.676247559027725 ], [ -71.138922212211767, 19.660741399448042 ], [ -71.068470313251908, 19.6320887132682 ], [ -71.032064547282218, 19.618942186668036 ], [ -70.915431260008987, 19.582199330272712 ], [ -70.820371759977036, 19.55409441603453 ] ] } },
{ "type": "Feature", "properties": { "average_dip": "(80,70,90)", "average_rake": null, "catalog_id": "CA_137.0", "catalog_name": "GEM_Central_Am_Carib", "dip_dir": "S", "lower_seis_depth": null, "name": "Septentrional Mountain Front Fault", "net_slip_rate": null, "slip_type": "Sinistral-Normal", "upper_seis_depth": null, "downthrown_side_id": null, "reference": "Mann et al., 1998 GSA SP", "epistemic_quality": "1", "accuracy": "100000", "activity_confidence": "1", "fs_name": "Septentrional Fault", "last_movement": null, "downthrown_side_dir": null, "vert_sep_rate": null, "strike_slip_rate": null, "exposure_quality": "1", "shortening_rate": null, "notes": null, "index_right": 113, "NAME_EN": "Dominican Republic" }, "geometry": { "type": "LineString", "coordinates": [ [ -69.241451192577372, 19.159015317178337 ], [ -69.358155059307251, 19.194800204490534 ], [ -69.428112902070737, 19.202859863795084 ], [ -69.449712789006938, 19.210597136727451 ], [ -69.461641084777668, 19.211886682216178 ], [ -69.49194540376277, 19.220591114265094 ], [ -69.5361123367517, 19.225749296220005 ], [ -69.549974950755526, 19.225426909847823 ], [ -69.594141883744456, 19.229295546314006 ], [ -69.60961642960919, 19.233808955524555 ], [ -69.656684839947758, 19.241546228456922 ], [ -69.674738476789955, 19.250250660505834 ], [ -69.692147340887772, 19.255408842460746 ], [ -69.722774046245064, 19.270561001953297 ] ] } },
{ "type": "Feature", "properties": { "average_dip": "(60,50,80)", "average_rake": null, "catalog_id": "CA_138.0", "catalog_name": "GEM_Central_Am_Carib", "dip_dir": "N", "lower_seis_depth": null, "name": "South Samana Fault", "net_slip_rate": null, "slip_type": "Normal-Sinistral", "upper_seis_depth": null, "downthrown_side_id": null, "reference": "Mann et al.., 1998 GSA SP", "epistemic_quality": null, "accuracy": "100000", "activity_confidence": null, "fs_name": "", "last_movement": null, "downthrown_side_dir": "N", "vert_sep_rate": null, "strike_slip_rate": null, "exposure_quality": null, "shortening_rate": null, "notes": null, "index_right": 113, "NAME_EN": "Dominican Republic" }, "geometry": { "type": "LineString", "coordinates": [ [ -70.0823557461175, 19.133224407403766 ], [ -70.066639410473627, 19.133466197182901 ], [ -70.059224523913443, 19.131451282356764 ], [ -70.004741227014691, 19.12524534469226 ], [ -69.964442930491941, 19.125890117436622 ], [ -69.955899691629114, 19.122988640086987 ], [ -69.928174463621474, 19.118797617248621 ], [ -69.901738781102551, 19.116379719457253 ], [ -69.87659264407236, 19.117346878573798 ], [ -69.83532718843307, 19.110254378385793 ], [ -69.79502889191032, 19.110576764757976 ], [ -69.775363323207216, 19.10799767378052 ], [ -69.747315708827387, 19.099938014475971 ], [ -69.727972526496472, 19.097036537126332 ], [ -69.698312980255736, 19.100905173592515 ], [ -69.684772752624085, 19.099938014475971 ], [ -69.645119228845701, 19.091555968799241 ], [ -69.615137296232774, 19.079627673028508 ], [ -69.604740335729929, 19.078499320725872 ], [ -69.583543431758955, 19.079547076435464 ], [ -69.561379368671453, 19.075839633155372 ], [ -69.54114962381702, 19.07567843996928 ], [ -69.520194509625185, 19.070197871642186 ], [ -69.508588600226645, 19.07374412173619 ], [ -69.491502122500989, 19.069230712525641 ], [ -69.476027576636255, 19.069230712525641 ], [ -69.465388826354257, 19.066974007920368 ], [ -69.456684394305341, 19.062138212337636 ] ] } },
{ "type": "Feature", "properties": { "average_dip": "(90.0,,)", "average_rake": null, "catalog_id": "CA_139.0", "catalog_name": "GEM_Central_Am_Carib", "dip_dir": null, "lower_seis_depth": null, "name": "Cano Grande Estero Fault", "net_slip_rate": null, "slip_type": "Sinistral", "upper_seis_depth": null, "downthrown_side_id": null, "reference": "Mann et al., 1998 GSA SP", "epistemic_quality": null, "accuracy": "100000", "activity_confidence": null, "fs_name": "Septentrional Fault", "last_movement": null, "downthrown_side_dir": null, "vert_sep_rate": null, "strike_slip_rate": null, "exposure_quality": null, "shortening_rate": null, "notes": null, "index_right": 113, "NAME_EN": "Dominican Republic" }, "geometry": { "type": "LineString", "coordinates": [ [ -69.948484805068944, 19.278620661257829 ], [ -69.923338668038753, 19.277008729396918 ], [ -69.87240162123399, 19.266047592742733 ], [ -69.796318437399052, 19.253474524227634 ], [ -69.758276845481575, 19.248961115017089 ], [ -69.706372639560286, 19.238644751107266 ], [ -69.687029457229357, 19.233164182780172 ], [ -69.666074343037536, 19.234131341896717 ], [ -69.613202977999691, 19.224137364359077 ] ] } },
{ "type": "Feature", "properties": { "average_dip": "(90.0,,)", "average_rake": null, "catalog_id": "CA_140.0", "catalog_name": "GEM_Central_Am_Carib", "dip_dir": null, "lower_seis_depth": null, "name": "Septentrional Fault", "net_slip_rate": null, "slip_type": "Sinistral", "upper_seis_depth": null, "downthrown_side_id": null, "reference": null, "epistemic_quality": "1", "accuracy": "100000", "activity_confidence": "1", "fs_name": "Septentrional Fault", "last_movement": "1562", "downthrown_side_dir": null, "vert_sep_rate": null, "strike_slip_rate": null, "exposure_quality": null, "shortening_rate": null, "notes": null, "index_right": 113, "NAME_EN": "Dominican Republic" }, "geometry": { "type": "LineString", "coordinates": [ [ -70.765069966318464, 19.543399359238766 ], [ -70.720258260585169, 19.526474074699212 ], [ -70.651267576938238, 19.491333960131378 ], [ -70.559709847238551, 19.456838618307906 ], [ -70.542945755885086, 19.447811799886811 ], [ -70.528438369136907, 19.444265549792807 ], [ -70.470731208516327, 19.42459998108971 ], [ -70.433334389343216, 19.407513503364065 ], [ -70.384976433515945, 19.390265832452325 ], [ -70.305105209807891, 19.367819681289156 ], [ -70.25723083353887, 19.356213771890602 ], [ -70.235147367044405, 19.352506328610509 ], [ -70.202263957081854, 19.339772066909322 ], [ -70.17921333147082, 19.335178061105729 ], [ -70.10038986347233, 19.314545333286087 ], [ -70.082013840257957, 19.312772208239085 ], [ -70.056061737297313, 19.306324480795446 ], [ -70.004641110934301, 19.290043969000259 ], [ -69.979172587531906, 19.285691752975801 ], [ -69.951286166338178, 19.276826127740797 ] ] } },
{ "type": "Feature", "properties": { "average_dip": null, "average_rake": null, "catalog_id": "CA_141.0", "catalog_name": "GEM_Central_Am_Carib", "dip_dir": null, "lower_seis_depth": null, "name": "Septentrional Fault", "net_slip_rate": null, "slip_type": "Sinistral", "upper_seis_depth": null, "downthrown_side_id": null, "reference": "Mann et al., 1998 GSA SP", "epistemic_quality": "0", "accuracy": "100000", "activity_confidence": null, "fs_name": null, "last_movement": null, "downthrown_side_dir": null, "vert_sep_rate": null, "strike_slip_rate": null, "exposure_quality": "0", "shortening_rate": null, "notes": null, "index_right": 113, "NAME_EN": "Dominican Republic" }, "geometry": { "type": "LineString", "coordinates": [ [ -71.738681789746082, 19.710817848082023 ], [ -71.709425359949208, 19.694809612910149 ], [ -71.648152459808585, 19.669969247988274 ], [ -71.511599453751941, 19.631535683373052 ], [ -71.442046431970724, 19.629051646880864 ], [ -71.376633471009782, 19.633467711755866 ] ] } },
{ "type": "Feature", "properties": { "average_dip": "(20,10,50)", "average_rake": null, "catalog_id": "CA_149.0", "catalog_name": "GEM_Central_Am_Carib", "dip_dir": "N", "lower_seis_depth": null, "name": "Boca de Cachon Thrust", "net_slip_rate": null, "slip_type": "Reverse", "upper_seis_depth": null, "downthrown_side_id": null, "reference": "Saint Fleur et al., 2015 GRL", "epistemic_quality": "2", "accuracy": "100000", "activity_confidence": "1", "fs_name": null, "last_movement": null, "downthrown_side_dir": "S", "vert_sep_rate": null, "strike_slip_rate": null, "exposure_quality": "2", "shortening_rate": null, "notes": null, "index_right": 113, "NAME_EN": "Dominican Republic" }, "geometry": { "type": "LineString", "coordinates": [ [ -72.035041143466842, 18.651031279095825 ], [ -72.026485017771535, 18.642199149345828 ], [ -72.012408810982464, 18.622602861463015 ], [ -71.992536519044961, 18.611562699275517 ], [ -71.958864024373099, 18.604662597908327 ], [ -71.937059704052785, 18.604938601963017 ], [ -71.927951570248098, 18.599970528978641 ], [ -71.911115322912153, 18.595554464103639 ], [ -71.90476722965434, 18.59113839922864 ], [ -71.874406783638719, 18.581202253259892 ], [ -71.85729453224809, 18.56905807485364 ], [ -71.825278061904342, 18.552773835627079 ], [ -71.790777555068402, 18.544217709931768 ], [ -71.782359431400437, 18.543113693713007 ], [ -71.774907321923877, 18.544079707904412 ] ] } },
{ "type": "Feature", "properties": { "average_dip": "(20,15,40)", "average_rake": null, "catalog_id": "CA_150.0", "catalog_name": "GEM_Central_Am_Carib", "dip_dir": "N", "lower_seis_depth": null, "name": "Neiba Thrust", "net_slip_rate": null, "slip_type": "Reverse", "upper_seis_depth": null, "downthrown_side_id": null, "reference": "Saint Fleur et al., 2015 GRL", "epistemic_quality": "2", "accuracy": "100000", "activity_confidence": "1", "fs_name": null, "last_movement": null, "downthrown_side_dir": "S", "vert_sep_rate": null, "strike_slip_rate": null, "exposure_quality": "2", "shortening_rate": null, "notes": null, "index_right": 113, "NAME_EN": "Dominican Republic" }, "geometry": { "type": "LineString", "coordinates": [ [ -71.637595304716868, 18.553187841709114 ], [ -71.626003134419989, 18.548495772779429 ], [ -71.604198814099675, 18.534143561935679 ], [ -71.548169990998119, 18.503783115920054 ], [ -71.536853824755937, 18.498539038880992 ], [ -71.526365670677805, 18.496331006443491 ], [ -71.506217374685619, 18.496607010498181 ], [ -71.497661248990312, 18.504335124029431 ], [ -71.490761147623118, 18.504611128084118 ], [ -71.479444981380936, 18.50875118890443 ], [ -71.463160742154372, 18.512063237560678 ], [ -71.444392466435616, 18.510131209177867 ], [ -71.367111331123127, 18.494950986170053 ], [ -71.357451189209058, 18.496883014552868 ] ] } },
{ "type": "Feature", "properties": { "average_dip": "(20,15,40)", "average_rake": null, "catalog_id": "CA_151.0", "catalog_name": "GEM_Central_Am_Carib", "dip_dir": "N", "lower_seis_depth": null, "name": "El Rodeo Thrust", "net_slip_rate": null, "slip_type": "Reverse", "upper_seis_depth": null, "downthrown_side_id": null, "reference": "Saint Fleur et al., 2015", "epistemic_quality": "2", "accuracy": null, "activity_confidence": null, "fs_name": null, "last_movement": null, "downthrown_side_dir": "S", "vert_sep_rate": null, "strike_slip_rate": null, "exposure_quality": "2", "shortening_rate": null, "notes": null, "index_right": 113, "NAME_EN": "Dominican Republic" }, "geometry": { "type": "LineString", "coordinates": [ [ -71.348343055404371, 18.538697628838005 ], [ -71.34406499255671, 18.531659525443477 ], [ -71.33661288308015, 18.524345417994258 ], [ -71.327918755357487, 18.519515347037224 ], [ -71.318258613443433, 18.518135326763787 ], [ -71.301008360025463, 18.511511229451287 ], [ -71.290382203919989, 18.510545215259882 ], [ -71.281550074169999, 18.511649231478632 ], [ -71.263609810615307, 18.508889190931757 ], [ -71.258227731548899, 18.5112352253966 ], [ -71.247049567334059, 18.511097223369255 ], [ -71.236975419337966, 18.513719261888788 ], [ -71.214343086853589, 18.513029251752069 ], [ -71.208961007787181, 18.515927294326289 ] ] } },
{ "type": "Feature", "properties": { "average_dip": "(20,15,40)", "average_rake": null, "catalog_id": "CA_152.0", "catalog_name": "GEM_Central_Am_Carib", "dip_dir": "N", "lower_seis_depth": null, "name": "Monte Grande Thrust", "net_slip_rate": null, "slip_type": "Reverse", "upper_seis_depth": null, "downthrown_side_id": null, "reference": "DEM", "epistemic_quality": "2", "accuracy": "100000", "activity_confidence": "1", "fs_name": null, "last_movement": null, "downthrown_side_dir": "S", "vert_sep_rate": null, "strike_slip_rate": null, "exposure_quality": "2", "shortening_rate": null, "notes": null, "index_right": 113, "NAME_EN": "Dominican Republic" }, "geometry": { "type": "LineString", "coordinates": [ [ -71.251741636263745, 18.528899484896609 ], [ -71.22938530783405, 18.542147679521609 ], [ -71.208961007787181, 18.549323784943482 ], [ -71.198748857763746, 18.549323784943482 ], [ -71.156244233341866, 18.543803703849733 ], [ -71.141892022498126, 18.535799586263796 ], [ -71.131679872474677, 18.533591553826295 ], [ -71.103527458896565, 18.534971574099732 ], [ -71.075927053427819, 18.541457669384886 ], [ -71.05881480203719, 18.537317608564575 ], [ -71.049844670259844, 18.532625539634886 ], [ -71.029006364130936, 18.530279505170043 ], [ -71.010652094494205, 18.522689393666134 ], [ -70.984155705244206, 18.523241401775511 ] ] } },
{ "type": "Feature", "properties": { "average_dip": "(20,15,50)", "average_rake": null, "catalog_id": "CA_153.0", "catalog_name": "GEM_Central_Am_Carib", "dip_dir": "S", "lower_seis_depth": null, "name": "Independencia Thrust", "net_slip_rate": null, "slip_type": "Reverse", "upper_seis_depth": null, "downthrown_side_id": null, "reference": "Symithe and Calais, 2016", "epistemic_quality": "1", "accuracy": "100000", "activity_confidence": "1", "fs_name": null, "last_movement": null, "downthrown_side_dir": "N", "vert_sep_rate": null, "strike_slip_rate": null, "exposure_quality": "2", "shortening_rate": "(5,2,9)", "notes": null, "index_right": 113, "NAME_EN": "Dominican Republic" }, "geometry": { "type": "LineString", "coordinates": [ [ -72.015306853556723, 18.493708967923958 ], [ -71.997642594056728, 18.489844911158333 ], [ -71.972250221025476, 18.488188886830208 ], [ -71.955689977744228, 18.488740894939582 ], [ -71.942993791228602, 18.491500935486457 ], [ -71.929745596603595, 18.489292903048955 ], [ -71.914289369541095, 18.498125032798956 ], [ -71.902145191134849, 18.499229049017707 ], [ -71.887792980291096, 18.496469008470832 ], [ -71.866264664025479, 18.476596716533333 ], [ -71.856880526166108, 18.460036473252082 ], [ -71.832592169353603, 18.446236270517709 ], [ -71.825416063931726, 18.435748116439584 ], [ -71.81879196661923, 18.431332051564585 ], [ -71.812719877416114, 18.423051929923961 ], [ -71.793675597642675, 18.410079739353648 ], [ -71.759727098916116, 18.398211565002086 ], [ -71.752550993494239, 18.393795500127087 ], [ -71.74095882319736, 18.391311463634899 ], [ -71.732126693447356, 18.391311463634899 ], [ -71.728262636681734, 18.396279536619275 ], [ -71.709770365017675, 18.396003532564588 ], [ -71.674993854127052, 18.386067386595837 ], [ -71.664229695994237, 18.387999414978651 ], [ -71.650981501369245, 18.395451524455211 ], [ -71.637733306744238, 18.397383552838026 ], [ -71.593020649884863, 18.397935560947399 ], [ -71.574804382275488, 18.395451524455211 ], [ -71.560452171431734, 18.387723410923964 ], [ -71.553828074119238, 18.386343390650524 ], [ -71.531885751771583, 18.376683248736462 ], [ -71.523605630130959, 18.369507143314586 ], [ -71.506355376712989, 18.367023106822398 ], [ -71.500697293591898, 18.364677072357555 ], [ -71.487035092884867, 18.356120946662244 ], [ -71.47985898746299, 18.349634851377086 ], [ -71.473924900287201, 18.339560703380997 ], [ -71.466196786755944, 18.334040622287247 ], [ -71.420104109623139, 18.311408289802873 ], [ -71.387259627115327, 18.284083888388807 ], [ -71.36517930274033, 18.274699750529429 ], [ -71.350827091896576, 18.270835693763807 ], [ -71.331506808068454, 18.268075653216929 ], [ -71.321018653990336, 18.264211596451307 ], [ -71.309978491802838, 18.257587499138808 ], [ -71.293970256630956, 18.252067418045055 ], [ -71.285138126880952, 18.246547336951306 ], [ -71.276858005240328, 18.237715207201305 ], [ -71.237665429474703, 18.227227053123183 ], [ -71.226073259177838, 18.229435085560681 ], [ -71.217793137537214, 18.233851150435683 ], [ -71.200128878037205, 18.237163199091931 ], [ -71.180256586099716, 18.237163199091931 ], [ -71.153208188740336, 18.228883077451307 ], [ -71.130299852201304, 18.217014903099752 ], [ -71.11401561297474, 18.203490704420062 ], [ -71.098835389966922, 18.193830562506001 ], [ -71.063230866912235, 18.160710075943502 ], [ -71.047774639849735, 18.152153950248188 ] ] } },
{ "type": "Feature", "properties": { "average_dip": "(50,30,70)", "average_rake": null, "catalog_id": "CA_154.0", "catalog_name": "GEM_Central_Am_Carib", "dip_dir": "W", "lower_seis_depth": null, "name": "Bonao Fault", "net_slip_rate": null, "slip_type": "Reverse", "upper_seis_depth": null, "downthrown_side_id": null, "reference": "DEM", "epistemic_quality": "2", "accuracy": "100000", "activity_confidence": null, "fs_name": null, "last_movement": null, "downthrown_side_dir": "E", "vert_sep_rate": null, "strike_slip_rate": null, "exposure_quality": "2", "shortening_rate": null, "notes": null, "index_right": 113, "NAME_EN": "Dominican Republic" }, "geometry": { "type": "LineString", "coordinates": [ [ -70.517708852822395, 19.099261863908321 ], [ -70.507772706853643, 19.08932571793957 ], [ -70.493420496009904, 19.078285555752071 ], [ -70.472444187853654, 19.067245393564569 ], [ -70.461404025666155, 19.053445190830196 ], [ -70.4580919770099, 19.037988963767695 ], [ -70.450915871588023, 19.020324704267697 ], [ -70.447603822931768, 18.978924096064574 ], [ -70.447603822931754, 18.952427706814575 ], [ -70.4533999080802, 18.912131114830203 ], [ -70.458643985119252, 18.90026294047864 ], [ -70.468304127033321, 18.891430810728639 ], [ -70.471892179744259, 18.882322676923952 ], [ -70.486796398697379, 18.861070364713015 ] ] } },
{ "type": "Feature", "properties": { "average_dip": null, "average_rake": null, "catalog_id": "CA_155.0", "catalog_name": "GEM_Central_Am_Carib", "dip_dir": null, "lower_seis_depth": null, "name": null, "net_slip_rate": null, "slip_type": "Sinistral", "upper_seis_depth": null, "downthrown_side_id": null, "reference": "DEM", "epistemic_quality": "2", "accuracy": null, "activity_confidence": null, "fs_name": null, "last_movement": null, "downthrown_side_dir": null, "vert_sep_rate": null, "strike_slip_rate": null, "exposure_quality": "1", "shortening_rate": null, "notes": null, "index_right": 113, "NAME_EN": "Dominican Republic" }, "geometry": { "type": "LineString", "coordinates": [ [ -70.737132076298934, 19.712542873423935 ], [ -70.716707776252065, 19.708126808548933 ], [ -70.685243314017683, 19.698466666634872 ], [ -70.645774734197374, 19.694050601759873 ], [ -70.627006458478618, 19.68880652472081 ], [ -70.611550231416118, 19.686598492283309 ], [ -70.596094004353617, 19.678870378752059 ], [ -70.561593497517691, 19.669210236837998 ], [ -70.552761367767687, 19.664794171962999 ], [ -70.522124917697369, 19.658170074650499 ] ] } },
{ "type": "Feature", "properties": { "average_dip": null, "average_rake": null, "catalog_id": "CA_156.0", "catalog_name": "GEM_Central_Am_Carib", "dip_dir": null, "lower_seis_depth": null, "name": null, "net_slip_rate": null, "slip_type": "Sinistral", "upper_seis_depth": null, "downthrown_side_id": null, "reference": "DEM", "epistemic_quality": "2", "accuracy": null, "activity_confidence": "2", "fs_name": null, "last_movement": null, "downthrown_side_dir": null, "vert_sep_rate": null, "strike_slip_rate": null, "exposure_quality": "1", "shortening_rate": null, "notes": null, "index_right": 113, "NAME_EN": "Dominican Republic" }, "geometry": { "type": "LineString", "coordinates": [ [ -70.574565688088001, 19.705090763947371 ], [ -70.53068104339269, 19.692394577431745 ], [ -70.49480051628332, 19.686874496337996 ], [ -70.473548204072372, 19.694050601759873 ], [ -70.440979725619258, 19.699846686908309 ] ] } },
{ "type": "Feature", "properties": { "average_dip": null, "average_rake": null, "catalog_id": "CA_172.0", "catalog_name": "GEM_Central_Am_Carib", "dip_dir": "NE", "lower_seis_depth": null, "name": null, "net_slip_rate": null, "slip_type": "Reverse", "upper_seis_depth": null, "downthrown_side_id": null, "reference": "Benford et al., 2012 GJI", "epistemic_quality": null, "accuracy": null, "activity_confidence": "1", "fs_name": "Muertos Thrust", "last_movement": null, "downthrown_side_dir": "SW", "vert_sep_rate": null, "strike_slip_rate": null, "exposure_quality": null, "shortening_rate": null, "notes": null, "index_right": 113, "NAME_EN": "Dominican Republic" }, "geometry": { "type": "LineString", "coordinates": [ [ -71.177151540485184, 18.369541643821659 ], [ -71.159487280985189, 18.356293449196659 ], [ -71.149551135016438, 18.35077336810291 ], [ -71.127470810641427, 18.34304525457166 ], [ -71.117534664672689, 18.34414927079041 ], [ -71.09987040517268, 18.34304525457166 ], [ -71.082206145672686, 18.337525173477911 ], [ -71.055709756422686, 18.325380995071662 ], [ -71.025901318516432, 18.314340832884159 ], [ -70.989468783297681, 18.28674042741541 ], [ -70.975116572453942, 18.26576411925916 ], [ -70.967388458922684, 18.25914002194666 ], [ -70.943100102110193, 18.213875356977912 ], [ -70.938684037235191, 18.196211097477914 ], [ -70.935371988578936, 18.173026756884163 ], [ -70.923227810172691, 18.148738400071665 ], [ -70.913291664203939, 18.133282173009164 ], [ -70.897835437141438, 18.120033978384164 ], [ -70.869131015453945, 18.104577751321663 ], [ -70.843738642422693, 18.096849637790417 ], [ -70.641703674391422, 18.014048421384167 ], [ -70.588710895891424, 17.98313596725917 ], [ -70.548966312016418, 17.952223513134168 ], [ -70.487141403766429, 17.85065402100917 ], [ -70.46064501451643, 17.793245177634173 ], [ -70.442980755016421, 17.762332723509175 ], [ -70.438564690141433, 17.744668464009173 ], [ -70.412068300891434, 17.713756009884175 ], [ -70.367907652141426, 17.696091750384173 ], [ -70.332579133141422, 17.669595361134174 ] ] } }
]
}
