{
"type": "FeatureCollection",
"name": "faults_taiwan",
"crs": { "type": "name", "properties": { "name": "urn:ogc:def:crs:OGC:1.3:CRS84" } },
"features": [
{ "type": "Feature", "properties": { "average_dip": "(45,,)", "average_rake": null, "catalog_id": "TW_1", "catalog_name": "Shyu Taiwan", "dip_dir": null, "lower_seis_depth": "(13.76,,)", "name": "Shanchiao fault", "net_slip_rate": "(1.85,1.09,2.6)", "slip_type": "Normal", "upper_seis_depth": "(0.,,)", "downthrown_side_id": null, "reference": "Shyu et al 2016 modified from Huang et al. (2007)", "epistemic_quality": null, "accuracy": null, "activity_confidence": null, "fs_name": null, "last_movement": null, "downthrown_side_dir": null, "vert_sep_rate": null, "strike_slip_rate": null, "exposure_quality": null, "shortening_rate": null, "notes": null, "index_right": 188, "NAME_EN": "Taiwan" }, "geometry": { "type": "LineString", "coordinates": [ [ 121.418488955095313, 24.992482258917121 ], [ 121.4120481623887, 25.007500657183453 ], [ 121.410771867934372, 25.018772092222488 ], [ 121.412503981619452, 25.028274576671553 ], [ 121.415891431585507, 25.030625562860251 ], [ 121.426653291010069, 25.048417425263963 ], [ 121.431443256431336, 25.062964194316027 ], [ 121.433520274851503, 25.077421723739906 ], [ 121.445817504653505, 25.09380029714567 ], [ 121.451001034517589, 25.104637883947923 ], [ 121.463016574763955, 25.116582248802882 ], [ 121.468711217641655, 25.12915978177185 ], [ 121.477984963333668, 25.135941960285855 ], [ 121.48808347653015, 25.140381684784753 ], [ 121.493048416737466, 25.146148830469357 ], [ 121.501497647524488, 25.149213609331571 ], [ 121.516220810293191, 25.158245365404088 ], [ 121.524819911453918, 25.165755177067034 ], [ 121.529577034742857, 25.166366572748977 ], [ 121.537113619472592, 25.176232494539036 ], [ 121.548689377924191, 25.181833956772074 ], [ 121.563566734932706, 25.19548710087475 ], [ 121.569794484346204, 25.199028540093295 ], [ 121.572008275294095, 25.198011355539585 ], [ 121.573504061698017, 25.203475509774599 ], [ 121.589808151188478, 25.208929087864878 ], [ 121.608087419952838, 25.225470460474082 ], [ 121.627563845501257, 25.235543765019408 ], [ 121.632513972125849, 25.242834044441793 ], [ 121.67120299136036, 25.253382106242643 ], [ 121.67910618451198, 25.257645407037401 ], [ 121.691380345773396, 25.268337001168 ], [ 121.699332431430662, 25.280839490662085 ], [ 121.715903564248151, 25.28434285262616 ], [ 121.72775958116442, 25.290017364050087 ], [ 121.732320507120392, 25.305759180088252 ], [ 121.737604473503097, 25.310509919062216 ], [ 121.747469041133229, 25.312251635944339 ] ] } },
{ "type": "Feature", "properties": { "average_dip": "(25,,)", "average_rake": null, "catalog_id": "TW_2", "catalog_name": "Shyu Taiwan", "dip_dir": null, "lower_seis_depth": "(5.0,,)", "name": "Shuanglienpo structure", "net_slip_rate": "(0.25,0.08,0.42)", "slip_type": "Reverse", "upper_seis_depth": "(0.,,)", "downthrown_side_id": null, "reference": "Shyu et al 2016", "epistemic_quality": null, "accuracy": null, "activity_confidence": null, "fs_name": null, "last_movement": null, "downthrown_side_dir": null, "vert_sep_rate": null, "strike_slip_rate": null, "exposure_quality": null, "shortening_rate": null, "notes": null, "index_right": 188, "NAME_EN": "Taiwan" }, "geometry": { "type": "LineString", "coordinates": [ [ 121.108784789636914, 24.91927865546041 ], [ 121.153274629371197, 24.953487095669676 ], [ 121.164056800256546, 24.957131578554154 ], [ 121.183234177760554, 24.959279949971418 ] ] } },
{ "type": "Feature", "properties": { "average_dip": "(60,,)", "average_rake": null, "catalog_id": "TW_3", "catalog_name": "Shyu Taiwan", "dip_dir": null, "lower_seis_depth": "(3.0,,)", "name": "Yangmei structure", "net_slip_rate": "(0.38,0.13,0.64)", "slip_type": "Reverse", "upper_seis_depth": "(0.,,)", "downthrown_side_id": null, "reference": "Shyu et al 2016", "epistemic_quality": null, "accuracy": null, "activity_confidence": null, "fs_name": null, "last_movement": null, "downthrown_side_dir": null, "vert_sep_rate": null, "strike_slip_rate": null, "exposure_quality": null, "shortening_rate": null, "notes": null, "index_right": 188, "NAME_EN": "Taiwan" }, "geometry": { "type": "LineString", "coordinates": [ [ 121.069460132867121, 24.889769094417101 ], [ 121.098531118521379, 24.892379640123959 ], [ 121.119934396335836, 24.900170747235659 ], [ 121.139660090759548, 24.915691556775954 ], [ 121.165335876413238, 24.917036296318436 ], [ 121.203610514307059, 24.930546531863374 ], [ 121.211464623330812, 24.931906586696059 ], [ 121.220820020948537, 24.931893021149268 ], [ 121.225484970072003, 24.924878758638769 ], [ 121.253499076467691, 24.923595027437138 ], [ 121.268218240266322, 24.920137298892314 ] ] } },
{ "type": "Feature", "properties": { "average_dip": "(30,,)", "average_rake": null, "catalog_id": "TW_4", "catalog_name": "Shyu Taiwan", "dip_dir": null, "lower_seis_depth": "(10.0,,)", "name": "Hukou fault", "net_slip_rate": "(1.16,0.32,2.0)", "slip_type": "Reverse", "upper_seis_depth": "(0.,,)", "downthrown_side_id": null, "reference": "Shyu et al 2016", "epistemic_quality": null, "accuracy": null, "activity_confidence": null, "fs_name": null, "last_movement": null, "downthrown_side_dir": null, "vert_sep_rate": null, "strike_slip_rate": null, "exposure_quality": null, "shortening_rate": null, "notes": null, "index_right": 188, "NAME_EN": "Taiwan" }, "geometry": { "type": "LineString", "coordinates": [ [ 121.034670015147356, 24.859061442184007 ], [ 121.039905667844209, 24.869668556741647 ], [ 121.047472654752127, 24.876904344050995 ], [ 121.056129461252709, 24.875167514974152 ], [ 121.063679067139134, 24.876065761978996 ], [ 121.080253130326113, 24.884740385951165 ], [ 121.091228579118592, 24.883891372995532 ], [ 121.099104543132626, 24.890045490849509 ], [ 121.105283634632201, 24.892722213904168 ], [ 121.114555423176199, 24.893575351056725 ], [ 121.124347874861542, 24.891178717425571 ], [ 121.140100626194283, 24.891622510046986 ], [ 121.164763101530838, 24.905355263545882 ], [ 121.213572351164572, 24.907847207402355 ], [ 121.230543982582759, 24.904536311714413 ], [ 121.26719829870251, 24.901848384576052 ] ] } },
{ "type": "Feature", "properties": { "average_dip": "(85,,)", "average_rake": null, "catalog_id": "TW_5", "catalog_name": "Shyu Taiwan", "dip_dir": null, "lower_seis_depth": "(13.85,,)", "name": "Fengshan River strike-slip structure", "net_slip_rate": "(3.61,1.2,6.02)", "slip_type": "Strike-Slip", "upper_seis_depth": "(0.,,)", "downthrown_side_id": null, "reference": "Shyu et al 2016", "epistemic_quality": null, "accuracy": null, "activity_confidence": null, "fs_name": null, "last_movement": null, "downthrown_side_dir": null, "vert_sep_rate": null, "strike_slip_rate": null, "exposure_quality": null, "shortening_rate": null, "notes": null, "index_right": 188, "NAME_EN": "Taiwan" }, "geometry": { "type": "LineString", "coordinates": [ [ 120.96124557441199, 24.895396671573405 ], [ 120.970834035043225, 24.890836383219181 ], [ 120.988341174466669, 24.88684661346948 ], [ 121.021934117339683, 24.885279892140442 ], [ 121.037155389382306, 24.878699673429921 ], [ 121.047472654752127, 24.876904344050995 ], [ 121.11555767101342, 24.847184794251731 ], [ 121.149407688458538, 24.842782397599063 ], [ 121.186320123772703, 24.826106856151906 ], [ 121.198812156323726, 24.822193637189184 ], [ 121.220409237983972, 24.820262326605054 ], [ 121.23664858349369, 24.816245331630039 ], [ 121.24498062697036, 24.816517072307136 ] ] } },
{ "type": "Feature", "properties": { "average_dip": "(45,,)", "average_rake": null, "catalog_id": "TW_6", "catalog_name": "Shyu Taiwan", "dip_dir": null, "lower_seis_depth": "(10.0,,)", "name": "Hsinchu fault", "net_slip_rate": "(0.7,0.24,1.17)", "slip_type": "Reverse", "upper_seis_depth": "(0.,,)", "downthrown_side_id": null, "reference": "Shyu et al 2016", "epistemic_quality": null, "accuracy": null, "activity_confidence": null, "fs_name": null, "last_movement": null, "downthrown_side_dir": null, "vert_sep_rate": null, "strike_slip_rate": null, "exposure_quality": null, "shortening_rate": null, "notes": null, "index_right": 188, "NAME_EN": "Taiwan" }, "geometry": { "type": "LineString", "coordinates": [ [ 120.928367895350732, 24.788356966044031 ], [ 120.948915928489299, 24.791883301751138 ], [ 120.970498206529214, 24.798040548492644 ], [ 120.977007780005749, 24.80156959723714 ], [ 120.993779754804137, 24.804541776046676 ], [ 121.014181528631667, 24.799057155513925 ], [ 121.031375657216486, 24.798740346247225 ], [ 121.048222685371385, 24.794316734171399 ] ] } },
{ "type": "Feature", "properties": { "average_dip": "(30,,)", "average_rake": null, "catalog_id": "TW_7", "catalog_name": "Shyu Taiwan", "dip_dir": null, "lower_seis_depth": "(12.86,,)", "name": "Hsincheng fault", "net_slip_rate": "(1.8,0.6,3.0)", "slip_type": "Reverse", "upper_seis_depth": "(0.,,)", "downthrown_side_id": null, "reference": "Shyu et al 2016", "epistemic_quality": null, "accuracy": null, "activity_confidence": null, "fs_name": null, "last_movement": null, "downthrown_side_dir": null, "vert_sep_rate": null, "strike_slip_rate": null, "exposure_quality": null, "shortening_rate": null, "notes": null, "index_right": 188, "NAME_EN": "Taiwan" }, "geometry": { "type": "LineString", "coordinates": [ [ 120.960901012088044, 24.745536004766212 ], [ 120.976199022031182, 24.758941724683432 ], [ 120.991813218563848, 24.763505942846912 ], [ 121.010863632889297, 24.763885985126134 ], [ 121.021274388620739, 24.767877098179817 ], [ 121.027000996793319, 24.771963455909169 ], [ 121.036717195890461, 24.774878580547494 ], [ 121.046993782405451, 24.782984656515321 ], [ 121.064488521433304, 24.789061522271968 ], [ 121.07469307213114, 24.790102358369651 ] ] } },
{ "type": "Feature", "properties": { "average_dip": "(30,,)", "average_rake": null, "catalog_id": "TW_8", "catalog_name": "Shyu Taiwan", "dip_dir": null, "lower_seis_depth": "(10.0,,)", "name": "Hsinchu frontal structure", "net_slip_rate": "(2.8,0.94,4.66)", "slip_type": "Reverse", "upper_seis_depth": "(0.,,)", "downthrown_side_id": null, "reference": "Shyu et al 2016", "epistemic_quality": null, "accuracy": null, "activity_confidence": null, "fs_name": null, "last_movement": null, "downthrown_side_dir": null, "vert_sep_rate": null, "strike_slip_rate": null, "exposure_quality": null, "shortening_rate": null, "notes": null, "index_right": 188, "NAME_EN": "Taiwan" }, "geometry": { "type": "LineString", "coordinates": [ [ 120.866400019584972, 24.716225719255267 ], [ 120.867448368981798, 24.721199136806128 ], [ 120.873354281780095, 24.727406478595004 ], [ 120.882129557979198, 24.733401997569672 ], [ 120.906225169025362, 24.744467429800505 ], [ 120.90752051627581, 24.749215403038754 ], [ 120.913988692734762, 24.758507964281044 ], [ 120.919885083694837, 24.782846914325059 ], [ 120.924576512348423, 24.785420017329084 ] ] } },
{ "type": "Feature", "properties": { "average_dip": "(85,,)", "average_rake": null, "catalog_id": "TW_9", "catalog_name": "Shyu Taiwan", "dip_dir": null, "lower_seis_depth": "(12.0,,)", "name": "Touhuanping structure", "net_slip_rate": "(0.14,0.14,0.14)", "slip_type": "Strike-Slip", "upper_seis_depth": "(0.,,)", "downthrown_side_id": null, "reference": "Shyu et al 2016 modified from Ota et al. (2009)", "epistemic_quality": null, "accuracy": null, "activity_confidence": null, "fs_name": null, "last_movement": null, "downthrown_side_dir": null, "vert_sep_rate": null, "strike_slip_rate": null, "exposure_quality": null, "shortening_rate": null, "notes": null, "index_right": 188, "NAME_EN": "Taiwan" }, "geometry": { "type": "LineString", "coordinates": [ [ 120.794866399583611, 24.661961559301126 ], [ 120.811721822410703, 24.665566920059188 ], [ 120.835640877501419, 24.665953320303835 ], [ 120.86073886864763, 24.66418703045079 ], [ 120.887333259961053, 24.666104774527266 ], [ 120.919860205787245, 24.67411020256235 ], [ 120.937881445338235, 24.676685200038477 ], [ 120.941530854875424, 24.680287584209847 ], [ 120.956733474922657, 24.681244658948394 ], [ 120.997570185802772, 24.679811051479266 ], [ 121.01301911136207, 24.683137402506652 ], [ 121.035074498884725, 24.684084411872529 ] ] } },
{ "type": "Feature", "properties": { "average_dip": "(30,,)", "average_rake": null, "catalog_id": "TW_10", "catalog_name": "Shyu Taiwan", "dip_dir": null, "lower_seis_depth": "(10.0,,)", "name": "Miaoli frontal structure", "net_slip_rate": "(3.6,1.2,6.0)", "slip_type": "Reverse", "upper_seis_depth": "(0.,,)", "downthrown_side_id": null, "reference": "Shyu et al 2016", "epistemic_quality": null, "accuracy": null, "activity_confidence": null, "fs_name": null, "last_movement": null, "downthrown_side_dir": null, "vert_sep_rate": null, "strike_slip_rate": null, "exposure_quality": null, "shortening_rate": null, "notes": null, "index_right": 188, "NAME_EN": "Taiwan" }, "geometry": { "type": "LineString", "coordinates": [ [ 120.65630132932543, 24.443901202947192 ], [ 120.657010758080077, 24.448161795184152 ], [ 120.66299589452008, 24.45821390505521 ], [ 120.666126520588961, 24.473511054882181 ], [ 120.672612798086817, 24.481353087728916 ], [ 120.6897348080184, 24.508583189773013 ], [ 120.696034653751525, 24.544905270649057 ], [ 120.699145841526786, 24.551398574564281 ], [ 120.706742459295313, 24.556549844714773 ], [ 120.71135167198598, 24.569428136472219 ], [ 120.711345060869192, 24.574851141651539 ], [ 120.716606451211206, 24.581686160177355 ], [ 120.716231198587806, 24.589229391788606 ], [ 120.72205711635155, 24.598724696392622 ], [ 120.730350296704188, 24.605906401152829 ], [ 120.737053624631443, 24.607399589044419 ] ] } },
{ "type": "Feature", "properties": { "average_dip": "(30,,)", "average_rake": null, "catalog_id": "TW_11", "catalog_name": "Shyu Taiwan", "dip_dir": null, "lower_seis_depth": "(3.5,,)", "name": "Tunglo structure", "net_slip_rate": "(1.08,0.36,1.8)", "slip_type": "Reverse", "upper_seis_depth": "(0.,,)", "downthrown_side_id": null, "reference": "Shyu et al 2016", "epistemic_quality": null, "accuracy": null, "activity_confidence": null, "fs_name": null, "last_movement": null, "downthrown_side_dir": null, "vert_sep_rate": null, "strike_slip_rate": null, "exposure_quality": null, "shortening_rate": null, "notes": null, "index_right": 188, "NAME_EN": "Taiwan" }, "geometry": { "type": "LineString", "coordinates": [ [ 120.761074671477473, 24.403029866483426 ], [ 120.770950823795118, 24.416303741093024 ], [ 120.775589283579109, 24.448933956051395 ], [ 120.776673760337161, 24.479831502457916 ], [ 120.773879940470167, 24.50016002957738 ] ] } },
{ "type": "Feature", "properties": { "average_dip": "(30,,)", "average_rake": null, "catalog_id": "TW_12", "catalog_name": "Shyu Taiwan", "dip_dir": null, "lower_seis_depth": "(4.0,,)", "name": "East Miaoli structure", "net_slip_rate": "(1.6,0.54,2.66)", "slip_type": "Reverse", "upper_seis_depth": "(0.,,)", "downthrown_side_id": null, "reference": "Shyu et al 2016", "epistemic_quality": null, "accuracy": null, "activity_confidence": null, "fs_name": null, "last_movement": null, "downthrown_side_dir": null, "vert_sep_rate": null, "strike_slip_rate": null, "exposure_quality": null, "shortening_rate": null, "notes": null, "index_right": 188, "NAME_EN": "Taiwan" }, "geometry": { "type": "LineString", "coordinates": [ [ 120.832011993460355, 24.466039587576223 ], [ 120.830588945455176, 24.481103158718337 ], [ 120.832738600952268, 24.48403198400883 ], [ 120.832398849584862, 24.494184519244858 ], [ 120.837086829997745, 24.502807670278745 ], [ 120.840266641056928, 24.51791193742508 ], [ 120.841002249928025, 24.555248385420299 ], [ 120.847816619029985, 24.589852593828542 ] ] } },
{ "type": "Feature", "properties": { "average_dip": "(75,,)", "average_rake": null, "catalog_id": "TW_13", "catalog_name": "Shyu Taiwan", "dip_dir": null, "lower_seis_depth": "(10.8,,)", "name": "Shihtan fault", "net_slip_rate": "(1.86,0.62,3.11)", "slip_type": "Reverse", "upper_seis_depth": "(0.,,)", "downthrown_side_id": null, "reference": "Shyu et al 2016", "epistemic_quality": null, "accuracy": null, "activity_confidence": null, "fs_name": null, "last_movement": null, "downthrown_side_dir": null, "vert_sep_rate": null, "strike_slip_rate": null, "exposure_quality": null, "shortening_rate": null, "notes": null, "index_right": 188, "NAME_EN": "Taiwan" }, "geometry": { "type": "LineString", "coordinates": [ [ 120.855310423008376, 24.382887604106092 ], [ 120.867809956553984, 24.402488441721118 ], [ 120.885508723024614, 24.447415009042121 ], [ 120.911368006353811, 24.494914883113974 ], [ 120.929678533808357, 24.540885543488873 ], [ 120.941529690066801, 24.563814549280455 ], [ 120.95734758743906, 24.582690237437532 ], [ 120.976720829940291, 24.614765689440652 ] ] } },
{ "type": "Feature", "properties": { "average_dip": "(15,,)", "average_rake": null, "catalog_id": "TW_14", "catalog_name": "Shyu Taiwan", "dip_dir": null, "lower_seis_depth": "(9.0,,)", "name": "Sanyi fault", "net_slip_rate": "(1.86,0.62,3.09)", "slip_type": "Reverse", "upper_seis_depth": "(0.,,)", "downthrown_side_id": null, "reference": "Shyu et al 2016", "epistemic_quality": null, "accuracy": null, "activity_confidence": null, "fs_name": null, "last_movement": null, "downthrown_side_dir": null, "vert_sep_rate": null, "strike_slip_rate": null, "exposure_quality": null, "shortening_rate": null, "notes": null, "index_right": 188, "NAME_EN": "Taiwan" }, "geometry": { "type": "LineString", "coordinates": [ [ 120.730223202832278, 24.234614323978999 ], [ 120.730861373968565, 24.248482595145418 ], [ 120.735367339649883, 24.269050684765656 ], [ 120.733884316125028, 24.290080525419089 ], [ 120.739121538982886, 24.296938613155572 ], [ 120.735581221901811, 24.310425492056822 ], [ 120.741002885854343, 24.317452496535047 ], [ 120.738785064976568, 24.324951523338953 ], [ 120.73678161922345, 24.355470624831863 ], [ 120.740325314081716, 24.362588771000688 ], [ 120.752011232860397, 24.37496287958356 ], [ 120.753797625814201, 24.384322747694945 ], [ 120.763222043025735, 24.400853384586238 ], [ 120.778444755798063, 24.408423873685276 ], [ 120.789055898221818, 24.407079286267489 ], [ 120.792341736824355, 24.40297044941018 ], [ 120.809247185378524, 24.39730459456068 ], [ 120.817268417399973, 24.396186889361811 ], [ 120.830578144246658, 24.397101749696709 ] ] } },
{ "type": "Feature", "properties": { "average_dip": "(85,,)", "average_rake": null, "catalog_id": "TW_15", "catalog_name": "Shyu Taiwan", "dip_dir": null, "lower_seis_depth": "(14.79,,)", "name": "Tuntzuchiao fault", "net_slip_rate": "(1.0,0.33,1.68)", "slip_type": "Strike-Slip", "upper_seis_depth": "(0.,,)", "downthrown_side_id": null, "reference": "Shyu et al 2016", "epistemic_quality": null, "accuracy": null, "activity_confidence": null, "fs_name": null, "last_movement": null, "downthrown_side_dir": null, "vert_sep_rate": null, "strike_slip_rate": null, "exposure_quality": null, "shortening_rate": null, "notes": null, "index_right": 188, "NAME_EN": "Taiwan" }, "geometry": { "type": "LineString", "coordinates": [ [ 120.613534077146653, 24.265030053247884 ], [ 120.692308003219779, 24.293790626628542 ], [ 120.741002885854343, 24.317452496535047 ], [ 120.772177826378666, 24.339994398938749 ], [ 120.802548750592734, 24.34635662774847 ], [ 120.835123151667489, 24.361923789833074 ] ] } },
{ "type": "Feature", "properties": { "average_dip": "(14,,)", "average_rake": null, "catalog_id": "TW_16", "catalog_name": "Shyu Taiwan", "dip_dir": null, "lower_seis_depth": "(12.0,,)", "name": "Changhua fault", "net_slip_rate": "(3.4,1.13,5.66)", "slip_type": "Reverse", "upper_seis_depth": "(0.,,)", "downthrown_side_id": null, "reference": "Shyu et al 2016", "epistemic_quality": null, "accuracy": null, "activity_confidence": null, "fs_name": null, "last_movement": null, "downthrown_side_dir": null, "vert_sep_rate": null, "strike_slip_rate": null, "exposure_quality": null, "shortening_rate": null, "notes": null, "index_right": 188, "NAME_EN": "Taiwan" }, "geometry": { "type": "LineString", "coordinates": [ [ 120.645535856730632, 24.365301321115464 ], [ 120.634844791986865, 24.355944873736991 ], [ 120.624357558569912, 24.338068490093658 ], [ 120.615783332764053, 24.332772925706465 ], [ 120.612436283704227, 24.326841197175252 ], [ 120.60801105229605, 24.30507259479484 ], [ 120.60094483375768, 24.29975303540354 ], [ 120.580254893408139, 24.273732408668476 ], [ 120.57240275658242, 24.257266076132478 ], [ 120.563362778652802, 24.243716982338842 ], [ 120.548592449990892, 24.205853003747411 ], [ 120.549838845573362, 24.186815614415227 ], [ 120.543755760738861, 24.172841263565783 ], [ 120.545348910894873, 24.155860451193554 ], [ 120.549765342605227, 24.140510762842023 ], [ 120.55077349649477, 24.121905247919045 ], [ 120.548024105715328, 24.074338697230083 ], [ 120.545143008910827, 24.052658111019724 ], [ 120.549424230980222, 24.031035965452894 ], [ 120.554602426699489, 24.022916483426567 ], [ 120.581418594973499, 24.006659218639829 ], [ 120.606454338441864, 23.966910267761097 ], [ 120.622057755630038, 23.914983181170413 ], [ 120.614278827532061, 23.887228422978311 ], [ 120.608501550486878, 23.859175562320175 ], [ 120.606797590911398, 23.833302151230345 ], [ 120.617482344557914, 23.820905725776839 ], [ 120.647131994303891, 23.794374680766794 ], [ 120.662156909596817, 23.76785223717112 ], [ 120.663788146468562, 23.754039737663003 ], [ 120.669250250239159, 23.734419757255228 ], [ 120.669661810451956, 23.725580828610525 ], [ 120.662836266109139, 23.705616775420207 ], [ 120.661192610786301, 23.689008620876155 ], [ 120.666034592149856, 23.672295075184341 ], [ 120.666058565304567, 23.662857960599847 ] ] } },
{ "type": "Feature", "properties": { "average_dip": "(15,,)", "average_rake": null, "catalog_id": "TW_17", "catalog_name": "Shyu Taiwan", "dip_dir": null, "lower_seis_depth": "(12.0,,)", "name": "Chelungpu fault", "net_slip_rate": "(6.94,6.94,6.94)", "slip_type": "Reverse", "upper_seis_depth": "(0.,,)", "downthrown_side_id": null, "reference": "Chen (2006)", "epistemic_quality": null, "accuracy": null, "activity_confidence": null, "fs_name": null, "last_movement": null, "downthrown_side_dir": null, "vert_sep_rate": null, "strike_slip_rate": null, "exposure_quality": null, "shortening_rate": null, "notes": null, "index_right": 188, "NAME_EN": "Taiwan" }, "geometry": { "type": "LineString", "coordinates": [ [ 120.645095188700012, 23.639195058799761 ], [ 120.661856290078077, 23.657722979295652 ], [ 120.669585896399624, 23.664608109015386 ], [ 120.678803875241243, 23.66923819916164 ], [ 120.689734493616868, 23.677617384225247 ], [ 120.696167582100827, 23.684968972570708 ], [ 120.701648428626186, 23.699021881189118 ], [ 120.703945972075871, 23.710711660184305 ], [ 120.703787839175831, 23.7162121656301 ], [ 120.698658735404152, 23.728813850813644 ], [ 120.69835976335763, 23.740456013929613 ], [ 120.702666207026482, 23.755275988786149 ], [ 120.710686820849091, 23.762345366768905 ], [ 120.707582353958742, 23.772179758380396 ], [ 120.711252610932533, 23.787249521813965 ], [ 120.70832673075833, 23.792206190765878 ], [ 120.711815759143818, 23.79623612401527 ], [ 120.713552708315348, 23.801737973295321 ], [ 120.706983436238545, 23.806285460528041 ], [ 120.707409602833636, 23.811248426457027 ], [ 120.71509376976968, 23.824587270421855 ], [ 120.715604644031018, 23.828500388769502 ], [ 120.703845755241403, 23.84007571203005 ], [ 120.703387913876568, 23.849060315411997 ], [ 120.707486103180003, 23.873065915895605 ], [ 120.71235096636974, 23.875942001841757 ], [ 120.714400323778804, 23.880597310975325 ], [ 120.712480041289567, 23.891590842003001 ], [ 120.706628214795472, 23.899358224083311 ], [ 120.703700653604244, 23.909650620345637 ], [ 120.703619192766155, 23.914267196086715 ], [ 120.709918763350004, 23.928198233093283 ], [ 120.704907683475241, 23.935992584766595 ], [ 120.703611464664945, 23.942938311526394 ], [ 120.700364177664042, 23.947827638983966 ], [ 120.697323373428262, 23.948826885096576 ], [ 120.686644567395732, 23.959802459509131 ], [ 120.688945001462642, 23.967201199804908 ], [ 120.692281361591398, 23.971818823958305 ], [ 120.690404800474795, 23.978574255182178 ], [ 120.689031118678798, 23.999101317573764 ], [ 120.698494045352163, 24.010117144068278 ], [ 120.69791511836597, 24.022663223339997 ], [ 120.699617415338594, 24.029296882415693 ], [ 120.691559552968315, 24.040680075043149 ], [ 120.691403274396194, 24.044971220969629 ], [ 120.693436543730328, 24.04966908841207 ], [ 120.699853036370158, 24.053570936408384 ], [ 120.699978812186757, 24.062288200174859 ], [ 120.703612481577963, 24.069939427799742 ], [ 120.715005821317249, 24.071731135860318 ], [ 120.72182508109492, 24.076790531002409 ], [ 120.724319467301626, 24.085534644857372 ], [ 120.736830974743611, 24.087119810908941 ], [ 120.732040017360475, 24.095874655715185 ], [ 120.734205594594528, 24.108350429036715 ], [ 120.739446532720251, 24.117612858266508 ], [ 120.735626670054657, 24.127798435336416 ], [ 120.734577231956663, 24.140670876563782 ], [ 120.738940688356763, 24.150870511250606 ], [ 120.735110642497517, 24.165481517334509 ], [ 120.722127898063292, 24.189866901365193 ], [ 120.726033624830208, 24.208378679355647 ], [ 120.724733407252302, 24.214381975364343 ], [ 120.728916785260864, 24.222133133613028 ], [ 120.730223202832278, 24.234614323978999 ], [ 120.756991667063261, 24.274406635806038 ], [ 120.759632130433772, 24.281077712104004 ], [ 120.765762278749847, 24.285172436077389 ], [ 120.76992450851084, 24.283386055301282 ], [ 120.788933620215559, 24.284418017750337 ], [ 120.803221135005856, 24.287578359883483 ], [ 120.820370619915991, 24.296620924666026 ], [ 120.826657685047238, 24.30232594440831 ], [ 120.833829055746918, 24.32000044060986 ] ] } },
{ "type": "Feature", "properties": { "average_dip": "(30,,)", "average_rake": null, "catalog_id": "TW_18", "catalog_name": "Shyu Taiwan", "dip_dir": null, "lower_seis_depth": "(6.0,,)", "name": "Tamaopu - Shuangtung fault", "net_slip_rate": "(2.0,0.66,3.34)", "slip_type": "Reverse", "upper_seis_depth": "(0.,,)", "downthrown_side_id": null, "reference": "Shyu et al 2016", "epistemic_quality": null, "accuracy": null, "activity_confidence": null, "fs_name": null, "last_movement": null, "downthrown_side_dir": null, "vert_sep_rate": null, "strike_slip_rate": null, "exposure_quality": null, "shortening_rate": null, "notes": null, "index_right": 188, "NAME_EN": "Taiwan" }, "geometry": { "type": "LineString", "coordinates": [ [ 120.934579999108067, 24.28064482692433 ], [ 120.926117537801645, 24.275369438281494 ], [ 120.897963115571258, 24.26359593032706 ], [ 120.87745123397228, 24.248495676130574 ], [ 120.870922080173685, 24.237845720196866 ], [ 120.866261712373017, 24.225546592129724 ], [ 120.854042267886541, 24.210807608776683 ], [ 120.842329467186346, 24.190962387783085 ], [ 120.82108450605979, 24.179643232451284 ], [ 120.812068336498868, 24.172289290810696 ], [ 120.809978912095943, 24.155741526814165 ], [ 120.805132765982961, 24.149557379774098 ], [ 120.798547733265906, 24.12989747552367 ], [ 120.79745502812878, 24.115144997524801 ], [ 120.803756106063702, 24.102649976970646 ], [ 120.809017455686586, 24.07711260253479 ], [ 120.805724555276811, 24.050678276323179 ], [ 120.807016769818091, 24.013971064685066 ], [ 120.79935874731926, 23.994029133587045 ], [ 120.786574617317626, 23.975634056224965 ], [ 120.785995186012997, 23.965600066731373 ], [ 120.788097908108995, 23.95445606054183 ], [ 120.783918865069992, 23.942640733372226 ], [ 120.785924350281391, 23.934663216119503 ], [ 120.785874709305418, 23.926636396728661 ], [ 120.789677385778219, 23.914870659034193 ], [ 120.787502244128405, 23.900289433918211 ], [ 120.797728337302544, 23.890828113300515 ], [ 120.800254087303998, 23.885497160691969 ], [ 120.800500782436714, 23.876111123759813 ], [ 120.806585914173581, 23.846056545641986 ], [ 120.811845775540434, 23.839229601967677 ], [ 120.823554654506978, 23.830709159966791 ], [ 120.826323620433129, 23.826369206756798 ], [ 120.826963469709824, 23.820690473072801 ], [ 120.826053113264294, 23.808413985006954 ], [ 120.823389802709443, 23.802949608699532 ], [ 120.818239891246279, 23.795958235914895 ], [ 120.804133793460537, 23.785705808381728 ], [ 120.800437474732234, 23.780446851460962 ], [ 120.79975336788894, 23.761129699160534 ], [ 120.801545117996028, 23.748284845574513 ] ] } },
{ "type": "Feature", "properties": { "average_dip": "(30,,)", "average_rake": null, "catalog_id": "TW_19", "catalog_name": "Shyu Taiwan", "dip_dir": null, "lower_seis_depth": "(12.0,,)", "name": "Chiuchiungkeng fault", "net_slip_rate": "(7.2,2.4,12.0)", "slip_type": "Reverse", "upper_seis_depth": "(0.,,)", "downthrown_side_id": null, "reference": "Shyu et al 2016", "epistemic_quality": null, "accuracy": null, "activity_confidence": null, "fs_name": null, "last_movement": null, "downthrown_side_dir": null, "vert_sep_rate": null, "strike_slip_rate": null, "exposure_quality": null, "shortening_rate": null, "notes": null, "index_right": 188, "NAME_EN": "Taiwan" }, "geometry": { "type": "LineString", "coordinates": [ [ 120.507445405876069, 23.394488387169748 ], [ 120.513435044610361, 23.402331796407839 ], [ 120.519641643831122, 23.439897297324524 ], [ 120.53131270101423, 23.46045885157276 ], [ 120.534247881734089, 23.480571372032223 ], [ 120.531572162799606, 23.493388117851293 ], [ 120.55204351130503, 23.515319539024929 ], [ 120.552490564229359, 23.526333924868357 ], [ 120.557011387214203, 23.538098476958545 ], [ 120.559000141557917, 23.567491302059189 ], [ 120.571728219035379, 23.614964618542345 ], [ 120.575193507175427, 23.623016594106545 ], [ 120.574996114415327, 23.635006604429073 ], [ 120.577048145906531, 23.638521639744312 ], [ 120.580944899690934, 23.660904782319374 ], [ 120.594417222065729, 23.667813235541082 ] ] } },
{ "type": "Feature", "properties": { "average_dip": "(85,,)", "average_rake": null, "catalog_id": "TW_20", "catalog_name": "Shyu Taiwan", "dip_dir": null, "lower_seis_depth": "(14.69,,)", "name": "Meishan fault", "net_slip_rate": "(2.51,2.51,2.51)", "slip_type": "Strike-Slip", "upper_seis_depth": "(0.,,)", "downthrown_side_id": null, "reference": "Chen et al. (2013)", "epistemic_quality": null, "accuracy": null, "activity_confidence": null, "fs_name": null, "last_movement": null, "downthrown_side_dir": null, "vert_sep_rate": null, "strike_slip_rate": null, "exposure_quality": null, "shortening_rate": null, "notes": null, "index_right": 188, "NAME_EN": "Taiwan" }, "geometry": { "type": "LineString", "coordinates": [ [ 120.426524599366502, 23.550746540339958 ], [ 120.577989250688205, 23.599533497178626 ], [ 120.628315457419447, 23.627484885161422 ], [ 120.639338114964943, 23.637885014873738 ] ] } },
{ "type": "Feature", "properties": { "average_dip": "(15,,)", "average_rake": null, "catalog_id": "TW_21", "catalog_name": "Shyu Taiwan", "dip_dir": null, "lower_seis_depth": "(12.0,,)", "name": "Chiayi frontal structure", "net_slip_rate": "(6.49,2.16,10.82)", "slip_type": "Reverse", "upper_seis_depth": "(0.,,)", "downthrown_side_id": null, "reference": "Shyu et al 2016", "epistemic_quality": null, "accuracy": null, "activity_confidence": null, "fs_name": null, "last_movement": null, "downthrown_side_dir": null, "vert_sep_rate": null, "strike_slip_rate": null, "exposure_quality": null, "shortening_rate": null, "notes": null, "index_right": 188, "NAME_EN": "Taiwan" }, "geometry": { "type": "LineString", "coordinates": [ [ 120.184750241896481, 23.147690111116241 ], [ 120.184936091444342, 23.21743984589634 ], [ 120.191445452517684, 23.298611978645024 ], [ 120.198718297757807, 23.355178679377271 ], [ 120.211618873582339, 23.440037674655564 ], [ 120.224103037386271, 23.494378946803298 ], [ 120.239679593832406, 23.54310951751415 ] ] } },
{ "type": "Feature", "properties": { "average_dip": "(30,,)", "average_rake": null, "catalog_id": "TW_22", "catalog_name": "Shyu Taiwan", "dip_dir": null, "lower_seis_depth": "(12.0,,)", "name": "Muchiliao - Liuchia fault", "net_slip_rate": "(5.75,4.4,7.1)", "slip_type": "Reverse", "upper_seis_depth": "(0.,,)", "downthrown_side_id": null, "reference": "Du (2013)", "epistemic_quality": null, "accuracy": null, "activity_confidence": null, "fs_name": null, "last_movement": null, "downthrown_side_dir": null, "vert_sep_rate": null, "strike_slip_rate": null, "exposure_quality": null, "shortening_rate": null, "notes": null, "index_right": 188, "NAME_EN": "Taiwan" }, "geometry": { "type": "LineString", "coordinates": [ [ 120.372424528560288, 23.189916874640591 ], [ 120.365983861965802, 23.200859905220714 ], [ 120.36588531642235, 23.221742457642939 ], [ 120.369939029538912, 23.233360376202839 ], [ 120.397543049060943, 23.287468860154867 ], [ 120.402536491123215, 23.294237965364456 ], [ 120.408909958415379, 23.298902745217092 ], [ 120.432839941505733, 23.310381777657135 ], [ 120.442394485422355, 23.325448263794652 ], [ 120.457756161036613, 23.362937006627202 ], [ 120.468178284851092, 23.382115376716811 ] ] } },
{ "type": "Feature", "properties": { "average_dip": "(30,,)", "average_rake": null, "catalog_id": "TW_23", "catalog_name": "Shyu Taiwan", "dip_dir": null, "lower_seis_depth": "(12.0,,)", "name": "Chungchou structure", "net_slip_rate": "(12.2,11.6,12.8)", "slip_type": "Reverse", "upper_seis_depth": "(0.,,)", "downthrown_side_id": null, "reference": "Chen et al. (2010b)", "epistemic_quality": null, "accuracy": null, "activity_confidence": null, "fs_name": null, "last_movement": null, "downthrown_side_dir": null, "vert_sep_rate": null, "strike_slip_rate": null, "exposure_quality": null, "shortening_rate": null, "notes": null, "index_right": 188, "NAME_EN": "Taiwan" }, "geometry": { "type": "LineString", "coordinates": [ [ 120.317909846560042, 22.957602165191535 ], [ 120.313145428869746, 22.97282006381386 ], [ 120.309676106601742, 22.992456675435264 ], [ 120.310360359664784, 23.001977998018326 ], [ 120.31621672083007, 23.022351370879527 ], [ 120.327379810277975, 23.035804703173298 ], [ 120.330879747799528, 23.047702235652835 ], [ 120.334897394821681, 23.072175844942738 ], [ 120.339303793732242, 23.080906046852636 ], [ 120.360876102228673, 23.089566030125436 ], [ 120.364813487113011, 23.109851051545292 ], [ 120.363816231488627, 23.116943826317094 ], [ 120.357276791284278, 23.125302227300633 ], [ 120.353297891697025, 23.134620088310037 ], [ 120.351163680929602, 23.151539276999944 ], [ 120.348739457787275, 23.157541064140709 ], [ 120.334285739403285, 23.174092116730446 ], [ 120.326254600250309, 23.171843103081653 ], [ 120.319202362633334, 23.179090150985857 ], [ 120.319686119211767, 23.184945779971603 ] ] } },
{ "type": "Feature", "properties": { "average_dip": "(85,,)", "average_rake": null, "catalog_id": "TW_24", "catalog_name": "Shyu Taiwan", "dip_dir": null, "lower_seis_depth": "(15.0,,)", "name": "Hsinhua fault", "net_slip_rate": "(2.65,0.8,4.5)", "slip_type": "Strike-Slip", "upper_seis_depth": "(0.,,)", "downthrown_side_id": null, "reference": "Chen et al.  (2011)", "epistemic_quality": null, "accuracy": null, "activity_confidence": null, "fs_name": null, "last_movement": null, "downthrown_side_dir": null, "vert_sep_rate": null, "strike_slip_rate": null, "exposure_quality": null, "shortening_rate": null, "notes": null, "index_right": 188, "NAME_EN": "Taiwan" }, "geometry": { "type": "LineString", "coordinates": [ [ 120.237119835329921, 23.04119567677494 ], [ 120.270648487141784, 23.054438057759 ], [ 120.336505621738453, 23.084933441811973 ], [ 120.3524526073695, 23.086184983396063 ], [ 120.363483074160911, 23.089094782375952 ] ] } },
{ "type": "Feature", "properties": { "average_dip": "(45,,)", "average_rake": null, "catalog_id": "TW_25", "catalog_name": "Shyu Taiwan", "dip_dir": null, "lower_seis_depth": "(5.0,,)", "name": "Houchiali fault", "net_slip_rate": "(7.07,7.07,7.07)", "slip_type": "Reverse", "upper_seis_depth": "(0.,,)", "downthrown_side_id": null, "reference": "Chen and Liu (2000)", "epistemic_quality": null, "accuracy": null, "activity_confidence": null, "fs_name": null, "last_movement": null, "downthrown_side_dir": null, "vert_sep_rate": null, "strike_slip_rate": null, "exposure_quality": null, "shortening_rate": null, "notes": null, "index_right": 188, "NAME_EN": "Taiwan" }, "geometry": { "type": "LineString", "coordinates": [ [ 120.22682335384539, 22.934044669443875 ], [ 120.234514875642802, 22.942444343715362 ], [ 120.238011765133237, 22.951420879759443 ], [ 120.239253255889793, 22.960087880081492 ], [ 120.244664443077085, 22.972955972392807 ], [ 120.247157002885857, 22.98879660104107 ], [ 120.247095733326617, 22.999846566356943 ], [ 120.249929773758396, 23.012403534392373 ], [ 120.250780498400559, 23.033612045713802 ] ] } },
{ "type": "Feature", "properties": { "average_dip": "(75,,)", "average_rake": null, "catalog_id": "TW_26", "catalog_name": "Shyu Taiwan", "dip_dir": null, "lower_seis_depth": "(10.8,,)", "name": "Chishan fault", "net_slip_rate": "(1.1,0.73,1.46)", "slip_type": "Reverse-Strike-Slip", "upper_seis_depth": "(0.,,)", "downthrown_side_id": null, "reference": "Chen et al. (2012)", "epistemic_quality": null, "accuracy": null, "activity_confidence": null, "fs_name": null, "last_movement": null, "downthrown_side_dir": null, "vert_sep_rate": null, "strike_slip_rate": null, "exposure_quality": null, "shortening_rate": null, "notes": null, "index_right": 188, "NAME_EN": "Taiwan" }, "geometry": { "type": "LineString", "coordinates": [ [ 120.36038420062782, 22.773832813813712 ], [ 120.366322384305306, 22.776819296140093 ], [ 120.369751128592043, 22.782755445283716 ], [ 120.378296737147281, 22.788221163871654 ], [ 120.390859288983094, 22.794843936012672 ], [ 120.399835505730351, 22.797386789251718 ], [ 120.433982998810691, 22.835756517021547 ], [ 120.464182104717707, 22.861063991988079 ], [ 120.470914365209595, 22.861566574329533 ], [ 120.480625141458802, 22.896162636453457 ], [ 120.492298521401423, 22.899866612682015 ], [ 120.501801278688319, 22.904937276131907 ], [ 120.52525913380012, 22.920670944631386 ], [ 120.549484403675194, 22.941083921738613 ], [ 120.57142555645467, 22.948345543622899 ], [ 120.599204031434709, 22.954538880141396 ], [ 120.613588414907554, 22.954754592020201 ] ] } },
{ "type": "Feature", "properties": { "average_dip": "(30,,)", "average_rake": null, "catalog_id": "TW_27", "catalog_name": "Shyu Taiwan", "dip_dir": null, "lower_seis_depth": "(7.0,,)", "name": "Hsiaokangshan fault", "net_slip_rate": "(3.3,1.1,5.5)", "slip_type": "Reverse", "upper_seis_depth": "(0.,,)", "downthrown_side_id": null, "reference": "Shyu et al 2016", "epistemic_quality": null, "accuracy": null, "activity_confidence": null, "fs_name": null, "last_movement": null, "downthrown_side_dir": null, "vert_sep_rate": null, "strike_slip_rate": null, "exposure_quality": null, "shortening_rate": null, "notes": null, "index_right": 188, "NAME_EN": "Taiwan" }, "geometry": { "type": "LineString", "coordinates": [ [ 120.327729804227062, 22.810445292090513 ], [ 120.328526740317528, 22.836376988584238 ], [ 120.331040915843886, 22.844502458025332 ], [ 120.336566605291267, 22.848600464443155 ], [ 120.339159478336299, 22.863510811095491 ], [ 120.343410888697434, 22.869402424644921 ], [ 120.350604537434577, 22.873279845748332 ], [ 120.361227863079534, 22.876259280946829 ] ] } },
{ "type": "Feature", "properties": { "average_dip": "(75,,)", "average_rake": null, "catalog_id": "TW_28", "catalog_name": "Shyu Taiwan", "dip_dir": null, "lower_seis_depth": "(12.27,,)", "name": "Kaoping River structure", "net_slip_rate": "(0.61,0.2,1.02)", "slip_type": "Reverse-Strike-Slip", "upper_seis_depth": "(0.,,)", "downthrown_side_id": null, "reference": "Shyu et al 2016", "epistemic_quality": null, "accuracy": null, "activity_confidence": null, "fs_name": null, "last_movement": null, "downthrown_side_dir": null, "vert_sep_rate": null, "strike_slip_rate": null, "exposure_quality": null, "shortening_rate": null, "notes": null, "index_right": 188, "NAME_EN": "Taiwan" }, "geometry": { "type": "LineString", "coordinates": [ [ 120.468859110021782, 22.857239213997207 ], [ 120.467845544119925, 22.85147514026967 ], [ 120.459333161339387, 22.842805425180924 ], [ 120.460886674701072, 22.819865488874399 ], [ 120.459244832858801, 22.799599829544302 ], [ 120.448525308396711, 22.76591363738013 ], [ 120.447517440174408, 22.746452877260687 ], [ 120.444847429188314, 22.734742089994512 ], [ 120.434529670609322, 22.709331127387507 ], [ 120.431504273377811, 22.683928426105162 ], [ 120.426916061568576, 22.667589836775157 ], [ 120.426707279284116, 22.655587428114103 ], [ 120.422632654557759, 22.640450688843288 ], [ 120.42356527009099, 22.620829858824148 ], [ 120.421759921706581, 22.601802024303979 ] ] } },
{ "type": "Feature", "properties": { "average_dip": "(75,,)", "average_rake": null, "catalog_id": "TW_29", "catalog_name": "Shyu Taiwan", "dip_dir": null, "lower_seis_depth": "(11.11,,)", "name": "Chaochou fault", "net_slip_rate": "(1.76,0.59,2.93)", "slip_type": "Reverse-Strike-Slip", "upper_seis_depth": "(0.,,)", "downthrown_side_id": null, "reference": "Shyu et al 2016", "epistemic_quality": null, "accuracy": null, "activity_confidence": null, "fs_name": null, "last_movement": null, "downthrown_side_dir": null, "vert_sep_rate": null, "strike_slip_rate": null, "exposure_quality": null, "shortening_rate": null, "notes": null, "index_right": 188, "NAME_EN": "Taiwan" }, "geometry": { "type": "LineString", "coordinates": [ [ 120.66000930493739, 23.006504940614128 ], [ 120.655282940942897, 22.994614874968178 ], [ 120.654933374082532, 22.979132250024609 ], [ 120.651079038129836, 22.965802188119508 ], [ 120.647945398971387, 22.899546869876993 ], [ 120.644362462692669, 22.866563038906396 ], [ 120.638558585428385, 22.857809417793096 ], [ 120.627481436833762, 22.846949017544663 ], [ 120.624932040464586, 22.81741797333942 ], [ 120.620886667536396, 22.801020598078765 ], [ 120.621059325205934, 22.791405008721416 ], [ 120.62635913865563, 22.776248579712639 ], [ 120.625684627461396, 22.755795985495965 ], [ 120.618121856486709, 22.74467221805973 ], [ 120.609418719161269, 22.6727336213598 ], [ 120.602038893794429, 22.650774390859084 ], [ 120.600326262207417, 22.637497113140899 ], [ 120.601326314167338, 22.624271709452444 ], [ 120.625723932967531, 22.580691495626343 ], [ 120.619673319646409, 22.496415808438108 ], [ 120.614983389080095, 22.487942030699632 ], [ 120.610044282321127, 22.471505587900843 ], [ 120.611936666721377, 22.438214691701958 ], [ 120.611038320241391, 22.413203913551296 ], [ 120.615007560699681, 22.378106720264739 ], [ 120.621274677111145, 22.351296276126288 ], [ 120.6382160539263, 22.311366987496367 ] ] } },
{ "type": "Feature", "properties": { "average_dip": "(75,,)", "average_rake": null, "catalog_id": "TW_30", "catalog_name": "Shyu Taiwan", "dip_dir": null, "lower_seis_depth": "(15.0,,)", "name": "Hengchun fault", "net_slip_rate": "(6.15,5.86,6.44)", "slip_type": "Reverse-Strike-Slip", "upper_seis_depth": "(0.,,)", "downthrown_side_id": null, "reference": "Chen et al. (2010a)", "epistemic_quality": null, "accuracy": null, "activity_confidence": null, "fs_name": null, "last_movement": null, "downthrown_side_dir": null, "vert_sep_rate": null, "strike_slip_rate": null, "exposure_quality": null, "shortening_rate": null, "notes": null, "index_right": 188, "NAME_EN": "Taiwan" }, "geometry": { "type": "LineString", "coordinates": [ [ 120.718336773714839, 22.092147193104953 ], [ 120.748600748401643, 22.020764280165018 ], [ 120.761587234390248, 21.96244909155552 ], [ 120.791618844982139, 21.930495374696093 ], [ 120.831646354006693, 21.869245291584544 ], [ 120.854713538251431, 21.843816728129426 ], [ 120.882778768895534, 21.79915107615431 ] ] } },
{ "type": "Feature", "properties": { "average_dip": "(30,,)", "average_rake": null, "catalog_id": "TW_31", "catalog_name": "Shyu Taiwan", "dip_dir": null, "lower_seis_depth": "(4.0,,)", "name": "Hengchun offshore structure", "net_slip_rate": "(3.65,2.54,4.76)", "slip_type": "Reverse", "upper_seis_depth": "(0.,,)", "downthrown_side_id": null, "reference": "Shyu et al 2016", "epistemic_quality": null, "accuracy": null, "activity_confidence": null, "fs_name": null, "last_movement": null, "downthrown_side_dir": null, "vert_sep_rate": null, "strike_slip_rate": null, "exposure_quality": null, "shortening_rate": null, "notes": null, "index_right": 188, "NAME_EN": "Taiwan" }, "geometry": { "type": "LineString", "coordinates": [ [ 120.683846286317902, 22.040592454638915 ], [ 120.682854711226952, 22.019705010931588 ], [ 120.690569359295083, 22.001625350215612 ], [ 120.705667011221365, 21.983018541748226 ], [ 120.709738182852973, 21.974518676949991 ], [ 120.710542986954138, 21.934550036527064 ], [ 120.714340785881504, 21.917137229763441 ] ] } },
{ "type": "Feature", "properties": { "average_dip": "(75,,)", "average_rake": null, "catalog_id": "TW_32", "catalog_name": "Shyu Taiwan", "dip_dir": null, "lower_seis_depth": "(10.0,,)", "name": "Milun fault", "net_slip_rate": "(10.15,10.12,10.19)", "slip_type": "Reverse-Strike-Slip", "upper_seis_depth": "(0.,,)", "downthrown_side_id": null, "reference": "Chen (2013)", "epistemic_quality": null, "accuracy": null, "activity_confidence": null, "fs_name": null, "last_movement": null, "downthrown_side_dir": null, "vert_sep_rate": null, "strike_slip_rate": null, "exposure_quality": null, "shortening_rate": null, "notes": null, "index_right": 188, "NAME_EN": "Taiwan" }, "geometry": { "type": "LineString", "coordinates": [ [ 121.608281782388048, 23.969539353613627 ], [ 121.611217267657409, 23.990652639295796 ], [ 121.618443380244088, 24.010419681793365 ], [ 121.623338587115953, 24.018485527281069 ], [ 121.632333045416217, 24.027465091524519 ], [ 121.679627110486422, 24.060596150161022 ], [ 121.692296899901976, 24.071796499931544 ], [ 121.741196012410512, 24.107911510978607 ] ] } },
{ "type": "Feature", "properties": { "average_dip": "(58,,)", "average_rake": null, "catalog_id": "TW_33", "catalog_name": "Shyu Taiwan", "dip_dir": null, "lower_seis_depth": "(20.0,,)", "name": "Longitudinal Valley fault", "net_slip_rate": "(11.35,5.6,17.1)", "slip_type": "Reverse-Strike-Slip", "upper_seis_depth": "(0.,,)", "downthrown_side_id": null, "reference": "Shyu et al 2016 modified from Shyu et al. (2006a)", "epistemic_quality": null, "accuracy": null, "activity_confidence": null, "fs_name": null, "last_movement": null, "downthrown_side_dir": null, "vert_sep_rate": null, "strike_slip_rate": null, "exposure_quality": null, "shortening_rate": null, "notes": null, "index_right": 188, "NAME_EN": "Taiwan" }, "geometry": { "type": "LineString", "coordinates": [ [ 121.608631280936024, 23.936024780945086 ], [ 121.597599945552943, 23.917433587482584 ], [ 121.581883933879183, 23.896024610150757 ], [ 121.575026305097936, 23.888243369212113 ], [ 121.554792600577485, 23.872866860681611 ], [ 121.540415442107573, 23.850297710271793 ], [ 121.539912682467914, 23.842375151063354 ], [ 121.534791102483538, 23.831461729795961 ], [ 121.532142820820852, 23.817272918457661 ], [ 121.52638862360547, 23.80230679539666 ], [ 121.522894724171152, 23.787447873283185 ], [ 121.500026561162457, 23.761621011575468 ], [ 121.491801222380872, 23.745808752998872 ], [ 121.489255784466209, 23.734844196160086 ], [ 121.491391808155953, 23.720141106811486 ], [ 121.490086587725926, 23.7058811476826 ], [ 121.482675624622075, 23.690487642899871 ], [ 121.471823010399888, 23.678820489418968 ], [ 121.460098414116771, 23.654991255273046 ], [ 121.447614122182827, 23.635401885057206 ], [ 121.432567490171593, 23.622340080138876 ], [ 121.418530809457295, 23.601246155620828 ], [ 121.401402511012193, 23.590148788662308 ], [ 121.401911630903939, 23.571396851261294 ], [ 121.388920434958649, 23.543985962232551 ], [ 121.388647665171334, 23.532882432988902 ], [ 121.388949892329862, 23.519623116043999 ], [ 121.392169126382072, 23.508601942239562 ], [ 121.397277135374509, 23.500740719941614 ], [ 121.403025776685553, 23.485606295025811 ], [ 121.40247101028875, 23.453774976346097 ], [ 121.391518328454467, 23.451180057187546 ], [ 121.38823571152669, 23.448208793175681 ], [ 121.368508484492281, 23.416389150628842 ], [ 121.359600113493997, 23.408223598459397 ], [ 121.360082744539682, 23.404237535810953 ], [ 121.357276511261361, 23.395642273166789 ], [ 121.354352240443433, 23.391806544450983 ], [ 121.352104449151938, 23.378075080458341 ], [ 121.345667155044794, 23.356043668490528 ], [ 121.337423825927488, 23.336285238162485 ], [ 121.336917550696441, 23.321156794652165 ], [ 121.332789667999776, 23.308197416534398 ], [ 121.316918316910815, 23.28250995165191 ], [ 121.300297534950815, 23.265440703659412 ], [ 121.292990985003456, 23.247217797043746 ], [ 121.283410559895486, 23.237526654380513 ], [ 121.273156838990701, 23.213319591380369 ], [ 121.269737852061198, 23.199276361323797 ], [ 121.261780833488984, 23.187607380527901 ], [ 121.252048344418981, 23.180177201006739 ], [ 121.247236586126178, 23.169810033533729 ], [ 121.238217612554536, 23.159232975484695 ], [ 121.237787436136728, 23.147273751204882 ], [ 121.233867436788714, 23.129840873891741 ], [ 121.21760410541107, 23.096309082653544 ], [ 121.211362514427989, 23.089256850224835 ], [ 121.21450909349069, 23.087175124460078 ], [ 121.215144816231117, 23.076398773165291 ], [ 121.205939274123807, 23.058716009784863 ], [ 121.192980628689241, 23.044914599243786 ], [ 121.186758140229159, 23.040798312720337 ], [ 121.182272362945355, 23.030511190218018 ], [ 121.173430381023067, 23.019851852461581 ], [ 121.170041738105709, 23.009206773774569 ], [ 121.173045687007772, 22.981707561120732 ], [ 121.170737291429447, 22.966550878153932 ], [ 121.162380991312247, 22.94792286445194 ], [ 121.156993970439402, 22.927926267630472 ], [ 121.146730682287284, 22.900798381111716 ], [ 121.143351052230216, 22.887576059781754 ], [ 121.145276778247023, 22.875417050878347 ], [ 121.132467570130515, 22.830112115357771 ], [ 121.13350192275044, 22.811008688337044 ], [ 121.140998466193466, 22.7879954412019 ] ] } },
{ "type": "Feature", "properties": { "average_dip": "(45,,)", "average_rake": null, "catalog_id": "TW_34", "catalog_name": "Shyu Taiwan", "dip_dir": null, "lower_seis_depth": "(20.0,,)", "name": "Central Range structure", "net_slip_rate": "(7.28,5.52,9.05)", "slip_type": "Reverse", "upper_seis_depth": "(0.,,)", "downthrown_side_id": null, "reference": "Shyu et al 2016 modified from Shyu et al. (2006b)", "epistemic_quality": null, "accuracy": null, "activity_confidence": null, "fs_name": null, "last_movement": null, "downthrown_side_dir": null, "vert_sep_rate": null, "strike_slip_rate": null, "exposure_quality": null, "shortening_rate": null, "notes": null, "index_right": 188, "NAME_EN": "Taiwan" }, "geometry": { "type": "LineString", "coordinates": [ [ 121.401213008887609, 23.490379151784911 ], [ 121.390334556593075, 23.483679116771945 ], [ 121.383264437273681, 23.472604181918094 ], [ 121.370007865908363, 23.4613273014293 ], [ 121.363729777309487, 23.452921531870576 ], [ 121.361087237113111, 23.443688590341811 ], [ 121.354025866848872, 23.434170873473157 ], [ 121.352516849722647, 23.42906235960616 ], [ 121.347199722114638, 23.42901349659547 ], [ 121.341338600764047, 23.416730821607779 ], [ 121.337774943980165, 23.414016960844371 ], [ 121.330766149309298, 23.402252471906571 ], [ 121.323796892122445, 23.395431607282443 ], [ 121.326401117745817, 23.382685056276205 ], [ 121.322329615680658, 23.354778659582383 ], [ 121.314748302118346, 23.347245239885826 ], [ 121.304050043221622, 23.327054108348321 ], [ 121.296554893037396, 23.307583094118126 ], [ 121.288610568679317, 23.293623517373799 ], [ 121.282493992144381, 23.265808129398753 ], [ 121.273229904516, 23.246685897439651 ], [ 121.263670828806852, 23.221245024019513 ], [ 121.254862491475848, 23.214591374970482 ], [ 121.252711169099427, 23.208830716944007 ], [ 121.25227706278757, 23.199033033000088 ], [ 121.227060958081765, 23.159301367948611 ], [ 121.224764460808302, 23.15277235825306 ], [ 121.211659147632759, 23.142799908205546 ], [ 121.209677688532594, 23.142752745488703 ], [ 121.195975960686781, 23.107418906183209 ], [ 121.189015998623532, 23.081297939724195 ], [ 121.175368637291001, 23.045107704952141 ], [ 121.160896792802689, 22.980781005747115 ], [ 121.145483207009377, 22.926614663390929 ], [ 121.133422965792803, 22.896460351446706 ], [ 121.119875149456874, 22.818848801938913 ], [ 121.11757053296887, 22.79003014738116 ] ] } },
{ "type": "Feature", "properties": { "average_dip": "(36,,)", "average_rake": null, "catalog_id": "TW_35", "catalog_name": "Shyu Taiwan", "dip_dir": null, "lower_seis_depth": "(4.0,,)", "name": "Luyeh fault", "net_slip_rate": "(6.34,6.17,6.51)", "slip_type": "Reverse", "upper_seis_depth": "(0.,,)", "downthrown_side_id": null, "reference": "Shyu et al 2016 modified from Shyu et al. (2008)", "epistemic_quality": null, "accuracy": null, "activity_confidence": null, "fs_name": null, "last_movement": null, "downthrown_side_dir": null, "vert_sep_rate": null, "strike_slip_rate": null, "exposure_quality": null, "shortening_rate": null, "notes": null, "index_right": 188, "NAME_EN": "Taiwan" }, "geometry": { "type": "LineString", "coordinates": [ [ 121.134889622358941, 22.944810455721093 ], [ 121.12713917186359, 22.938924792815744 ], [ 121.120479781305733, 22.929901957441317 ], [ 121.114646084009749, 22.91745068729346 ], [ 121.111856017880143, 22.907962028283894 ], [ 121.11242905572432, 22.89268415474573 ], [ 121.109177135732054, 22.883249659266959 ], [ 121.100622536002689, 22.875514175771599 ], [ 121.100034020739287, 22.867773412754158 ], [ 121.094390833398307, 22.854274862826109 ], [ 121.097098984811538, 22.838250834263413 ], [ 121.091527590298796, 22.813511431908911 ], [ 121.092907052399454, 22.806969190798927 ], [ 121.096866921951943, 22.800903965889031 ] ] } },
{ "type": "Feature", "properties": { "average_dip": "(75,,)", "average_rake": null, "catalog_id": "TW_36", "catalog_name": "Shyu Taiwan", "dip_dir": null, "lower_seis_depth": "(10.55,,)", "name": "Taimali coastline structure", "net_slip_rate": "(7.32,5.86,8.78)", "slip_type": "Reverse-Strike-Slip", "upper_seis_depth": "(0.,,)", "downthrown_side_id": null, "reference": "Shyu et al 2016 modified from Willett et al. (2003)", "epistemic_quality": null, "accuracy": null, "activity_confidence": null, "fs_name": null, "last_movement": null, "downthrown_side_dir": null, "vert_sep_rate": null, "strike_slip_rate": null, "exposure_quality": null, "shortening_rate": null, "notes": null, "index_right": 188, "NAME_EN": "Taiwan" }, "geometry": { "type": "LineString", "coordinates": [ [ 121.040299947929554, 22.699011659040334 ], [ 121.039075877639959, 22.677869708320511 ], [ 121.025444816261597, 22.658137816687145 ], [ 121.010876250201164, 22.620023956789048 ], [ 120.984013842727705, 22.574097397542953 ], [ 120.953607672545715, 22.486054768454068 ], [ 120.940355250971933, 22.443111908782619 ], [ 120.912022009091217, 22.379455964294362 ], [ 120.906487961142801, 22.35927856496259 ], [ 120.897210431979545, 22.341179117152187 ] ] } },
{ "type": "Feature", "properties": { "average_dip": "(60,,)", "average_rake": null, "catalog_id": "TW_37", "catalog_name": "Shyu Taiwan", "dip_dir": null, "lower_seis_depth": "(9.41,,)", "name": "Northern Ilan structure", "net_slip_rate": "(3.29,1.04,5.54)", "slip_type": "Normal", "upper_seis_depth": "(0.,,)", "downthrown_side_id": null, "reference": "Su (2011)", "epistemic_quality": null, "accuracy": null, "activity_confidence": null, "fs_name": null, "last_movement": null, "downthrown_side_dir": null, "vert_sep_rate": null, "strike_slip_rate": null, "exposure_quality": null, "shortening_rate": null, "notes": null, "index_right": 188, "NAME_EN": "Taiwan" }, "geometry": { "type": "LineString", "coordinates": [ [ 121.883590996635021, 24.917532243419977 ], [ 121.835423341077671, 24.874650423820466 ], [ 121.799049931987881, 24.861984447215502 ], [ 121.778906942121779, 24.844725769474945 ], [ 121.762437305744228, 24.827445542185796 ], [ 121.745335836870055, 24.821471077217094 ], [ 121.720274293322845, 24.806170740324983 ], [ 121.671459387333968, 24.744910113360149 ], [ 121.651774567364711, 24.712522043171731 ], [ 121.623414176470789, 24.694819777138889 ], [ 121.596431187037965, 24.673233464177319 ], [ 121.57746939295744, 24.669023193895892 ], [ 121.551315451298194, 24.643158059480804 ], [ 121.50555911229236, 24.604587665275027 ], [ 121.491121526548667, 24.603538649233506 ], [ 121.487196335685184, 24.582214828909741 ], [ 121.461800943078117, 24.55646800892362 ] ] } },
{ "type": "Feature", "properties": { "average_dip": "(60,,)", "average_rake": null, "catalog_id": "TW_38", "catalog_name": "Shyu Taiwan", "dip_dir": null, "lower_seis_depth": "(11.25,,)", "name": "Southern Ilan structure", "net_slip_rate": "(5.48,4.85,6.12)", "slip_type": "Normal", "upper_seis_depth": "(0.,,)", "downthrown_side_id": null, "reference": "Su (2011)", "epistemic_quality": null, "accuracy": null, "activity_confidence": null, "fs_name": null, "last_movement": null, "downthrown_side_dir": null, "vert_sep_rate": null, "strike_slip_rate": null, "exposure_quality": null, "shortening_rate": null, "notes": null, "index_right": 188, "NAME_EN": "Taiwan" }, "geometry": { "type": "LineString", "coordinates": [ [ 121.687569045620947, 24.666934324635463 ], [ 121.700070314801849, 24.666724257882066 ], [ 121.742629385549023, 24.647173989355714 ], [ 121.765433901344323, 24.642337372927287 ], [ 121.779021561004484, 24.629624220608417 ], [ 121.804561745159518, 24.620746061280823 ], [ 121.812850860950022, 24.614151346768203 ], [ 121.825843222503906, 24.613471281621933 ], [ 121.835982660026517, 24.609759400613203 ], [ 121.873793139519577, 24.608021323454697 ] ] } }
]
}
