{
"type": "FeatureCollection",
"name": "faults_panama",
"crs": { "type": "name", "properties": { "name": "urn:ogc:def:crs:OGC:1.3:CRS84" } },
"features": [
{ "type": "Feature", "properties": { "average_dip": null, "average_rake": null, "catalog_id": "ATA_365", "catalog_name": "Active Tectonics of the Andes", "dip_dir": null, "lower_seis_depth": null, "name": "SANSON FAULT", "net_slip_rate": null, "slip_type": "Reverse", "upper_seis_depth": null, "downthrown_side_id": null, "reference": "Cowan et al., 1998", "epistemic_quality": null, "accuracy": null, "activity_confidence": null, "fs_name": null, "last_movement": null, "downthrown_side_dir": null, "vert_sep_rate": null, "strike_slip_rate": null, "exposure_quality": null, "shortening_rate": null, "notes": null, "index_right": 158, "NAME_EN": "Panama" }, "geometry": { "type": "LineString", "coordinates": [ [ -77.836481495, 8.23936540400007 ], [ -77.838802296, 8.27069621900006 ], [ -77.845764699, 8.29274382900007 ], [ -77.856788504999898, 8.311890438000029 ], [ -77.862010306999906, 8.334518249000039 ], [ -77.86839251, 8.375132268000071 ], [ -77.874194513, 8.389637275000039 ], [ -77.882897516999904, 8.398920479000029 ] ] } },
{ "type": "Feature", "properties": { "average_dip": null, "average_rake": null, "catalog_id": "ATA_366", "catalog_name": "Active Tectonics of the Andes", "dip_dir": null, "lower_seis_depth": null, "name": "SANSON FAULT", "net_slip_rate": null, "slip_type": "Reverse", "upper_seis_depth": null, "downthrown_side_id": null, "reference": "Cowan et al., 1998", "epistemic_quality": null, "accuracy": null, "activity_confidence": null, "fs_name": null, "last_movement": null, "downthrown_side_dir": null, "vert_sep_rate": null, "strike_slip_rate": null, "exposure_quality": null, "shortening_rate": null, "notes": null, "index_right": 158, "NAME_EN": "Panama" }, "geometry": { "type": "LineString", "coordinates": [ [ -77.769758463, 8.14073135700005 ], [ -77.768017862, 8.160458166000071 ], [ -77.770918864, 8.18424637800007 ], [ -77.777301066999897, 8.20223258600004 ], [ -77.787164471, 8.21383659200006 ], [ -77.797608076, 8.221959395000059 ] ] } },
{ "type": "Feature", "properties": { "average_dip": null, "average_rake": null, "catalog_id": "ATA_367", "catalog_name": "Active Tectonics of the Andes", "dip_dir": null, "lower_seis_depth": null, "name": "SANSON FAULT", "net_slip_rate": null, "slip_type": "Reverse", "upper_seis_depth": null, "downthrown_side_id": null, "reference": "Cowan et al., 1998", "epistemic_quality": null, "accuracy": null, "activity_confidence": null, "fs_name": null, "last_movement": null, "downthrown_side_dir": null, "vert_sep_rate": null, "strike_slip_rate": null, "exposure_quality": null, "shortening_rate": null, "notes": null, "index_right": 158, "NAME_EN": "Panama" }, "geometry": { "type": "LineString", "coordinates": [ [ -77.902044126, 8.33857965100003 ], [ -77.903784727, 8.360627261000049 ], [ -77.909586729999901, 8.38673627400004 ], [ -77.919450134, 8.40182148100007 ], [ -77.927572938, 8.41052448500005 ] ] } },
{ "type": "Feature", "properties": { "average_dip": null, "average_rake": null, "catalog_id": "ATA_368", "catalog_name": "Active Tectonics of the Andes", "dip_dir": null, "lower_seis_depth": null, "name": "SANSON FAULT", "net_slip_rate": null, "slip_type": "Reverse", "upper_seis_depth": null, "downthrown_side_id": null, "reference": "Cowan et al., 1998", "epistemic_quality": null, "accuracy": null, "activity_confidence": null, "fs_name": null, "last_movement": null, "downthrown_side_dir": null, "vert_sep_rate": null, "strike_slip_rate": null, "exposure_quality": null, "shortening_rate": null, "notes": null, "index_right": 158, "NAME_EN": "Panama" }, "geometry": { "type": "LineString", "coordinates": [ [ -77.946139347, 8.368750065000031 ], [ -77.949040348, 8.38325507200005 ], [ -77.947299748, 8.40298188100007 ], [ -77.950200749, 8.42038789 ], [ -77.957163152, 8.43895429900005 ], [ -77.965866155999905, 8.45345930500002 ], [ -77.967026556999897, 8.47086531400004 ], [ -77.980951364, 8.48304951900008 ] ] } },
{ "type": "Feature", "properties": { "average_dip": null, "average_rake": null, "catalog_id": "ATA_369", "catalog_name": "Active Tectonics of the Andes", "dip_dir": null, "lower_seis_depth": null, "name": "SANSON FAULT", "net_slip_rate": null, "slip_type": "Reverse", "upper_seis_depth": null, "downthrown_side_id": null, "reference": "Cowan et al., 1998", "epistemic_quality": null, "accuracy": null, "activity_confidence": null, "fs_name": null, "last_movement": null, "downthrown_side_dir": null, "vert_sep_rate": null, "strike_slip_rate": null, "exposure_quality": null, "shortening_rate": null, "notes": null, "index_right": 158, "NAME_EN": "Panama" }, "geometry": { "type": "LineString", "coordinates": [ [ -77.987333567, 8.41922748900004 ], [ -77.996616770999907, 8.461001909000061 ], [ -78.024466383999894, 8.50451693 ], [ -78.072623006999905, 8.56833896 ] ] } },
{ "type": "Feature", "properties": { "average_dip": null, "average_rake": null, "catalog_id": "ATA_370", "catalog_name": "Active Tectonics of the Andes", "dip_dir": null, "lower_seis_depth": null, "name": "SANSON FAULT", "net_slip_rate": null, "slip_type": "Reverse", "upper_seis_depth": null, "downthrown_side_id": null, "reference": "Cowan et al., 1998", "epistemic_quality": null, "accuracy": null, "activity_confidence": null, "fs_name": null, "last_movement": null, "downthrown_side_dir": null, "vert_sep_rate": null, "strike_slip_rate": null, "exposure_quality": null, "shortening_rate": null, "notes": null, "index_right": 158, "NAME_EN": "Panama" }, "geometry": { "type": "LineString", "coordinates": [ [ -77.992555368999902, 8.37861347 ], [ -78.007060376, 8.452298905000021 ], [ -78.019244581999899, 8.466223711000049 ], [ -78.043032793, 8.481889119000069 ] ] } },
{ "type": "Feature", "properties": { "average_dip": null, "average_rake": null, "catalog_id": "ATA_371", "catalog_name": "Active Tectonics of the Andes", "dip_dir": null, "lower_seis_depth": null, "name": null, "net_slip_rate": null, "slip_type": "Reverse", "upper_seis_depth": null, "downthrown_side_id": null, "reference": null, "epistemic_quality": null, "accuracy": null, "activity_confidence": null, "fs_name": null, "last_movement": null, "downthrown_side_dir": null, "vert_sep_rate": null, "strike_slip_rate": null, "exposure_quality": null, "shortening_rate": null, "notes": null, "index_right": 158, "NAME_EN": "Panama" }, "geometry": { "type": "LineString", "coordinates": [ [ -78.084807213, 8.51786153600005 ], [ -78.102793420999902, 8.54513094900005 ], [ -78.109755825, 8.57240036200005 ] ] } },
{ "type": "Feature", "properties": { "average_dip": null, "average_rake": null, "catalog_id": "ATA_372", "catalog_name": "Active Tectonics of the Andes", "dip_dir": null, "lower_seis_depth": null, "name": "SANSON FAULT", "net_slip_rate": null, "slip_type": "Reverse", "upper_seis_depth": null, "downthrown_side_id": null, "reference": "Cowan et al., 1998", "epistemic_quality": null, "accuracy": null, "activity_confidence": null, "fs_name": null, "last_movement": null, "downthrown_side_dir": null, "vert_sep_rate": null, "strike_slip_rate": null, "exposure_quality": null, "shortening_rate": null, "notes": null, "index_right": 158, "NAME_EN": "Panama" }, "geometry": { "type": "LineString", "coordinates": [ [ -78.095831018, 8.55035275100005 ], [ -78.103953821999895, 8.57588156400004 ], [ -78.14282724, 8.63448179100004 ] ] } },
{ "type": "Feature", "properties": { "average_dip": null, "average_rake": null, "catalog_id": "ATA_373", "catalog_name": "Active Tectonics of the Andes", "dip_dir": null, "lower_seis_depth": null, "name": "SANSON FAULT", "net_slip_rate": null, "slip_type": "Reverse", "upper_seis_depth": null, "downthrown_side_id": null, "reference": "Cowan et al., 1998", "epistemic_quality": null, "accuracy": null, "activity_confidence": null, "fs_name": null, "last_movement": null, "downthrown_side_dir": null, "vert_sep_rate": null, "strike_slip_rate": null, "exposure_quality": null, "shortening_rate": null, "notes": null, "index_right": 158, "NAME_EN": "Panama" }, "geometry": { "type": "LineString", "coordinates": [ [ -78.131223234999894, 8.54164974700006 ], [ -78.135864837, 8.55847555500003 ], [ -78.144567841, 8.57065976100006 ], [ -78.16313425, 8.606051978000041 ], [ -78.166035251, 8.621717385000069 ], [ -78.186342260999893, 8.66523240600003 ], [ -78.197946267, 8.69482262 ], [ -78.210710672999895, 8.71222862800005 ] ] } },
{ "type": "Feature", "properties": { "average_dip": null, "average_rake": null, "catalog_id": "ATA_374", "catalog_name": "Active Tectonics of the Andes", "dip_dir": null, "lower_seis_depth": null, "name": null, "net_slip_rate": null, "slip_type": "Reverse", "upper_seis_depth": null, "downthrown_side_id": null, "reference": "Cowan et al., 1998", "epistemic_quality": null, "accuracy": null, "activity_confidence": null, "fs_name": null, "last_movement": null, "downthrown_side_dir": null, "vert_sep_rate": null, "strike_slip_rate": null, "exposure_quality": null, "shortening_rate": null, "notes": null, "index_right": 158, "NAME_EN": "Panama" }, "geometry": { "type": "LineString", "coordinates": [ [ -78.161393648999905, 8.64840659800007 ], [ -78.173577855, 8.667553207000029 ], [ -78.179379857999905, 8.683798815000049 ], [ -78.190983863, 8.699464222000071 ], [ -78.2089700719999, 8.71512963 ], [ -78.235659284999898, 8.734276239000049 ], [ -78.263508897999898, 8.78185266100007 ] ] } },
{ "type": "Feature", "properties": { "average_dip": null, "average_rake": null, "catalog_id": "ATA_375", "catalog_name": "Active Tectonics of the Andes", "dip_dir": null, "lower_seis_depth": null, "name": null, "net_slip_rate": null, "slip_type": "Reverse", "upper_seis_depth": null, "downthrown_side_id": null, "reference": null, "epistemic_quality": null, "accuracy": null, "activity_confidence": null, "fs_name": null, "last_movement": null, "downthrown_side_dir": null, "vert_sep_rate": null, "strike_slip_rate": null, "exposure_quality": null, "shortening_rate": null, "notes": null, "index_right": 158, "NAME_EN": "Panama" }, "geometry": { "type": "LineString", "coordinates": [ [ -78.388375518, 8.84175834 ], [ -78.3916391449999, 8.848285593000069 ], [ -78.393270958, 8.85807647300004 ], [ -78.391965507, 8.87570005600003 ], [ -78.397187309999893, 8.894955453000019 ], [ -78.397513672999906, 8.90441997 ], [ -78.402735475, 8.91355812400008 ], [ -78.403714562999895, 8.920085377000021 ], [ -78.409589091, 8.93313988300002 ], [ -78.422643597, 8.945868027000071 ], [ -78.430476300999899, 8.95108982900007 ], [ -78.462133477999899, 8.94815256500004 ], [ -78.477472523, 8.969692501000051 ], [ -78.489547941, 8.97948338 ], [ -78.495422468999905, 8.980788831000041 ], [ -78.503581535, 8.973608852000041 ], [ -78.509456063, 8.96349161 ], [ -78.520552392999903, 8.95239528 ], [ -78.54470323, 8.971650677000071 ], [ -78.551883207999893, 8.979809743000031 ], [ -78.568527704, 9.008203294000049 ], [ -78.583214023, 9.01995235 ], [ -78.612586662, 9.039534109000041 ], [ -78.631515696, 9.04475591100004 ], [ -78.647833829, 9.051609527000039 ], [ -78.666110138, 9.06205313200007 ], [ -78.678838281, 9.070864924000031 ], [ -78.687976436, 9.08065580300007 ], [ -78.696788227, 9.08620396800006 ], [ -78.706579107, 9.08816214400002 ], [ -78.7180018, 9.08587760600005 ], [ -78.723876328, 9.077392177000039 ], [ -78.734972657999904, 9.07543400100008 ], [ -78.762713484, 9.078044902000039 ], [ -78.7924124849999, 9.078044902000039 ], [ -78.818195134999897, 9.08914123200003 ] ] } },
{ "type": "Feature", "properties": { "average_dip": null, "average_rake": null, "catalog_id": "ATA_384", "catalog_name": "Active Tectonics of the Andes", "dip_dir": null, "lower_seis_depth": null, "name": "PIERRE HILLS FAULT SYSTEM", "net_slip_rate": null, "slip_type": "Reverse", "upper_seis_depth": null, "downthrown_side_id": null, "reference": "Cowan et al., 1998", "epistemic_quality": null, "accuracy": null, "activity_confidence": null, "fs_name": null, "last_movement": null, "downthrown_side_dir": null, "vert_sep_rate": null, "strike_slip_rate": null, "exposure_quality": null, "shortening_rate": null, "notes": null, "index_right": 158, "NAME_EN": "Panama" }, "geometry": { "type": "LineString", "coordinates": [ [ -77.706231384, 8.08931219 ], [ -77.722859854, 8.046701736000051 ], [ -77.724938413, 8.031112546000029 ], [ -77.724938413, 8.015523355000029 ], [ -77.737409764999896, 7.99681632700003 ], [ -77.738449043999907, 7.96459866700008 ], [ -77.731174089, 7.94693091800002 ], [ -77.724808503, 7.90035821200007 ], [ -77.7242239079999, 7.88574334600003 ], [ -77.726562287, 7.86995929100004 ], [ -77.740592557999904, 7.85592901900003 ], [ -77.746438504, 7.84189874800006 ], [ -77.746438504, 7.83196063900004 ], [ -77.752284451, 7.81325361100005 ], [ -77.776837424999897, 7.78636225700006 ], [ -77.803144184, 7.73374874 ], [ -77.807820941, 7.71621090100007 ] ] } },
{ "type": "Feature", "properties": { "average_dip": null, "average_rake": null, "catalog_id": "ATA_385", "catalog_name": "Active Tectonics of the Andes", "dip_dir": null, "lower_seis_depth": null, "name": "PIERRE HILLS FAULT SYSTEM", "net_slip_rate": null, "slip_type": "Reverse", "upper_seis_depth": null, "downthrown_side_id": null, "reference": "Cowan et al., 1998", "epistemic_quality": null, "accuracy": null, "activity_confidence": null, "fs_name": null, "last_movement": null, "downthrown_side_dir": null, "vert_sep_rate": null, "strike_slip_rate": null, "exposure_quality": null, "shortening_rate": null, "notes": null, "index_right": 158, "NAME_EN": "Panama" }, "geometry": { "type": "LineString", "coordinates": [ [ -77.771576073999896, 8.00909281400004 ], [ -77.775668235999902, 7.98687821800007 ], [ -77.77742202, 7.95472551300003 ], [ -77.771576073999896, 7.92900334900003 ], [ -77.792036885999906, 7.86411334400003 ], [ -77.79379067, 7.84014496400005 ], [ -77.794375263999896, 7.81208442100007 ], [ -77.785021749999899, 7.77408577 ] ] } },
{ "type": "Feature", "properties": { "average_dip": null, "average_rake": null, "catalog_id": "ATA_386", "catalog_name": "Active Tectonics of the Andes", "dip_dir": null, "lower_seis_depth": null, "name": "PIERRE HILLS FAULT SYSTEM", "net_slip_rate": null, "slip_type": "Reverse", "upper_seis_depth": null, "downthrown_side_id": null, "reference": "Cowan et al., 1998", "epistemic_quality": null, "accuracy": null, "activity_confidence": null, "fs_name": null, "last_movement": null, "downthrown_side_dir": null, "vert_sep_rate": null, "strike_slip_rate": null, "exposure_quality": null, "shortening_rate": null, "notes": null, "index_right": 158, "NAME_EN": "Panama" }, "geometry": { "type": "LineString", "coordinates": [ [ -77.800286166, 7.70789666600007 ], [ -77.79405049, 7.67463972700006 ], [ -77.784696975, 7.63722567 ], [ -77.773264903, 7.60500801 ], [ -77.753518594999903, 7.57694746700002 ], [ -77.7379294039999, 7.54992620400003 ], [ -77.738968684, 7.52186566100005 ], [ -77.742086522, 7.50108007400007 ] ] } },
{ "type": "Feature", "properties": { "average_dip": null, "average_rake": null, "catalog_id": "ATA_387", "catalog_name": "Active Tectonics of the Andes", "dip_dir": null, "lower_seis_depth": null, "name": "PIERRE HILLS FAULT SYSTEM", "net_slip_rate": null, "slip_type": "Reverse", "upper_seis_depth": null, "downthrown_side_id": null, "reference": "Cowan et al., 1998", "epistemic_quality": null, "accuracy": null, "activity_confidence": null, "fs_name": null, "last_movement": null, "downthrown_side_dir": null, "vert_sep_rate": null, "strike_slip_rate": null, "exposure_quality": null, "shortening_rate": null, "notes": null, "index_right": 158, "NAME_EN": "Panama" }, "geometry": { "type": "LineString", "coordinates": [ [ -77.758714992, 7.53225845500003 ], [ -77.768068506, 7.47613737 ], [ -77.7628721089999, 7.43872331300003 ], [ -77.752479315, 7.39195574200005 ], [ -77.7379294039999, 7.36389519900007 ], [ -77.730654449, 7.34310961200003 ] ] } },
{ "type": "Feature", "properties": { "average_dip": null, "average_rake": null, "catalog_id": "ATA_388", "catalog_name": "Active Tectonics of the Andes", "dip_dir": null, "lower_seis_depth": null, "name": "JAQUE RIVER FAULT", "net_slip_rate": null, "slip_type": "Sinistral", "upper_seis_depth": null, "downthrown_side_id": null, "reference": "Cowan et al., 1998", "epistemic_quality": null, "accuracy": null, "activity_confidence": null, "fs_name": null, "last_movement": null, "downthrown_side_dir": null, "vert_sep_rate": null, "strike_slip_rate": null, "exposure_quality": null, "shortening_rate": null, "notes": null, "index_right": 158, "NAME_EN": "Panama" }, "geometry": { "type": "LineString", "coordinates": [ [ -78.21288007, 7.66528621200007 ], [ -78.192094482999906, 7.64346134600004 ], [ -78.161955382, 7.62163647900007 ], [ -78.137012677, 7.59773305400006 ], [ -78.112069973, 7.56447611500005 ], [ -78.085048709, 7.53849413100005 ], [ -78.071538077999904, 7.51459070600004 ] ] } },
{ "type": "Feature", "properties": { "average_dip": null, "average_rake": null, "catalog_id": "ATA_389", "catalog_name": "Active Tectonics of the Andes", "dip_dir": null, "lower_seis_depth": null, "name": "JAQUE RIVER FAULT", "net_slip_rate": null, "slip_type": "Sinistral", "upper_seis_depth": null, "downthrown_side_id": null, "reference": "Cowan et al., 1998", "epistemic_quality": null, "accuracy": null, "activity_confidence": null, "fs_name": null, "last_movement": null, "downthrown_side_dir": null, "vert_sep_rate": null, "strike_slip_rate": null, "exposure_quality": null, "shortening_rate": null, "notes": null, "index_right": 158, "NAME_EN": "Panama" }, "geometry": { "type": "LineString", "coordinates": [ [ -78.085048709, 7.54888692400004 ], [ -78.06738096, 7.53537629300007 ], [ -78.043477535, 7.50731575 ], [ -78.020613388999905, 7.48653016300005 ], [ -77.988395729, 7.46158745900004 ], [ -77.924999688999904, 7.38675934500003 ], [ -77.888624911, 7.33791321500007 ], [ -77.853289413, 7.2984206 ], [ -77.758714992, 7.17058923900004 ], [ -77.715065259, 7.07601481700004 ], [ -77.653747777, 6.98040111700004 ], [ -77.639197866, 6.94298706 ] ] } },
{ "type": "Feature", "properties": { "average_dip": null, "average_rake": null, "catalog_id": "ATA_390", "catalog_name": "Active Tectonics of the Andes", "dip_dir": null, "lower_seis_depth": null, "name": null, "net_slip_rate": null, "slip_type": "Reverse", "upper_seis_depth": null, "downthrown_side_id": null, "reference": null, "epistemic_quality": null, "accuracy": null, "activity_confidence": null, "fs_name": null, "last_movement": null, "downthrown_side_dir": null, "vert_sep_rate": null, "strike_slip_rate": null, "exposure_quality": null, "shortening_rate": null, "notes": null, "index_right": 158, "NAME_EN": "Panama" }, "geometry": { "type": "LineString", "coordinates": [ [ -79.250789759, 9.17267591500007 ], [ -79.227990567999896, 9.169752942000059 ], [ -79.198760836, 9.175598889000071 ], [ -79.172454076999898, 9.183783214000069 ], [ -79.150239481, 9.18612159200006 ], [ -79.128024884999903, 9.19547510600006 ], [ -79.080088124, 9.22353564900004 ], [ -79.039751093999897, 9.23873511 ], [ -79.022213254999897, 9.238150515000029 ], [ -79.015782714, 9.24516565100004 ], [ -79.003506226999903, 9.248088624000051 ], [ -78.985383793, 9.249257813000041 ], [ -78.95849244, 9.246919434000059 ], [ -78.900032976, 9.23055078500005 ], [ -78.824035673, 9.21827429700005 ], [ -78.768499183, 9.218858892000069 ], [ -78.73166972, 9.22470483800004 ], [ -78.694255664, 9.217105108000061 ], [ -78.680225392, 9.217105108000061 ], [ -78.659179985, 9.20892078300005 ], [ -78.622350523, 9.190213755000061 ] ] } },
{ "type": "Feature", "properties": { "average_dip": null, "average_rake": null, "catalog_id": "ATA_391", "catalog_name": "Active Tectonics of the Andes", "dip_dir": null, "lower_seis_depth": null, "name": null, "net_slip_rate": null, "slip_type": "Reverse", "upper_seis_depth": null, "downthrown_side_id": null, "reference": null, "epistemic_quality": null, "accuracy": null, "activity_confidence": null, "fs_name": null, "last_movement": null, "downthrown_side_dir": null, "vert_sep_rate": null, "strike_slip_rate": null, "exposure_quality": null, "shortening_rate": null, "notes": null, "index_right": 158, "NAME_EN": "Panama" }, "geometry": { "type": "LineString", "coordinates": [ [ -78.745115396999907, 9.226458622000051 ], [ -78.721731610999896, 9.23055078500005 ], [ -78.672625662, 9.231135379000021 ], [ -78.612412413999905, 9.22412024400006 ], [ -78.584351872, 9.222951054000021 ], [ -78.56272187, 9.21944348700004 ] ] } },
{ "type": "Feature", "properties": { "average_dip": null, "average_rake": null, "catalog_id": "ATA_392", "catalog_name": "Active Tectonics of the Andes", "dip_dir": null, "lower_seis_depth": null, "name": null, "net_slip_rate": null, "slip_type": "Reverse", "upper_seis_depth": null, "downthrown_side_id": null, "reference": null, "epistemic_quality": null, "accuracy": null, "activity_confidence": null, "fs_name": null, "last_movement": null, "downthrown_side_dir": null, "vert_sep_rate": null, "strike_slip_rate": null, "exposure_quality": null, "shortening_rate": null, "notes": null, "index_right": 158, "NAME_EN": "Panama" }, "geometry": { "type": "LineString", "coordinates": [ [ -78.569152410999905, 9.23756592 ], [ -78.535245921999902, 9.22938159500006 ], [ -78.483216999, 9.21944348700004 ], [ -78.463340782, 9.211259162000029 ] ] } },
{ "type": "Feature", "properties": { "average_dip": null, "average_rake": null, "catalog_id": "ATA_393", "catalog_name": "Active Tectonics of the Andes", "dip_dir": null, "lower_seis_depth": null, "name": "RIO GATUN FAULT", "net_slip_rate": null, "slip_type": "Normal", "upper_seis_depth": null, "downthrown_side_id": null, "reference": "Cowan et al., 1998", "epistemic_quality": null, "accuracy": null, "activity_confidence": null, "fs_name": null, "last_movement": null, "downthrown_side_dir": null, "vert_sep_rate": null, "strike_slip_rate": null, "exposure_quality": null, "shortening_rate": null, "notes": null, "index_right": 158, "NAME_EN": "Panama" }, "geometry": { "type": "LineString", "coordinates": [ [ -79.542610117, 9.36211477300003 ], [ -79.562038485, 9.36211477300003 ], [ -79.582546207999897, 9.35563865 ], [ -79.599815868999897, 9.34592446600004 ], [ -79.644069375, 9.326496097000071 ], [ -79.676449988999906, 9.30814708200006 ], [ -79.706671896, 9.29411548300004 ], [ -79.7379731569999, 9.28224259100006 ], [ -79.771433125, 9.276845822000039 ], [ -79.790861493, 9.26497293 ], [ -79.808131154, 9.25741745300007 ] ] } },
{ "type": "Feature", "properties": { "average_dip": "(72.0,,)", "average_rake": null, "catalog_id": "SA_399", "catalog_name": "SARA", "dip_dir": "W", "lower_seis_depth": "(16.0,,)", "name": "Falla de Los Saltos", "net_slip_rate": "(3.0,1,5)", "slip_type": "Reverse", "upper_seis_depth": "(0.0,,)", "downthrown_side_id": "None", "reference": null, "epistemic_quality": null, "accuracy": null, "activity_confidence": null, "fs_name": null, "last_movement": null, "downthrown_side_dir": null, "vert_sep_rate": null, "strike_slip_rate": null, "exposure_quality": null, "shortening_rate": null, "notes": null, "index_right": 158, "NAME_EN": "Panama" }, "geometry": { "type": "LineString", "coordinates": [ [ -77.695179942, 7.69591997100002 ], [ -77.698379942, 7.57811997100004 ], [ -77.644709942, 7.38148997100007 ], [ -77.613039941999901, 7.34727997100003 ], [ -77.590549941999896, 7.28855997100004 ], [ -77.578729941999896, 7.15123997100005 ], [ -77.492949940999907, 6.95574997 ], [ -77.487999940999899, 6.89115997 ], [ -77.449529941, 6.78118997 ], [ -77.435499941, 6.75030997 ], [ -77.399989940999902, 6.71296997 ] ] } },
{ "type": "Feature", "properties": { "average_dip": "(20,15,35)", "average_rake": "(90,,)", "catalog_id": "CA_113.0", "catalog_name": "GEM_Central_Am_Carib", "dip_dir": "N", "lower_seis_depth": null, "name": "Longitudinal Fault", "net_slip_rate": null, "slip_type": "Reverse", "upper_seis_depth": null, "downthrown_side_id": null, "reference": "Montero et al., 1998", "epistemic_quality": null, "accuracy": "100000", "activity_confidence": "1", "fs_name": null, "last_movement": null, "downthrown_side_dir": "S", "vert_sep_rate": null, "strike_slip_rate": null, "exposure_quality": null, "shortening_rate": "(5., 0.1, 10.)", "notes": null, "index_right": 158, "NAME_EN": "Panama" }, "geometry": { "type": "LineString", "coordinates": [ [ -83.84063232156079, 9.231871362046704 ], [ -83.84063232156079, 9.228388308517445 ], [ -83.835919955021197, 9.219783117445159 ], [ -83.829363618966127, 9.217529376926228 ], [ -83.823421939416207, 9.21261212488492 ], [ -83.817070488862853, 9.211997468379757 ], [ -83.805392015264758, 9.204416704816076 ], [ -83.796786824192466, 9.20482647581952 ], [ -83.767488197446355, 9.18659166616634 ], [ -83.73265766215377, 9.178601131599217 ], [ -83.730403921634831, 9.174503421564795 ], [ -83.73511628817441, 9.166103115994231 ], [ -83.727330639109013, 9.1493025048531 ], [ -83.727330639109013, 9.142746168798025 ], [ -83.725486669593522, 9.139058229767045 ], [ -83.715857051012634, 9.130657924196479 ], [ -83.70930071495755, 9.121642962120751 ], [ -83.697827126861171, 9.112218229041581 ], [ -83.695573386342247, 9.107915633505437 ], [ -83.688197508280282, 9.10094952644692 ], [ -83.687173080771672, 9.09746647291766 ], [ -83.679182546204586, 9.087836854336771 ], [ -83.677748347692543, 9.082509831292022 ], [ -83.663201477070345, 9.076363266240389 ], [ -83.644147125410271, 9.060587082607864 ], [ -83.635541934337994, 9.056694258075163 ], [ -83.632673537313892, 9.053620975549347 ], [ -83.619355979702021, 9.051572120532136 ], [ -83.616077811674486, 9.052596548040741 ], [ -83.602350483059169, 9.038664333923705 ], [ -83.593745291986892, 9.025141890810113 ], [ -83.574895825828548, 9.007111966658655 ], [ -83.557890329185696, 8.994204180050225 ], [ -83.550719336625448, 8.991130897524409 ], [ -83.532279641470552, 8.98744295849343 ], [ -83.5220353663845, 8.990721126520967 ], [ -83.513020404308776, 8.985598988977939 ], [ -83.506873839257139, 8.9784279964177 ], [ -83.498063762683131, 8.972076545864347 ], [ -83.488843915105676, 8.967978835829925 ], [ -83.471428647459391, 8.968593492335089 ], [ -83.43311505863754, 8.964905553304108 ], [ -83.429836890609977, 8.957324789740435 ], [ -83.428197806596216, 8.946260972647496 ], [ -83.422461012548013, 8.935197155554555 ], [ -83.385991393241667, 8.911840208358349 ], [ -83.367961469090204, 8.90446433029639 ], [ -83.350341315942188, 8.888893032165585 ], [ -83.331491849783831, 8.879673184588137 ], [ -83.315101009646142, 8.867584939986592 ], [ -83.311003299611727, 8.86348722995217 ], [ -83.299734597017064, 8.832344633690562 ], [ -83.283548642381092, 8.822510129607949 ], [ -83.277606962831186, 8.816568450058037 ], [ -83.262855206707286, 8.808987686494358 ], [ -83.247079023074761, 8.792187075353228 ], [ -83.237449404493859, 8.786040510301595 ], [ -83.232327266950833, 8.779279288744798 ], [ -83.217985281830366, 8.772518067188001 ], [ -83.213272915290773, 8.763503105112273 ], [ -83.206716579235703, 8.757971196565803 ], [ -83.197291846156531, 8.754283257534823 ], [ -83.193399021623833, 8.749980661998681 ], [ -83.185818258060152, 8.747317150476306 ], [ -83.157953829826084, 8.729901882830012 ], [ -83.147299783736585, 8.715559897709536 ], [ -83.132548027612657, 8.701217912589058 ], [ -83.114108332457761, 8.697325088056356 ], [ -83.096897950313192, 8.688105240478908 ], [ -83.078868026161729, 8.682778217434159 ], [ -83.069033522079124, 8.6831879884376 ], [ -83.050184055920781, 8.680319591413506 ], [ -83.036251841803747, 8.674173026361872 ], [ -82.996504054469852, 8.663109209268933 ], [ -82.957166038139391, 8.645489056120917 ], [ -82.941594740008597, 8.636064323041747 ], [ -82.914549853781409, 8.622951650931597 ], [ -82.899388326654034, 8.611068291831771 ], [ -82.878490005478483, 8.59959470373539 ], [ -82.854313516275397, 8.569271649480667 ], [ -82.837103134130828, 8.559437145398054 ] ] } },
{ "type": "Feature", "properties": { "average_dip": "(90,,)", "average_rake": null, "catalog_id": "CA_189.0", "catalog_name": "GEM_Central_Am_Carib", "dip_dir": null, "lower_seis_depth": null, "name": "Zona Falla Media", "net_slip_rate": null, "slip_type": "Dextral", "upper_seis_depth": null, "downthrown_side_id": null, "reference": "Camacho 2003 Tecnociencia", "epistemic_quality": "1", "accuracy": "60000", "activity_confidence": "1", "fs_name": null, "last_movement": null, "downthrown_side_dir": null, "vert_sep_rate": null, "strike_slip_rate": null, "exposure_quality": "2", "shortening_rate": null, "notes": null, "index_right": 158, "NAME_EN": "Panama" }, "geometry": { "type": "LineString", "coordinates": [ [ -82.936920136852933, 8.306096006722575 ], [ -82.930033929301544, 8.283469896196562 ], [ -82.92085231923302, 8.264122932123596 ], [ -82.919540660651805, 8.253629663473852 ], [ -82.91494985561755, 8.241824736242888 ], [ -82.91019509326064, 8.214443863359962 ], [ -82.909867178615329, 8.181980313474815 ], [ -82.913146325068382, 8.163617093337763 ], [ -82.915933599553469, 8.107051817022734 ], [ -82.911342794519186, 8.03031979002148 ] ] } },
{ "type": "Feature", "properties": { "average_dip": null, "average_rake": null, "catalog_id": "CA_190.0", "catalog_name": "GEM_Central_Am_Carib", "dip_dir": null, "lower_seis_depth": null, "name": "Falla Longitudinal-Boca Chica", "net_slip_rate": null, "slip_type": null, "upper_seis_depth": null, "downthrown_side_id": null, "reference": "Camacho 2003 Tectnociencia", "epistemic_quality": null, "accuracy": "60000", "activity_confidence": "1", "fs_name": null, "last_movement": null, "downthrown_side_dir": null, "vert_sep_rate": null, "strike_slip_rate": null, "exposure_quality": null, "shortening_rate": null, "notes": null, "index_right": 158, "NAME_EN": "Panama" }, "geometry": { "type": "LineString", "coordinates": [ [ -82.909703221292659, 8.623517383377342 ], [ -82.859204365915772, 8.607121651112116 ], [ -82.844120292231764, 8.605154163240289 ], [ -82.799195985825065, 8.590070089556281 ], [ -82.790506247724494, 8.588922388297714 ], [ -82.756403124612817, 8.575477887840229 ], [ -82.740499264315559, 8.573838314613708 ], [ -82.711314860883462, 8.56236130202805 ], [ -82.674260505964043, 8.553507606604828 ], [ -82.662127664087777, 8.546949313698738 ], [ -82.646059846467864, 8.541046850083257 ], [ -82.633599089946287, 8.540391020792647 ], [ -82.604742601159487, 8.531537325369426 ], [ -82.5614578679793, 8.526618605689858 ], [ -82.542766733196942, 8.517764910266637 ], [ -82.492923707110648, 8.499401690129583 ], [ -82.454229778964717, 8.48169429928314 ], [ -82.4096333872033, 8.470545201342786 ] ] } },
{ "type": "Feature", "properties": { "average_dip": "(90,,)", "average_rake": null, "catalog_id": "CA_191.0", "catalog_name": "GEM_Central_Am_Carib", "dip_dir": null, "lower_seis_depth": null, "name": null, "net_slip_rate": null, "slip_type": "Sinistral", "upper_seis_depth": null, "downthrown_side_id": null, "reference": "Camacho 2003 Tecnociencia", "epistemic_quality": null, "accuracy": "100000", "activity_confidence": null, "fs_name": null, "last_movement": null, "downthrown_side_dir": null, "vert_sep_rate": null, "strike_slip_rate": null, "exposure_quality": null, "shortening_rate": null, "notes": null, "index_right": 158, "NAME_EN": "Panama" }, "geometry": { "type": "LineString", "coordinates": [ [ -82.37585817873692, 8.25805651118546 ], [ -82.305684444641756, 8.245267840018585 ], [ -82.270269662948877, 8.232807083497013 ], [ -82.235182795901295, 8.222641729492572 ], [ -82.169271952195089, 8.196080643222908 ], [ -82.153532049220473, 8.1882106917356 ], [ -82.120412670044715, 8.176077849859333 ] ] } },
{ "type": "Feature", "properties": { "average_dip": "(90,,)", "average_rake": null, "catalog_id": "CA_192.0", "catalog_name": "GEM_Central_Am_Carib", "dip_dir": null, "lower_seis_depth": null, "name": "Azuero Fault", "net_slip_rate": null, "slip_type": "Sinistral", "upper_seis_depth": null, "downthrown_side_id": null, "reference": "Rockwell et al. 2010 Tectonics", "epistemic_quality": null, "accuracy": "60000", "activity_confidence": "1", "fs_name": null, "last_movement": null, "downthrown_side_dir": null, "vert_sep_rate": null, "strike_slip_rate": "None", "exposure_quality": null, "shortening_rate": null, "notes": "GPS predicts 9 ± 2 mm/yr of extension, but this is  not at all evident in the geology.", "index_right": 158, "NAME_EN": "Panama" }, "geometry": { "type": "LineString", "coordinates": [ [ -81.651904620565972, 7.956866909473269 ], [ -81.636000760268701, 7.945553854210264 ], [ -81.605340740932732, 7.931453524462169 ], [ -81.569598044594542, 7.907023883386984 ], [ -81.538282195967966, 7.889152535217887 ], [ -81.487455425945768, 7.864558936820049 ], [ -81.47105969368053, 7.849146948490739 ], [ -81.416953777205279, 7.810944892312762 ], [ -81.397934727777624, 7.79553290398345 ], [ -81.375800489219557, 7.78348204076851 ], [ -81.350551061531107, 7.761511759533107 ], [ -81.316447938419429, 7.735114630586094 ], [ -81.27595047972433, 7.711012904156212 ], [ -81.182166891167199, 7.659694262166058 ], [ -81.093302022289677, 7.61476995575934 ], [ -80.962628036135825, 7.557056978185743 ], [ -80.95295455409935, 7.55820467944431 ], [ -80.931312187509249, 7.548859112053131 ], [ -80.900160296205328, 7.530495891916078 ], [ -80.857859306961046, 7.511804757133721 ], [ -80.852284757990859, 7.505902293518238 ], [ -80.836544855016243, 7.496720683449712 ], [ -80.767682779502309, 7.467536280017608 ], [ -80.728496979388396, 7.443106638942418 ] ] } },
{ "type": "Feature", "properties": { "average_dip": "(90,,)", "average_rake": null, "catalog_id": "CA_193.0", "catalog_name": "GEM_Central_Am_Carib", "dip_dir": null, "lower_seis_depth": null, "name": "Azuero Fault", "net_slip_rate": null, "slip_type": "Sinistral", "upper_seis_depth": null, "downthrown_side_id": null, "reference": "DEM, Rockwell 2010 Tectonics", "epistemic_quality": "2", "accuracy": "30000", "activity_confidence": "1", "fs_name": null, "last_movement": null, "downthrown_side_dir": "N", "vert_sep_rate": null, "strike_slip_rate": null, "exposure_quality": "2", "shortening_rate": null, "notes": null, "index_right": 158, "NAME_EN": "Panama" }, "geometry": { "type": "LineString", "coordinates": [ [ -80.705089187469085, 7.438904577069751 ], [ -80.64379764031483, 7.417381070798847 ], [ -80.63564224926688, 7.416792537424252 ], [ -80.626562020058842, 7.411832041838379 ] ] } },
{ "type": "Feature", "properties": { "average_dip": "(90,,)", "average_rake": null, "catalog_id": "CA_194.0", "catalog_name": "GEM_Central_Am_Carib", "dip_dir": null, "lower_seis_depth": null, "name": "Azuero Fault", "net_slip_rate": null, "slip_type": "Sinistral", "upper_seis_depth": null, "downthrown_side_id": null, "reference": "DEM, Rockwell et al., 2010", "epistemic_quality": null, "accuracy": "100000", "activity_confidence": "1", "fs_name": null, "last_movement": null, "downthrown_side_dir": "N", "vert_sep_rate": null, "strike_slip_rate": "None", "exposure_quality": null, "shortening_rate": null, "notes": null, "index_right": 158, "NAME_EN": "Panama" }, "geometry": { "type": "LineString", "coordinates": [ [ -80.707863701949321, 7.417801451780701 ], [ -80.690039548318737, 7.409057527358145 ], [ -80.674905832972001, 7.395269031153347 ], [ -80.65977211762528, 7.388879240229173 ], [ -80.630513601288271, 7.381144230163066 ], [ -80.61739771465443, 7.376099658380824 ], [ -80.541729137920782, 7.342132875047053 ], [ -80.522643841344632, 7.342973637010759 ], [ -80.507173821212419, 7.335574931730135 ], [ -80.445966350254537, 7.296227271828639 ], [ -80.427133282267491, 7.278403118198046 ], [ -80.423097624841702, 7.272349632059354 ] ] } },
{ "type": "Feature", "properties": { "average_dip": "(80,50,90)", "average_rake": null, "catalog_id": "CA_195.0", "catalog_name": "GEM_Central_Am_Carib", "dip_dir": "N", "lower_seis_depth": null, "name": null, "net_slip_rate": "(1,0.1,3)", "slip_type": "Sinistral-Normal", "upper_seis_depth": null, "downthrown_side_id": null, "reference": "DEM", "epistemic_quality": null, "accuracy": "70000", "activity_confidence": "1", "fs_name": "Azuero Fault Zone", "last_movement": null, "downthrown_side_dir": "N", "vert_sep_rate": null, "strike_slip_rate": null, "exposure_quality": null, "shortening_rate": null, "notes": "Topographically well expressed in a rapidly-eroding tropical region.  Looks more normal in E, more sinsitral in W.", "index_right": 158, "NAME_EN": "Panama" }, "geometry": { "type": "LineString", "coordinates": [ [ -80.86365689382427, 7.565439252607684 ], [ -80.832548701167099, 7.562580661931079 ], [ -80.8069895374704, 7.55568641382868 ], [ -80.783448202486611, 7.551482604010142 ], [ -80.774031668493095, 7.54879216572628 ], [ -80.748472504796396, 7.535676279092447 ], [ -80.712151587964243, 7.524914525956995 ], [ -80.699372006115894, 7.522560392458615 ], [ -80.671458708920824, 7.513143858465094 ], [ -80.658342822286983, 7.511126029752197 ], [ -80.638080458961625, 7.503895476864315 ], [ -80.619415543367325, 7.491956656979673 ], [ -80.594192684456118, 7.471273912672475 ], [ -80.582085712178724, 7.457485416467677 ], [ -80.562748187013469, 7.443865072655621 ], [ -80.512975078762011, 7.3991365361864 ], [ -80.486575153101597, 7.389047392621912 ], [ -80.464589227750665, 7.370550629420354 ], [ -80.44130012135598, 7.346757065847441 ] ] } },
{ "type": "Feature", "properties": { "average_dip": "(90,,)", "average_rake": null, "catalog_id": "CA_196.0", "catalog_name": "GEM_Central_Am_Carib", "dip_dir": null, "lower_seis_depth": null, "name": "Rincon Hondo Fault", "net_slip_rate": null, "slip_type": "Sinistral", "upper_seis_depth": null, "downthrown_side_id": null, "reference": "DEM", "epistemic_quality": "2", "accuracy": "70000", "activity_confidence": "2", "fs_name": null, "last_movement": null, "downthrown_side_dir": null, "vert_sep_rate": null, "strike_slip_rate": null, "exposure_quality": "1", "shortening_rate": null, "notes": "Interesting expression in DEM. Unclear if it's active but given the inferred kinematics and lack of similar topographic lineaments in the area, it probably is.", "index_right": 158, "NAME_EN": "Panama" }, "geometry": { "type": "LineString", "coordinates": [ [ -80.93734967994321, 7.890645980169632 ], [ -80.930455431840812, 7.891150437347856 ], [ -80.906241487286053, 7.886105865565613 ], [ -80.90287843943122, 7.887451084707545 ], [ -80.862353712780532, 7.881565750961594 ], [ -80.846042930684618, 7.881229446176111 ], [ -80.831581824908852, 7.883583579674491 ], [ -80.803836680106528, 7.879716074641438 ], [ -80.759444448422784, 7.877361941143058 ], [ -80.698573282250379, 7.863237140152777 ], [ -80.634675373008648, 7.856847349228603 ], [ -80.605753161457116, 7.850793863089911 ], [ -80.572122682908827, 7.84608559609315 ], [ -80.559343101060477, 7.845412986522185 ], [ -80.504189116241292, 7.850121253518945 ], [ -80.472576466405897, 7.847430815235082 ], [ -80.437600768715669, 7.840704719525425 ], [ -80.425493796438289, 7.841377329096391 ], [ -80.416749872015728, 7.838014281241562 ] ] } },
{ "type": "Feature", "properties": { "average_dip": "(80,70,90)", "average_rake": null, "catalog_id": "CA_197.0", "catalog_name": "GEM_Central_Am_Carib", "dip_dir": "E", "lower_seis_depth": null, "name": null, "net_slip_rate": null, "slip_type": null, "upper_seis_depth": null, "downthrown_side_id": null, "reference": "DEM", "epistemic_quality": "2", "accuracy": "75000", "activity_confidence": "2", "fs_name": null, "last_movement": null, "downthrown_side_dir": "E", "vert_sep_rate": null, "strike_slip_rate": null, "exposure_quality": "2", "shortening_rate": null, "notes": "Very distinct escarpment in DEM. Unclear of age or activity.", "index_right": 158, "NAME_EN": "Panama" }, "geometry": { "type": "LineString", "coordinates": [ [ -80.333115556361065, 7.772706129271502 ], [ -80.329180580617418, 7.76745949494663 ], [ -80.326229348809676, 7.758605799523409 ], [ -80.315900037482592, 7.743685683162053 ], [ -80.312456933706898, 7.73188075593109 ], [ -80.291798311052716, 7.69400661439842 ], [ -80.270319901785243, 7.662362851126533 ], [ -80.258842889199585, 7.638425082019304 ], [ -80.237528437254809, 7.610552337168419 ], [ -80.220804790344275, 7.584974994834667 ], [ -80.209655692403913, 7.572186323667792 ], [ -80.203097399497835, 7.560053481791524 ] ] } },
{ "type": "Feature", "properties": { "average_dip": "(80,70,90)", "average_rake": null, "catalog_id": "CA_198.0", "catalog_name": "GEM_Central_Am_Carib", "dip_dir": "E", "lower_seis_depth": null, "name": null, "net_slip_rate": null, "slip_type": null, "upper_seis_depth": null, "downthrown_side_id": null, "reference": "DEM", "epistemic_quality": "2", "accuracy": "60000", "activity_confidence": "2", "fs_name": null, "last_movement": null, "downthrown_side_dir": "E", "vert_sep_rate": null, "strike_slip_rate": null, "exposure_quality": "1", "shortening_rate": null, "notes": "Looks like a transtensional fault, bounding the west side of a graben.", "index_right": 158, "NAME_EN": "Panama" }, "geometry": { "type": "LineString", "coordinates": [ [ -80.228018912540961, 7.536771541974902 ], [ -80.205392802014956, 7.500700930991406 ], [ -80.192276216202799, 7.487666323840551 ], [ -80.189488941717713, 7.483075518806287 ], [ -80.168174489772923, 7.468975189058193 ], [ -80.145548379246904, 7.447824694436052 ], [ -80.130628262885551, 7.43093709020287 ] ] } },
{ "type": "Feature", "properties": { "average_dip": "(90,,)", "average_rake": null, "catalog_id": "CA_199.0", "catalog_name": "GEM_Central_Am_Carib", "dip_dir": null, "lower_seis_depth": null, "name": "Rio Gatun Fault", "net_slip_rate": null, "slip_type": "Sinistral", "upper_seis_depth": null, "downthrown_side_id": null, "reference": "Rockwell et al. 2010", "epistemic_quality": "1", "accuracy": "150000", "activity_confidence": "1", "fs_name": null, "last_movement": null, "downthrown_side_dir": null, "vert_sep_rate": null, "strike_slip_rate": "None", "exposure_quality": null, "shortening_rate": null, "notes": "Rate based on a regional GPS model that may ovrestimate slip rate on individual faults.", "index_right": 158, "NAME_EN": "Panama" }, "geometry": { "type": "LineString", "coordinates": [ [ -79.454714200251615, 9.404163468322768 ], [ -79.419299418558722, 9.406786785485203 ], [ -79.402903686293499, 9.413017163745989 ], [ -79.396345393387406, 9.416624224844339 ], [ -79.35535606272434, 9.453350665118444 ], [ -79.333713696134254, 9.482862983195851 ], [ -79.300594316958495, 9.494995825072117 ], [ -79.242553424739597, 9.527787289602568 ], [ -79.233043900025763, 9.528443118893177 ], [ -79.222222716730712, 9.526803545666654 ], [ -79.211729448080973, 9.528115204247873 ], [ -79.188447508264346, 9.536968899671093 ], [ -79.168116800255461, 9.552052973355101 ], [ -79.15106523869963, 9.561234583423628 ] ] } },
{ "type": "Feature", "properties": { "average_dip": "(80,70,90)", "average_rake": null, "catalog_id": "CA_200.0", "catalog_name": "GEM_Central_Am_Carib", "dip_dir": "E", "lower_seis_depth": null, "name": "Limon Fault", "net_slip_rate": null, "slip_type": "Dextral-Normal", "upper_seis_depth": null, "downthrown_side_id": null, "reference": "Bennett et al., 2014 SRL", "epistemic_quality": "2", "accuracy": "150000", "activity_confidence": "1", "fs_name": null, "last_movement": null, "downthrown_side_dir": "E", "vert_sep_rate": null, "strike_slip_rate": "None", "exposure_quality": null, "shortening_rate": "None", "notes": null, "index_right": 158, "NAME_EN": "Panama" }, "geometry": { "type": "LineString", "coordinates": [ [ -79.559318972103753, 9.357599588689524 ], [ -79.568172667526966, 9.338908453907168 ], [ -79.582928826565677, 9.317921916607679 ], [ -79.587519631599932, 9.294967891436363 ], [ -79.593750009860727, 9.280539647042964 ], [ -79.603587449219859, 9.269062634457306 ], [ -79.627197303681783, 9.24971567038434 ], [ -79.635067255169091, 9.240206145670509 ], [ -79.648183840981275, 9.207414681140058 ], [ -79.659660853566933, 9.163474118669253 ], [ -79.677696159058669, 9.126419763749846 ], [ -79.685566110545977, 9.115926495100101 ] ] } },
{ "type": "Feature", "properties": { "average_dip": "(90,70,90)", "average_rake": null, "catalog_id": "CA_240.0", "catalog_name": "GEM_Central_Am_Carib", "dip_dir": "E", "lower_seis_depth": null, "name": "Pedro Miguel Fault", "net_slip_rate": null, "slip_type": "Dextral", "upper_seis_depth": null, "downthrown_side_id": null, "reference": "Rockwell et al., 2010", "epistemic_quality": "1", "accuracy": "100000", "activity_confidence": "1", "fs_name": null, "last_movement": null, "downthrown_side_dir": "E", "vert_sep_rate": null, "strike_slip_rate": "(5.,3.5,8.)", "exposure_quality": "1", "shortening_rate": null, "notes": null, "index_right": 158, "NAME_EN": "Panama" }, "geometry": { "type": "LineString", "coordinates": [ [ -79.641351156558628, 9.180415070797508 ], [ -79.638965409273496, 9.162760540887462 ], [ -79.642305455472695, 9.134131573465766 ], [ -79.638726834544983, 9.119578515026403 ], [ -79.632762466332125, 9.107649778600695 ], [ -79.625128075019674, 9.084985179391852 ], [ -79.626082373933727, 9.074249316608716 ], [ -79.622980902463027, 9.061366281268954 ], [ -79.61558508587909, 9.041564578802282 ], [ -79.612245039679891, 9.036554509503484 ], [ -79.611767890222865, 9.021762876335607 ], [ -79.609859292394745, 9.013412760837609 ], [ -79.608547131387922, 9.009953427274153 ], [ -79.599839153797134, 9.001722599140415 ], [ -79.591011888842118, 8.967844987691405 ], [ -79.593159061398737, 8.913449949590182 ], [ -79.597453406511988, 8.892455373480939 ] ] } },
{ "type": "Feature", "properties": { "average_dip": "(90,,)", "average_rake": null, "catalog_id": "CA_241.0", "catalog_name": "GEM_Central_Am_Carib", "dip_dir": null, "lower_seis_depth": null, "name": "Rio Gatun Fault", "net_slip_rate": null, "slip_type": "Sinistral", "upper_seis_depth": null, "downthrown_side_id": null, "reference": "DEM; Rockwell et al., 2010a,b", "epistemic_quality": "1", "accuracy": "150000", "activity_confidence": "1", "fs_name": null, "last_movement": null, "downthrown_side_dir": null, "vert_sep_rate": null, "strike_slip_rate": "None", "exposure_quality": "2", "shortening_rate": null, "notes": "Trace location modified from sources based on DEM", "index_right": 158, "NAME_EN": "Panama" }, "geometry": { "type": "LineString", "coordinates": [ [ -80.620223267652094, 8.748236950094133 ], [ -80.595650070615136, 8.760881410705382 ], [ -80.57346262086331, 8.768515802017836 ], [ -80.560102436066515, 8.770901549302977 ], [ -80.52813342244562, 8.786647481384909 ], [ -80.496164408824725, 8.798814792539131 ], [ -80.46610399303195, 8.812413552064436 ], [ -80.426977737555603, 8.845098289870872 ], [ -80.415764725315441, 8.856311302111036 ], [ -80.395247298663236, 8.868001463808229 ], [ -80.387374332622258, 8.870864360550399 ], [ -80.363994009227881, 8.875158705663655 ], [ -80.331070696692933, 8.888041741003418 ], [ -80.291944441216614, 8.918102156796198 ], [ -80.268086968365182, 8.930508042678936 ], [ -80.240889449314579, 8.941482480190585 ], [ -80.211783332435814, 8.943391078018699 ], [ -80.178860019900881, 8.958659860643605 ], [ -80.158819742705688, 8.966055677227544 ], [ -80.128759326912913, 8.98084731039542 ], [ -80.12374925761408, 8.98538023023719 ], [ -80.105617578247006, 8.992537472092613 ] ] } },
{ "type": "Feature", "properties": { "average_dip": "(90,,)", "average_rake": null, "catalog_id": "CA_242.0", "catalog_name": "GEM_Central_Am_Carib", "dip_dir": null, "lower_seis_depth": null, "name": "Rio Gatun Fault", "net_slip_rate": null, "slip_type": "Sinistral", "upper_seis_depth": null, "downthrown_side_id": null, "reference": "DEM; Rockwell et al., 2010a, b", "epistemic_quality": "1", "accuracy": "75000", "activity_confidence": "1", "fs_name": null, "last_movement": null, "downthrown_side_dir": null, "vert_sep_rate": null, "strike_slip_rate": "None", "exposure_quality": "1", "shortening_rate": null, "notes": "Geometry modified from source based on SRTM30 data", "index_right": 158, "NAME_EN": "Panama" }, "geometry": { "type": "LineString", "coordinates": [ [ -79.869905746475027, 9.215843417981848 ], [ -79.852012641836467, 9.233140085799123 ], [ -79.847956871451728, 9.240774477111577 ], [ -79.824337973328838, 9.247931718967001 ], [ -79.807876317061357, 9.256520409193511 ], [ -79.800957649934446, 9.258190432293111 ], [ -79.789506062965771, 9.265824823605563 ], [ -79.769465785770578, 9.274652088560586 ], [ -79.734156725950484, 9.285626526072235 ], [ -79.715547897126385, 9.288250848085891 ], [ -79.699324815587431, 9.297316687769429 ], [ -79.689304676989835, 9.299463860326057 ], [ -79.681431710948871, 9.303996780167825 ], [ -79.670457273437222, 9.306621102181481 ], [ -79.657812812825966, 9.317834114421645 ], [ -79.64850839841391, 9.322844183720441 ], [ -79.632762466331982, 9.327615678290725 ], [ -79.629899569589824, 9.330001425575865 ], [ -79.612483614408291, 9.335727219060205 ], [ -79.594829084498244, 9.343838759829685 ], [ -79.586717543728767, 9.350518852228081 ], [ -79.584808945900647, 9.356483220440936 ], [ -79.57550453148859, 9.369366255780699 ], [ -79.56906301381872, 9.373183451436924 ], [ -79.55952002467815, 9.377477796550179 ], [ -79.533276804541586, 9.383442164763032 ], [ -79.52444953958657, 9.389406532975887 ], [ -79.480074640082947, 9.395490188552998 ], [ -79.454905006224706, 9.40312457986545 ] ] } },
{ "type": "Feature", "properties": { "average_dip": null, "average_rake": null, "catalog_id": "CA_243.0", "catalog_name": "GEM_Central_Am_Carib", "dip_dir": null, "lower_seis_depth": null, "name": "Rio Gatun Fault", "net_slip_rate": null, "slip_type": "Sinistral", "upper_seis_depth": null, "downthrown_side_id": null, "reference": "DEM; Rockwell et al., 2010a,b", "epistemic_quality": "2", "accuracy": "300000", "activity_confidence": "1", "fs_name": null, "last_movement": null, "downthrown_side_dir": null, "vert_sep_rate": null, "strike_slip_rate": "None", "exposure_quality": "2", "shortening_rate": null, "notes": "Interpreted geometry (the whole fault segment is underwater)", "index_right": 158, "NAME_EN": "Panama" }, "geometry": { "type": "LineString", "coordinates": [ [ -80.077465760282365, 9.031544440204677 ], [ -80.067922771141795, 9.040610279888213 ], [ -80.045019597204444, 9.055401913056091 ], [ -79.971061431365058, 9.09691391581755 ], [ -79.950066855255812, 9.131745826180614 ], [ -79.942909613400388, 9.155126149575 ], [ -79.932412325345766, 9.172303530028019 ], [ -79.923823635119248, 9.179460771883443 ], [ -79.899489012810818, 9.193298106137263 ], [ -79.873245792674254, 9.213815532789479 ] ] } }
]
}
