{
"type": "FeatureCollection",
"name": "faults_guatemala",
"crs": { "type": "name", "properties": { "name": "urn:ogc:def:crs:OGC:1.3:CRS84" } },
"features": [
{ "type": "Feature", "properties": { "average_dip": "(75,60,90)", "average_rake": null, "catalog_id": "CA_1.0", "catalog_name": "GEM_Central_Am_Carib", "dip_dir": "S", "lower_seis_depth": null, "name": "Tuxtla Fault", "net_slip_rate": "(6.,4.,8.)", "slip_type": "Sinistral", "upper_seis_depth": null, "downthrown_side_id": null, "reference": "Witt et al., 2012", "epistemic_quality": "1", "accuracy": "100000", "activity_confidence": "1", "fs_name": "Tuxtla-Malpaso Fault Zone", "last_movement": null, "downthrown_side_dir": null, "vert_sep_rate": "(0,,)", "strike_slip_rate": null, "exposure_quality": "1", "shortening_rate": null, "notes": null, "index_right": 117, "NAME_EN": "Guatemala" }, "geometry": { "type": "LineString", "coordinates": [ [ -93.647518422022699, 16.98358835751003 ], [ -93.585914353310216, 16.974254407705104 ], [ -93.544844974168555, 16.963053667939199 ], [ -93.466439795807204, 16.935051818524428 ], [ -93.380567457601899, 16.912650338992613 ], [ -93.332030918616312, 16.893982439382768 ], [ -93.221890310918212, 16.869714169889967 ], [ -93.192021671542463, 16.849179480319137 ], [ -93.149085502439817, 16.824911210826336 ], [ -93.074413904000437, 16.800642941333535 ], [ -93.029610944936806, 16.768907511996797 ], [ -92.956806136458397, 16.746506032464982 ], [ -92.923203917160677, 16.7203709730112 ], [ -92.893335277784928, 16.699836283440369 ], [ -92.846665528760312, 16.684901963752491 ], [ -92.796262199813725, 16.662500484220676 ], [ -92.729057761218286, 16.627031474961967 ], [ -92.687988382076611, 16.621431105079015 ], [ -92.641318633052009, 16.595296045625229 ], [ -92.603982833832305, 16.58222851589834 ], [ -92.577847774378526, 16.560760431347017 ], [ -92.530244630373417, 16.515957472283386 ], [ -92.504109570919638, 16.497289572673541 ], [ -92.489175251231757, 16.480488463024678 ], [ -92.4602400068365, 16.463687353375818 ], [ -92.4350383423632, 16.445952848746462 ], [ -92.427571182519259, 16.433818714000061 ], [ -92.424770997577781, 16.412350629448738 ], [ -92.407036492948436, 16.372214645287571 ], [ -92.389301988319076, 16.347012980814277 ], [ -92.371567483689731, 16.306876996653109 ], [ -92.356633164001849, 16.282608727160309 ], [ -92.343565634274952, 16.254606877745541 ], [ -92.33049810454807, 16.236872373116189 ], [ -92.263293665952602, 16.19766978393551 ], [ -92.22502447175242, 16.155667009813357 ], [ -92.184888487591252, 16.124864975457111 ], [ -92.126084603820232, 16.090329361178895 ], [ -92.071014299971196, 16.060460721803143 ], [ -92.021544366005102, 16.046459797095757 ], [ -91.919804313131436, 16.05112677199822 ], [ -91.861933824340923, 16.046459797095757 ], [ -91.817130865277292, 16.036192452310342 ], [ -91.781661856018573, 16.021258132622464 ], [ -91.68645556800837, 16.019391342661478 ] ] } },
{ "type": "Feature", "properties": { "average_dip": "(90,,)", "average_rake": null, "catalog_id": "CA_17.0", "catalog_name": "GEM_Central_Am_Carib", "dip_dir": null, "lower_seis_depth": null, "name": "Necta Fault", "net_slip_rate": null, "slip_type": "Sinistral", "upper_seis_depth": null, "downthrown_side_id": null, "reference": "Authemayou et al., 2012", "epistemic_quality": "1", "accuracy": "100000", "activity_confidence": "1", "fs_name": "Motagua-Polochic Fault Zone", "last_movement": null, "downthrown_side_dir": null, "vert_sep_rate": null, "strike_slip_rate": "None", "exposure_quality": null, "shortening_rate": null, "notes": null, "index_right": 117, "NAME_EN": "Guatemala" }, "geometry": { "type": "LineString", "coordinates": [ [ -92.405986423596232, 15.61674808295175 ], [ -92.388251918966873, 15.612547805539535 ], [ -92.377051179200961, 15.612081108049289 ], [ -92.354183002178914, 15.605547343185842 ], [ -92.315913807978717, 15.606947435656581 ], [ -92.305646463193312, 15.604613948205349 ], [ -92.290245446015177, 15.604147250715103 ], [ -92.266443874012637, 15.599013578322396 ], [ -92.252909646795487, 15.599013578322396 ], [ -92.232374957224664, 15.595279998400427 ], [ -92.220707519968514, 15.590146326007719 ], [ -92.167037308590196, 15.585479351105258 ], [ -92.091899012660591, 15.56447796404418 ], [ -92.067630743167783, 15.561677779102702 ], [ -91.988292169825939, 15.563544569063687 ], [ -91.931355076015905, 15.557944199180733 ], [ -91.886552116952274, 15.544876669453842 ], [ -91.869751007303421, 15.543009879492857 ], [ -91.844549342830121, 15.53647611462941 ], [ -91.822147863298312, 15.526208769843995 ], [ -91.792279223922563, 15.516874820039073 ], [ -91.758677004624829, 15.500073710390211 ], [ -91.737208920073513, 15.492606550546272 ] ] } },
{ "type": "Feature", "properties": { "average_dip": "(90,,)", "average_rake": null, "catalog_id": "CA_20.0", "catalog_name": "GEM_Central_Am_Carib", "dip_dir": null, "lower_seis_depth": null, "name": "Polochic Fault-Cuilco Segment", "net_slip_rate": null, "slip_type": "Sinistral", "upper_seis_depth": null, "downthrown_side_id": null, "reference": "Authemayou et al., 2012; White, 1984", "epistemic_quality": "1", "accuracy": "100000", "activity_confidence": "1", "fs_name": "Motagua-Polochic Fault Zone", "last_movement": "1816", "downthrown_side_dir": null, "vert_sep_rate": null, "strike_slip_rate": "None", "exposure_quality": null, "shortening_rate": null, "notes": null, "index_right": 117, "NAME_EN": "Guatemala" }, "geometry": { "type": "LineString", "coordinates": [ [ -92.227007936086878, 15.382932640338437 ], [ -92.192005624318412, 15.390866497672622 ], [ -92.135535227998631, 15.394133380104345 ], [ -92.044062519910455, 15.404167376144636 ], [ -92.007193418181004, 15.405567468615375 ], [ -91.993659190963868, 15.407900956066607 ], [ -91.954456601783193, 15.406967561086114 ], [ -91.906853457778084, 15.414434720930052 ], [ -91.824714699494763, 15.415368115910544 ], [ -91.79437936262876, 15.420501788303252 ], [ -91.76917769815546, 15.418168300852022 ], [ -91.749576403565129, 15.420968485793498 ], [ -91.726241529052814, 15.418634998342268 ], [ -91.696839587167304, 15.408367653556851 ], [ -91.684238754930661, 15.406034166105622 ], [ -91.655770208025643, 15.404634073634883 ], [ -91.618901106296192, 15.393900031359221 ], [ -91.517161053422541, 15.373832039278637 ], [ -91.503626826205405, 15.369631761866422 ], [ -91.473058140594262, 15.364731438218834 ], [ -91.452756799768565, 15.359364417081004 ], [ -91.391619428546321, 15.352363954727311 ], [ -91.372484831446215, 15.346530236099234 ], [ -91.356383768032714, 15.345363492373618 ], [ -91.341449448344846, 15.346296887354111 ], [ -91.328848616108189, 15.348863723550465 ], [ -91.31064741398859, 15.350030467276081 ], [ -91.291279468143372, 15.354697442178542 ], [ -91.271211476062788, 15.35376404719805 ], [ -91.238542651745561, 15.345830189863864 ], [ -91.199806760055139, 15.34092986621628 ], [ -91.163404355815928, 15.342563307432142 ], [ -91.151736918559777, 15.341163214961403 ], [ -91.136335901381656, 15.343963399902879 ], [ -91.112067631888863, 15.345363492373618 ] ] } },
{ "type": "Feature", "properties": { "average_dip": "(90,,)", "average_rake": null, "catalog_id": "CA_21.0", "catalog_name": "GEM_Central_Am_Carib", "dip_dir": null, "lower_seis_depth": null, "name": "Polochic Fault", "net_slip_rate": null, "slip_type": "Sinistral", "upper_seis_depth": null, "downthrown_side_id": null, "reference": "Authemayou et al., 2012", "epistemic_quality": "1", "accuracy": "100000", "activity_confidence": "1", "fs_name": "Motagua-Polochic Fault Zone", "last_movement": "1785", "downthrown_side_dir": null, "vert_sep_rate": null, "strike_slip_rate": "None", "exposure_quality": "1", "shortening_rate": null, "notes": null, "index_right": 117, "NAME_EN": "Guatemala" }, "geometry": { "type": "LineString", "coordinates": [ [ -91.15185359293244, 15.332645985764421 ], [ -91.066447952217388, 15.334512775725406 ], [ -90.95957422695102, 15.332179288274174 ], [ -90.940439629850928, 15.336379565686391 ], [ -90.907304108043448, 15.340579843098606 ], [ -90.828432232191858, 15.341513238079099 ], [ -90.793429920423392, 15.345246818001069 ], [ -90.723425296886475, 15.356914255257221 ], [ -90.687956287627756, 15.356447557766977 ], [ -90.63778630742631, 15.34851370043279 ], [ -90.512011333804978, 15.340813191843729 ], [ -90.47560892956578, 15.33334603199979 ], [ -90.43827313034609, 15.332879334509544 ], [ -90.312731505469884, 15.316544922350923 ], [ -90.233626280873153, 15.310711203722844 ], [ -90.177155884553358, 15.299277115211813 ], [ -90.153120963805691, 15.299510463956937 ], [ -90.084283083994379, 15.294026768446546 ], [ -90.045547192303957, 15.294726814681916 ], [ -89.99024353970978, 15.299160440839254 ], [ -89.957808064137666, 15.309661134369788 ], [ -89.921172311153342, 15.315261504252739 ], [ -89.901104319072758, 15.316661596723478 ], [ -89.869835587226262, 15.324128756567417 ], [ -89.824565930672392, 15.328795731469878 ], [ -89.796097383767375, 15.329262428960124 ], [ -89.761561769489163, 15.333929403862586 ], [ -89.737293499996355, 15.339529773745539 ], [ -89.695757423364455, 15.352597303472432 ], [ -89.682223196147334, 15.358664370845631 ], [ -89.663088599047242, 15.375465480494492 ], [ -89.656088136693555, 15.386199522770154 ], [ -89.643954001947151, 15.397866960026306 ], [ -89.629019682259269, 15.424935414460581 ], [ -89.611285177629924, 15.438002944187474 ], [ -89.574882773390726, 15.453870658855843 ], [ -89.527279629385617, 15.455737448816826 ], [ -89.491810620126913, 15.467871583563227 ], [ -89.437673711258356, 15.510807752665873 ], [ -89.392870752194725, 15.530409047256212 ], [ -89.358335137916512, 15.550943736827042 ], [ -89.335000263404197, 15.557477501690489 ], [ -89.262195454925802, 15.587812838556488 ], [ -89.238393882923248, 15.603680553224857 ], [ -89.205258361115767, 15.636816075032334 ], [ -89.187057158996168, 15.644283234876271 ], [ -89.09231756847619, 15.665751319427596 ], [ -89.069916088944382, 15.67228508429104 ] ] } },
{ "type": "Feature", "properties": { "average_dip": "(90,,)", "average_rake": null, "catalog_id": "CA_22.0", "catalog_name": "GEM_Central_Am_Carib", "dip_dir": null, "lower_seis_depth": null, "name": null, "net_slip_rate": null, "slip_type": "Sinistral", "upper_seis_depth": null, "downthrown_side_id": null, "reference": "DEM", "epistemic_quality": null, "accuracy": "100000", "activity_confidence": "2", "fs_name": "Motagua-Polochic Fault Zone", "last_movement": null, "downthrown_side_dir": null, "vert_sep_rate": null, "strike_slip_rate": null, "exposure_quality": null, "shortening_rate": null, "notes": null, "index_right": 117, "NAME_EN": "Guatemala" }, "geometry": { "type": "LineString", "coordinates": [ [ -89.61921903496409, 15.750223565162175 ], [ -89.546880923975934, 15.768891464772022 ], [ -89.489943830165899, 15.781025599518422 ], [ -89.448407753533999, 15.79455982673556 ], [ -89.400337912038637, 15.805293869011221 ] ] } },
{ "type": "Feature", "properties": { "average_dip": "(90,,)", "average_rake": null, "catalog_id": "CA_23.0", "catalog_name": "GEM_Central_Am_Carib", "dip_dir": null, "lower_seis_depth": null, "name": null, "net_slip_rate": null, "slip_type": "Sinistral", "upper_seis_depth": null, "downthrown_side_id": null, "reference": "DEM", "epistemic_quality": null, "accuracy": "100000", "activity_confidence": "2", "fs_name": "Motagua-Polochic Fault Zone", "last_movement": null, "downthrown_side_dir": null, "vert_sep_rate": null, "strike_slip_rate": null, "exposure_quality": null, "shortening_rate": null, "notes": null, "index_right": 117, "NAME_EN": "Guatemala" }, "geometry": { "type": "LineString", "coordinates": [ [ -89.39567093713616, 15.81509451630639 ], [ -89.35833513791647, 15.828162046033283 ], [ -89.337333750855393, 15.833762415916237 ], [ -89.32053264120654, 15.843563063211406 ], [ -89.277596472103895, 15.860364172860267 ], [ -89.258928572494042, 15.86969812266519 ], [ -89.211325428488934, 15.896766577099466 ] ] } },
{ "type": "Feature", "properties": { "average_dip": "(90,60,90)", "average_rake": null, "catalog_id": "CA_24.0", "catalog_name": "GEM_Central_Am_Carib", "dip_dir": "S", "lower_seis_depth": null, "name": "Ixcan Fault", "net_slip_rate": "(1,0.1,3)", "slip_type": "Sinistral", "upper_seis_depth": null, "downthrown_side_id": null, "reference": "Guzman-Speziale, 2010; Authemayou et al., 2012", "epistemic_quality": "1", "accuracy": "100000", "activity_confidence": "1", "fs_name": "Ixcan Fault Zone", "last_movement": "1971", "downthrown_side_dir": "N", "vert_sep_rate": "(0,0,0.2)", "strike_slip_rate": null, "exposure_quality": null, "shortening_rate": null, "notes": null, "index_right": 117, "NAME_EN": "Guatemala" }, "geometry": { "type": "LineString", "coordinates": [ [ -91.021644993153757, 15.75162365763291 ], [ -90.980575614012096, 15.734822547984049 ], [ -90.931105680046002, 15.710554278491248 ], [ -90.814431307484469, 15.668551504369095 ], [ -90.785496063089212, 15.662017739505648 ], [ -90.671621875469143, 15.641483049934818 ], [ -90.625885521425019, 15.634949285071372 ], [ -90.56614824267352, 15.639616259973833 ], [ -90.5073443589025, 15.641483049934818 ], [ -90.470941954663303, 15.648950209778757 ], [ -90.445740290190002, 15.656417369622694 ] ] } },
{ "type": "Feature", "properties": { "average_dip": "(90,,)", "average_rake": null, "catalog_id": "CA_26.0", "catalog_name": "GEM_Central_Am_Carib", "dip_dir": null, "lower_seis_depth": null, "name": "Motagua Fault", "net_slip_rate": null, "slip_type": "Sinistral", "upper_seis_depth": null, "downthrown_side_id": null, "reference": "Franco et al., 2012", "epistemic_quality": "1", "accuracy": "100000", "activity_confidence": "1", "fs_name": "Motagua Fault Zone", "last_movement": "1976", "downthrown_side_dir": null, "vert_sep_rate": null, "strike_slip_rate": "None", "exposure_quality": "1", "shortening_rate": null, "notes": null, "index_right": 117, "NAME_EN": "Guatemala" }, "geometry": { "type": "LineString", "coordinates": [ [ -90.428239134306153, 14.847047247163387 ], [ -90.347033771003325, 14.846113852182894 ], [ -90.321832106530039, 14.843313667241418 ], [ -90.302230811939694, 14.845647154692648 ], [ -90.270495382602959, 14.84658054967314 ], [ -90.252294180483361, 14.843780364731664 ], [ -90.220092053656373, 14.844713759712155 ], [ -90.166421842278069, 14.851247524575601 ], [ -90.145659029945506, 14.856443908769004 ], [ -90.112648931739415, 14.86194157949161 ], [ -90.092871774221251, 14.863061289366705 ], [ -90.054893414583489, 14.868485796321838 ], [ -89.978863531540483, 14.883658690738228 ], [ -89.932388728869796, 14.895585606656461 ], [ -89.83217419206828, 14.925781662478377 ], [ -89.80304218081163, 14.935629343624067 ], [ -89.752800621811147, 14.955772319979602 ], [ -89.601854554716539, 15.004459614135898 ], [ -89.391312361190757, 15.097265622167386 ], [ -89.231410537362407, 15.175219276393856 ], [ -89.177919984997374, 15.205532965926741 ], [ -89.1298215469197, 15.228758545443091 ], [ -88.759754076752245, 15.431558372590466 ], [ -88.664262480655495, 15.474371007756242 ], [ -88.644367454483373, 15.484938179898872 ], [ -88.598362222741699, 15.502870957836562 ], [ -88.55384244004162, 15.517341346390285 ], [ -88.531155184624168, 15.521084639866269 ], [ -88.483297212421391, 15.538907803687277 ], [ -88.455217046637031, 15.542258964595547 ] ] } },
{ "type": "Feature", "properties": { "average_dip": "(90,,)", "average_rake": null, "catalog_id": "CA_27.0", "catalog_name": "GEM_Central_Am_Carib", "dip_dir": null, "lower_seis_depth": null, "name": "Los Amates Fault", "net_slip_rate": null, "slip_type": "Sinistral", "upper_seis_depth": null, "downthrown_side_id": null, "reference": "Mueller 1979 PhD thesis", "epistemic_quality": "1", "accuracy": "100000", "activity_confidence": "1", "fs_name": "Motagua Fault Zone", "last_movement": null, "downthrown_side_dir": null, "vert_sep_rate": null, "strike_slip_rate": "None", "exposure_quality": "1", "shortening_rate": null, "notes": null, "index_right": 117, "NAME_EN": "Guatemala" }, "geometry": { "type": "LineString", "coordinates": [ [ -89.124052997813308, 15.161834704334415 ], [ -89.068049298983766, 15.189836553749185 ], [ -89.036313869647032, 15.211304638300508 ], [ -88.990577515602908, 15.247707042539707 ], [ -88.964442456149129, 15.259841177286107 ], [ -88.871569655590179, 15.308377716271711 ], [ -88.818366141702114, 15.339646448118202 ], [ -88.748828215655436, 15.375582154867155 ], [ -88.739027568360271, 15.383516012201341 ], [ -88.671823129764832, 15.414318046557581 ], [ -88.586884186540019, 15.449320358326041 ], [ -88.497278268412771, 15.494590014879918 ], [ -88.342101352905914, 15.565061335907084 ], [ -88.298465137567902, 15.593763231557222 ], [ -88.204892290773557, 15.645683327347109 ], [ -88.185290996183213, 15.658750857074001 ], [ -88.168956584024599, 15.661551042015478 ] ] } },
{ "type": "Feature", "properties": { "average_dip": "(50,40,70)", "average_rake": null, "catalog_id": "CA_29.0", "catalog_name": "GEM_Central_Am_Carib", "dip_dir": "SE", "lower_seis_depth": null, "name": "Aldea Xetzac Fault", "net_slip_rate": null, "slip_type": "Normal", "upper_seis_depth": null, "downthrown_side_id": null, "reference": null, "epistemic_quality": "2", "accuracy": "100000", "activity_confidence": "1", "fs_name": "Tecpan Graben", "last_movement": null, "downthrown_side_dir": "SE", "vert_sep_rate": null, "strike_slip_rate": null, "exposure_quality": "2", "shortening_rate": "None", "notes": null, "index_right": 117, "NAME_EN": "Guatemala" }, "geometry": { "type": "LineString", "coordinates": [ [ -90.940847990155802, 14.822487291739236 ], [ -90.962316074707132, 14.800552509697667 ], [ -90.982617415532829, 14.78561819000979 ], [ -90.989384529141404, 14.775817542714622 ], [ -90.994518201534106, 14.773250706518267 ], [ -91.001985361378047, 14.751782621966944 ] ] } },
{ "type": "Feature", "properties": { "average_dip": "(50,40,70)", "average_rake": null, "catalog_id": "CA_30.0", "catalog_name": "GEM_Central_Am_Carib", "dip_dir": "W", "lower_seis_depth": null, "name": "East Tecpan Fault", "net_slip_rate": null, "slip_type": "Normal", "upper_seis_depth": null, "downthrown_side_id": null, "reference": null, "epistemic_quality": "2", "accuracy": "100000", "activity_confidence": "1", "fs_name": "Tecpan Graben", "last_movement": null, "downthrown_side_dir": "W", "vert_sep_rate": null, "strike_slip_rate": null, "exposure_quality": "2", "shortening_rate": "None", "notes": null, "index_right": 117, "NAME_EN": "Guatemala" }, "geometry": { "type": "LineString", "coordinates": [ [ -90.943881523842407, 14.77418410149876 ], [ -90.946915057528997, 14.767883685380436 ], [ -90.952048729921714, 14.763916756713344 ], [ -90.962082725962006, 14.749449134515714 ], [ -90.96068263349126, 14.743148718397391 ], [ -90.962782772197372, 14.736381604788821 ], [ -90.962082725962006, 14.730314537415621 ], [ -90.967916444590074, 14.72331407506193 ] ] } },
{ "type": "Feature", "properties": { "average_dip": "(50,40,70)", "average_rake": null, "catalog_id": "CA_31.0", "catalog_name": "GEM_Central_Am_Carib", "dip_dir": "NW", "lower_seis_depth": null, "name": "Tononicapan Fault", "net_slip_rate": null, "slip_type": "Normal", "upper_seis_depth": null, "downthrown_side_id": null, "reference": null, "epistemic_quality": "2", "accuracy": "100000", "activity_confidence": "1", "fs_name": "Quetzaltenango Graben", "last_movement": null, "downthrown_side_dir": "NW", "vert_sep_rate": null, "strike_slip_rate": null, "exposure_quality": "2", "shortening_rate": "None", "notes": null, "index_right": 117, "NAME_EN": "Guatemala" }, "geometry": { "type": "LineString", "coordinates": [ [ -91.339822456572151, 14.922674890104576 ], [ -91.347428336952689, 14.912692172105116 ], [ -91.350755909619167, 14.899857248962954 ], [ -91.376425755903497, 14.851369761537013 ], [ -91.407800012473217, 14.833781163157013 ], [ -91.416356627901322, 14.827601385347826 ], [ -91.422536405710517, 14.816667932300799 ], [ -91.428716183519711, 14.811438889539177 ], [ -91.437272798947816, 14.808111316872692 ], [ -91.448206251994833, 14.796227128778098 ], [ -91.461041175136998, 14.793850291159179 ], [ -91.482908081231059, 14.775786325255396 ] ] } },
{ "type": "Feature", "properties": { "average_dip": "(50,40,70)", "average_rake": null, "catalog_id": "CA_32.0", "catalog_name": "GEM_Central_Am_Carib", "dip_dir": "E", "lower_seis_depth": null, "name": "Mixco Fault", "net_slip_rate": null, "slip_type": "Normal", "upper_seis_depth": null, "downthrown_side_id": null, "reference": "Guzman-Speziale 2001; Franco et al., 2012", "epistemic_quality": "1", "accuracy": "100000", "activity_confidence": "1", "fs_name": "Guatemala City Graben", "last_movement": null, "downthrown_side_dir": "E", "vert_sep_rate": null, "strike_slip_rate": null, "exposure_quality": "1", "shortening_rate": "None", "notes": null, "index_right": 117, "NAME_EN": "Guatemala" }, "geometry": { "type": "LineString", "coordinates": [ [ -90.610846358849784, 14.710660974497022 ], [ -90.619402974277889, 14.681663555546216 ], [ -90.619402974277889, 14.667402529832703 ], [ -90.617026136658978, 14.648863196405138 ], [ -90.618927606754113, 14.63888047840568 ], [ -90.612272461421142, 14.614636734692709 ], [ -90.617976871706546, 14.583262478122984 ], [ -90.621779811896815, 14.57375512764731 ], [ -90.638417675229235, 14.545708443744068 ], [ -90.641269880371937, 14.531922785554341 ], [ -90.647925025704922, 14.52907058041164 ], [ -90.656957008656804, 14.511481982031642 ], [ -90.652203333418967, 14.474878682700293 ], [ -90.650301863323833, 14.465846699748402 ], [ -90.646498923133564, 14.459191554415431 ] ] } },
{ "type": "Feature", "properties": { "average_dip": "(50,40,70)", "average_rake": null, "catalog_id": "CA_33.0", "catalog_name": "GEM_Central_Am_Carib", "dip_dir": "W", "lower_seis_depth": null, "name": "Guatemala City Fault", "net_slip_rate": null, "slip_type": "Normal", "upper_seis_depth": null, "downthrown_side_id": null, "reference": "Guzman-Speziale 2001; Franco et al., 2012", "epistemic_quality": "1", "accuracy": "100000", "activity_confidence": "1", "fs_name": "Guatemala City Graben", "last_movement": null, "downthrown_side_dir": "W", "vert_sep_rate": null, "strike_slip_rate": null, "exposure_quality": "2", "shortening_rate": "None", "notes": null, "index_right": 117, "NAME_EN": "Guatemala" }, "geometry": { "type": "LineString", "coordinates": [ [ -90.492955212951458, 14.765803607255934 ], [ -90.482497127428218, 14.745838171257017 ], [ -90.48154639238065, 14.730626410495939 ], [ -90.48534933257092, 14.709710239449453 ], [ -90.483447862475785, 14.698301418878644 ], [ -90.478694187237949, 14.68879406840297 ], [ -90.480595657333083, 14.668828632404054 ], [ -90.473940512000112, 14.645060256214867 ], [ -90.48154639238065, 14.624144085168384 ], [ -90.48154639238065, 14.597523503836495 ], [ -90.488201537713621, 14.579459537932713 ], [ -90.492955212951458, 14.569952187457039 ], [ -90.498659623236861, 14.563297042124066 ], [ -90.499610358284428, 14.541430136030014 ], [ -90.507216238664967, 14.528119845364071 ], [ -90.514822119045505, 14.508154409365154 ], [ -90.514822119045505, 14.502449999079749 ], [ -90.510068443807668, 14.492942648604075 ], [ -90.513871383997937, 14.476780152795428 ] ] } },
{ "type": "Feature", "properties": { "average_dip": "(50,40,70)", "average_rake": null, "catalog_id": "CA_34.0", "catalog_name": "GEM_Central_Am_Carib", "dip_dir": "W", "lower_seis_depth": null, "name": "El Duranzo Fault", "net_slip_rate": null, "slip_type": "Normal", "upper_seis_depth": null, "downthrown_side_id": null, "reference": null, "epistemic_quality": "2", "accuracy": "100000", "activity_confidence": "1", "fs_name": "El Socorro Graben", "last_movement": null, "downthrown_side_dir": "W", "vert_sep_rate": null, "strike_slip_rate": null, "exposure_quality": "2", "shortening_rate": "None", "notes": null, "index_right": 117, "NAME_EN": "Guatemala" }, "geometry": { "type": "LineString", "coordinates": [ [ -90.34321444295955, 14.671680837546758 ], [ -90.352721793435236, 14.663599589642436 ], [ -90.358901571244417, 14.653141504119192 ], [ -90.366032084101178, 14.632700700596493 ], [ -90.366507451624955, 14.578508802885148 ], [ -90.364130614006044, 14.568050717361906 ], [ -90.367933554196313, 14.542856238601368 ], [ -90.367458186672522, 14.53144741803056 ], [ -90.369835024291447, 14.521464700031101 ] ] } },
{ "type": "Feature", "properties": { "average_dip": "(50,40,70)", "average_rake": null, "catalog_id": "CA_35.0", "catalog_name": "GEM_Central_Am_Carib", "dip_dir": "E", "lower_seis_depth": null, "name": "Las Anonas Fault", "net_slip_rate": null, "slip_type": "Normal", "upper_seis_depth": null, "downthrown_side_id": null, "reference": null, "epistemic_quality": "2", "accuracy": "100000", "activity_confidence": "1", "fs_name": "El Socorro Graben", "last_movement": null, "downthrown_side_dir": "E", "vert_sep_rate": null, "strike_slip_rate": null, "exposure_quality": "2", "shortening_rate": "None", "notes": null, "index_right": 117, "NAME_EN": "Guatemala" }, "geometry": { "type": "LineString", "coordinates": [ [ -90.412618101431974, 14.585163948218121 ], [ -90.416896409146034, 14.552363589077043 ], [ -90.416896409146034, 14.542380871077585 ], [ -90.414044204003332, 14.536676460792179 ], [ -90.42165008438387, 14.520989332507316 ] ] } },
{ "type": "Feature", "properties": { "average_dip": "(50,40,70)", "average_rake": null, "catalog_id": "CA_37.0", "catalog_name": "GEM_Central_Am_Carib", "dip_dir": "W", "lower_seis_depth": null, "name": "Mataquescuintla Fault", "net_slip_rate": null, "slip_type": "Normal", "upper_seis_depth": null, "downthrown_side_id": null, "reference": null, "epistemic_quality": "2", "accuracy": "100000", "activity_confidence": "2", "fs_name": "Mataquescuintla Graben", "last_movement": null, "downthrown_side_dir": "W", "vert_sep_rate": null, "strike_slip_rate": null, "exposure_quality": "2", "shortening_rate": "None", "notes": null, "index_right": 117, "NAME_EN": "Guatemala" }, "geometry": { "type": "LineString", "coordinates": [ [ -90.216885523514122, 14.574349337052068 ], [ -90.213082583323839, 14.56436661905261 ], [ -90.189789574658448, 14.536795302673154 ], [ -90.179569172897089, 14.528951738530722 ], [ -90.174577813897372, 14.52110817438829 ], [ -90.174102446373581, 14.509937037579373 ], [ -90.161742890755207, 14.482603404961809 ], [ -90.161267523231416, 14.470243849343433 ], [ -90.165545830945476, 14.461687233915326 ], [ -90.166021198469281, 14.448376943249379 ] ] } },
{ "type": "Feature", "properties": { "average_dip": "(50,40,70)", "average_rake": null, "catalog_id": "CA_38.0", "catalog_name": "GEM_Central_Am_Carib", "dip_dir": "W", "lower_seis_depth": null, "name": "Jalapa Fault", "net_slip_rate": null, "slip_type": "Normal", "upper_seis_depth": null, "downthrown_side_id": null, "reference": null, "epistemic_quality": "2", "accuracy": "100000", "activity_confidence": null, "fs_name": "Jalapa-Monjas Fault Zone", "last_movement": null, "downthrown_side_dir": "W", "vert_sep_rate": null, "strike_slip_rate": null, "exposure_quality": "2", "shortening_rate": "None", "notes": null, "index_right": 117, "NAME_EN": "Guatemala" }, "geometry": { "type": "LineString", "coordinates": [ [ -89.960187060670805, 14.679405559808311 ], [ -89.961375479480253, 14.662292328952093 ], [ -89.97088282995594, 14.645179098095877 ], [ -89.972546616289179, 14.626639764668308 ], [ -89.970169778670254, 14.618083149240199 ], [ -89.959711693147014, 14.611665687669117 ], [ -89.960424744432686, 14.598830764526955 ], [ -89.964227684622969, 14.5857581576229 ] ] } },
{ "type": "Feature", "properties": { "average_dip": "(50,40,70)", "average_rake": null, "catalog_id": "CA_39.0", "catalog_name": "GEM_Central_Am_Carib", "dip_dir": "W", "lower_seis_depth": null, "name": "San Pedro Fault", "net_slip_rate": null, "slip_type": "Normal", "upper_seis_depth": null, "downthrown_side_id": null, "reference": null, "epistemic_quality": "2", "accuracy": "100000", "activity_confidence": null, "fs_name": "Jalapa-Monjas Fault Zone", "last_movement": null, "downthrown_side_dir": "W", "vert_sep_rate": null, "strike_slip_rate": null, "exposure_quality": "2", "shortening_rate": "None", "notes": null, "index_right": 117, "NAME_EN": "Guatemala" }, "geometry": { "type": "LineString", "coordinates": [ [ -89.808544820583734, 14.739301867805066 ], [ -89.811872393250226, 14.714582756568308 ], [ -89.810446290678868, 14.702698568473712 ], [ -89.811872393250226, 14.685585337617496 ], [ -89.815199965916719, 14.669898209332629 ], [ -89.819478273630764, 14.663243063999657 ], [ -89.822805846297257, 14.65230961095263 ], [ -89.824231948868601, 14.632344174953708 ] ] } },
{ "type": "Feature", "properties": { "average_dip": "(50,40,70)", "average_rake": null, "catalog_id": "CA_40.0", "catalog_name": "GEM_Central_Am_Carib", "dip_dir": "E", "lower_seis_depth": null, "name": "West Monjas Fault", "net_slip_rate": null, "slip_type": "Normal", "upper_seis_depth": null, "downthrown_side_id": null, "reference": null, "epistemic_quality": "2", "accuracy": "100000", "activity_confidence": null, "fs_name": "Jalapa-Monjas Fault System", "last_movement": null, "downthrown_side_dir": "E", "vert_sep_rate": null, "strike_slip_rate": null, "exposure_quality": "2", "shortening_rate": "None", "notes": null, "index_right": 117, "NAME_EN": "Guatemala" }, "geometry": { "type": "LineString", "coordinates": [ [ -89.939983940909983, 14.523247328245331 ], [ -89.932853428053235, 14.511838507674518 ], [ -89.92619828272025, 14.504707994817762 ], [ -89.913838727101876, 14.484267191295057 ], [ -89.90528211167377, 14.479038148533435 ], [ -89.893873291102963, 14.464301755296137 ], [ -89.872006385008902, 14.414863532822622 ], [ -89.853467051581333, 14.383013908729106 ] ] } },
{ "type": "Feature", "properties": { "average_dip": "(50,40,70)", "average_rake": null, "catalog_id": "CA_41.0", "catalog_name": "GEM_Central_Am_Carib", "dip_dir": "W", "lower_seis_depth": null, "name": "East Monjas Fault", "net_slip_rate": null, "slip_type": "Normal", "upper_seis_depth": null, "downthrown_side_id": null, "reference": null, "epistemic_quality": "2", "accuracy": "100000", "activity_confidence": null, "fs_name": "Jalapa-Monjas Fault Zone", "last_movement": null, "downthrown_side_dir": "W", "vert_sep_rate": null, "strike_slip_rate": null, "exposure_quality": "2", "shortening_rate": "None", "notes": null, "index_right": 117, "NAME_EN": "Guatemala" }, "geometry": { "type": "LineString", "coordinates": [ [ -89.830174042915914, 14.553195482243709 ], [ -89.825420367678078, 14.540360559101547 ], [ -89.824945000154287, 14.525624165864249 ], [ -89.822092795011585, 14.508510935008031 ], [ -89.82399426510672, 14.480464251104786 ], [ -89.821617427487794, 14.464301755296137 ] ] } },
{ "type": "Feature", "properties": { "average_dip": "(50,40,70)", "average_rake": null, "catalog_id": "CA_42.0", "catalog_name": "GEM_Central_Am_Carib", "dip_dir": "E", "lower_seis_depth": null, "name": "Jilotepeque Fault", "net_slip_rate": null, "slip_type": "Normal", "upper_seis_depth": null, "downthrown_side_id": null, "reference": "Guzman-Speziale 2001", "epistemic_quality": "2", "accuracy": "100000", "activity_confidence": null, "fs_name": "Ipala Graben", "last_movement": null, "downthrown_side_dir": "E", "vert_sep_rate": null, "strike_slip_rate": null, "exposure_quality": "2", "shortening_rate": "None", "notes": null, "index_right": 117, "NAME_EN": "Guatemala" }, "geometry": { "type": "LineString", "coordinates": [ [ -89.7455586236823, 14.692002799188584 ], [ -89.742231051015821, 14.682495448712908 ], [ -89.744607888634732, 14.672988098237232 ], [ -89.744607888634732, 14.663005380237772 ], [ -89.74175568349203, 14.655874867381014 ], [ -89.738428110825538, 14.637810901477229 ], [ -89.739854213396896, 14.625926713382635 ], [ -89.725593187683387, 14.606436644907498 ], [ -89.718462674826625, 14.58552047386101 ] ] } },
{ "type": "Feature", "properties": { "average_dip": "(50,40,70)", "average_rake": null, "catalog_id": "CA_43.0", "catalog_name": "GEM_Central_Am_Carib", "dip_dir": "W", "lower_seis_depth": null, "name": "Ipala Fault", "net_slip_rate": null, "slip_type": "Normal", "upper_seis_depth": null, "downthrown_side_id": null, "reference": "Guzman-Speziale 2001", "epistemic_quality": "1", "accuracy": "100000", "activity_confidence": null, "fs_name": "Ipala Graben", "last_movement": null, "downthrown_side_dir": "W", "vert_sep_rate": null, "strike_slip_rate": null, "exposure_quality": "2", "shortening_rate": "None", "notes": null, "index_right": 117, "NAME_EN": "Guatemala" }, "geometry": { "type": "LineString", "coordinates": [ [ -89.615783289689347, 14.68202008118911 ], [ -89.610078879403943, 14.653498029762082 ], [ -89.609603511880152, 14.643990679286405 ], [ -89.601997631499614, 14.634483328810729 ], [ -89.596768588737987, 14.617845465478295 ], [ -89.597243956261778, 14.588372679003699 ], [ -89.592490281023942, 14.584094371289645 ], [ -89.58535976816718, 14.571259448147481 ], [ -89.583458298072046, 14.555572319862616 ], [ -89.583458298072046, 14.550343277100994 ], [ -89.596768588737987, 14.535131516339913 ], [ -89.59581785369042, 14.528001003483155 ], [ -89.599145426356912, 14.520870490626399 ], [ -89.598313533190321, 14.512076191436398 ], [ -89.595223644285724, 14.503638417889235 ], [ -89.59676858873803, 14.486049819509233 ], [ -89.593559857952471, 14.477255520319231 ], [ -89.594510593000038, 14.466559751034094 ], [ -89.597125114380844, 14.458240819367878 ], [ -89.595936695571396, 14.451823357796796 ] ] } },
{ "type": "Feature", "properties": { "average_dip": "(50,40,70)", "average_rake": null, "catalog_id": "CA_44.0", "catalog_name": "GEM_Central_Am_Carib", "dip_dir": "W", "lower_seis_depth": null, "name": "Metapan Fault", "net_slip_rate": null, "slip_type": "Normal", "upper_seis_depth": null, "downthrown_side_id": null, "reference": "Guzman-Speziale", "epistemic_quality": "2", "accuracy": "100000", "activity_confidence": null, "fs_name": "Ipala Graben", "last_movement": null, "downthrown_side_dir": "W", "vert_sep_rate": null, "strike_slip_rate": null, "exposure_quality": "2", "shortening_rate": "None", "notes": null, "index_right": 117, "NAME_EN": "Guatemala" }, "geometry": { "type": "LineString", "coordinates": [ [ -89.456416327340818, 14.493893383651672 ], [ -89.45926853248352, 14.474878682700318 ], [ -89.455465592293251, 14.459191554415453 ], [ -89.456891694864595, 14.43875075089275 ], [ -89.43787699391325, 14.412605537084639 ], [ -89.437401626389459, 14.40404892165653 ], [ -89.430746481056502, 14.380993596753015 ], [ -89.389864874011096, 14.33678441704112 ], [ -89.380357523535423, 14.320621921232471 ], [ -89.368473335440825, 14.304934792947606 ], [ -89.3660964978219, 14.298279647614631 ], [ -89.356589147346227, 14.290198399710306 ], [ -89.356113779822451, 14.28069104923463 ], [ -89.347081796870555, 14.265479288473548 ] ] } },
{ "type": "Feature", "properties": { "average_dip": "(50,40,70)", "average_rake": null, "catalog_id": "CA_45.0", "catalog_name": "GEM_Central_Am_Carib", "dip_dir": "W", "lower_seis_depth": null, "name": "Ocotepeque Fault", "net_slip_rate": null, "slip_type": "Normal", "upper_seis_depth": null, "downthrown_side_id": null, "reference": "Guzman-Speziale 2001", "epistemic_quality": "2", "accuracy": "100000", "activity_confidence": null, "fs_name": "Esquipulas Graben", "last_movement": null, "downthrown_side_dir": "W", "vert_sep_rate": null, "strike_slip_rate": null, "exposure_quality": "2", "shortening_rate": "None", "notes": null, "index_right": 117, "NAME_EN": "Guatemala" }, "geometry": { "type": "LineString", "coordinates": [ [ -89.290513061540253, 14.633413751882223 ], [ -89.295266736778089, 14.609170008169247 ], [ -89.292889899159178, 14.59823655512222 ], [ -89.28718548887376, 14.588729204646544 ], [ -89.273399830684042, 14.577320384075733 ], [ -89.26579395030349, 14.57446817893303 ], [ -89.25533586478025, 14.567813033600057 ], [ -89.248205351923488, 14.560207153219515 ], [ -89.231567488591054, 14.537389512077892 ], [ -89.227289180877008, 14.522653118840594 ], [ -89.222535505639172, 14.516473341031405 ], [ -89.213028155163485, 14.511719665793567 ], [ -89.19401345421214, 14.50601525550816 ], [ -89.186407573831602, 14.493655699889782 ], [ -89.1835553686889, 14.478443939128701 ], [ -89.1835553686889, 14.467985853605455 ], [ -89.172621915641869, 14.447545050082752 ], [ -89.170720445546735, 14.43993916970221 ], [ -89.172146548118079, 14.423301306369778 ], [ -89.174523385737004, 14.419498366179507 ], [ -89.175474120784571, 14.412843220846534 ], [ -89.171671180594302, 14.385271904467073 ], [ -89.171908864356169, 14.362216579563556 ], [ -89.167392872880228, 14.349143972659501 ], [ -89.167155189118333, 14.330842322993824 ], [ -89.148853539452659, 14.30398405790004 ], [ -89.144337547976704, 14.293050604853011 ], [ -89.146239018071853, 14.28520704071058 ], [ -89.141960710357793, 14.276175057758687 ] ] } },
{ "type": "Feature", "properties": { "average_dip": "(90,,)", "average_rake": null, "catalog_id": "CA_56.0", "catalog_name": "GEM_Central_Am_Carib", "dip_dir": null, "lower_seis_depth": null, "name": "Western Motagua Fault", "net_slip_rate": null, "slip_type": "Sinistral", "upper_seis_depth": null, "downthrown_side_id": null, "reference": null, "epistemic_quality": "1", "accuracy": "100000", "activity_confidence": null, "fs_name": "Motagua Fault Zone", "last_movement": null, "downthrown_side_dir": null, "vert_sep_rate": null, "strike_slip_rate": null, "exposure_quality": "2", "shortening_rate": "(2,0,5)", "notes": null, "index_right": 117, "NAME_EN": "Guatemala" }, "geometry": { "type": "LineString", "coordinates": [ [ -90.882875424334699, 14.889042637796937 ], [ -90.850075065193622, 14.885239697606668 ], [ -90.794457064910915, 14.873830877035855 ], [ -90.763082808341181, 14.869552569321801 ], [ -90.728380979104969, 14.860520586369908 ], [ -90.707940175582266, 14.857668381227207 ], [ -90.675139816441174, 14.850062500846665 ], [ -90.639487252157394, 14.845308825608827 ] ] } },
{ "type": "Feature", "properties": { "average_dip": "(90,70,90)", "average_rake": null, "catalog_id": "CA_77.0", "catalog_name": "GEM_Central_Am_Carib", "dip_dir": null, "lower_seis_depth": null, "name": "Barbarena Fault", "net_slip_rate": null, "slip_type": "Dextral", "upper_seis_depth": null, "downthrown_side_id": null, "reference": null, "epistemic_quality": "2", "accuracy": "100000", "activity_confidence": "1", "fs_name": "Jalpatagua Fault", "last_movement": null, "downthrown_side_dir": null, "vert_sep_rate": null, "strike_slip_rate": null, "exposure_quality": "2", "shortening_rate": null, "notes": null, "index_right": 117, "NAME_EN": "Guatemala" }, "geometry": { "type": "LineString", "coordinates": [ [ -90.4635595240252, 14.343383718873371 ], [ -90.413952306247907, 14.327912160853717 ], [ -90.395042624223876, 14.324719617135376 ], [ -90.386201733926939, 14.319316850842798 ], [ -90.335857775291558, 14.308511318257642 ], [ -90.316456932695473, 14.29819694624454 ] ] } },
{ "type": "Feature", "properties": { "average_dip": "(90,70,90)", "average_rake": null, "catalog_id": "CA_78.0", "catalog_name": "GEM_Central_Am_Carib", "dip_dir": "S", "lower_seis_depth": null, "name": "Jalpatagua Fault", "net_slip_rate": null, "slip_type": "Dextral", "upper_seis_depth": null, "downthrown_side_id": null, "reference": null, "epistemic_quality": "1", "accuracy": "100000", "activity_confidence": "1", "fs_name": "Jalpatagua Fault", "last_movement": null, "downthrown_side_dir": "S", "vert_sep_rate": null, "strike_slip_rate": null, "exposure_quality": "2", "shortening_rate": null, "notes": null, "index_right": 117, "NAME_EN": "Guatemala" }, "geometry": { "type": "LineString", "coordinates": [ [ -90.306879301540448, 14.274130078213965 ], [ -90.231977314302441, 14.254729235617891 ], [ -90.142586090188885, 14.217646612427927 ], [ -90.113116455865736, 14.196281127543642 ], [ -90.019795947175766, 14.152322256344943 ], [ -90.00702577230237, 14.143604156191008 ], [ -89.983941225415904, 14.132798623605852 ], [ -89.970679889970484, 14.119537288160435 ], [ -89.965768284249961, 14.111187558435542 ] ] } },
{ "type": "Feature", "properties": { "average_dip": "(50,40,70)", "average_rake": "(-90,,)", "catalog_id": "CA_89.0", "catalog_name": "GEM_Central_Am_Carib", "dip_dir": "E", "lower_seis_depth": null, "name": "San Vicente Fault", "net_slip_rate": null, "slip_type": "Normal", "upper_seis_depth": null, "downthrown_side_id": null, "reference": "Staller et al., 2016", "epistemic_quality": "2", "accuracy": "100000", "activity_confidence": null, "fs_name": null, "last_movement": null, "downthrown_side_dir": "E", "vert_sep_rate": null, "strike_slip_rate": null, "exposure_quality": "2", "shortening_rate": "None", "notes": null, "index_right": 117, "NAME_EN": "Guatemala" }, "geometry": { "type": "LineString", "coordinates": [ [ -89.668094280049345, 14.25786038426466 ], [ -89.671532404053707, 14.248528333395662 ], [ -89.66416499547293, 14.207762005915304 ], [ -89.664656156044984, 14.183695137884731 ], [ -89.662691513756769, 14.140964168116161 ], [ -89.654341784031871, 14.111985694365064 ], [ -89.646974375451094, 14.045679017137974 ], [ -89.648447857167241, 14.018174025103034 ] ] } },
{ "type": "Feature", "properties": { "average_dip": null, "average_rake": null, "catalog_id": "CA_182.0", "catalog_name": "GEM_Central_Am_Carib", "dip_dir": null, "lower_seis_depth": null, "name": "Swan Islands Transform", "net_slip_rate": null, "slip_type": "Sinistral_Transform", "upper_seis_depth": null, "downthrown_side_id": null, "reference": "Rogers and Mann, 2007", "epistemic_quality": "1", "accuracy": "1000000", "activity_confidence": "1", "fs_name": "Swan Islands Transform", "last_movement": null, "downthrown_side_dir": null, "vert_sep_rate": null, "strike_slip_rate": "None", "exposure_quality": null, "shortening_rate": null, "notes": null, "index_right": 117, "NAME_EN": "Guatemala" }, "geometry": { "type": "LineString", "coordinates": [ [ -88.381960093379789, 15.640692615244912 ], [ -87.934056150315371, 15.942443971736736 ], [ -87.706916869901221, 16.044013463861734 ], [ -87.419987747525624, 16.177186625907819 ], [ -87.114204190756681, 16.313930961433709 ], [ -86.803543542315396, 16.460621088203279 ], [ -86.477292281762388, 16.654889361603555 ], [ -86.233448727742825, 16.787486402352933 ], [ -85.99939728936782, 16.875807699852931 ], [ -85.818338629492828, 16.92880047835293 ], [ -85.722921015135427, 16.973219022967584 ] ] } }
]
}
