{
"type": "FeatureCollection",
"name": "faults_libya",
"crs": { "type": "name", "properties": { "name": "urn:ogc:def:crs:OGC:1.3:CRS84" } },
"features": [
{ "type": "Feature", "properties": { "average_dip": "(50.0,,)", "average_rake": "", "catalog_id": "NAF_86", "catalog_name": "GEM_N_Africa", "dip_dir": "E", "lower_seis_depth": null, "name": "Western Fault", "net_slip_rate": "", "slip_type": "Normal", "upper_seis_depth": null, "downthrown_side_id": null, "reference": "Abdunasser and McCaffrey 2015 J. Earth Systems Science", "epistemic_quality": "1", "accuracy": "125000", "activity_confidence": "2", "fs_name": "Hun Graben", "last_movement": "", "downthrown_side_dir": "E", "vert_sep_rate": "", "strike_slip_rate": "", "exposure_quality": "0", "shortening_rate": "", "notes": "", "index_right": 71, "NAME_EN": "Libya" }, "geometry": { "type": "LineString", "coordinates": [ [ 14.798225475780606, 30.637170900686012 ], [ 14.819822026855306, 30.598777032108767 ], [ 14.837219248554369, 30.580180002016668 ], [ 14.887611201062002, 30.516590157185608 ], [ 14.90020918918891, 30.49439370191439 ], [ 14.940402770355711, 30.445201557799795 ], [ 14.949401333303502, 30.424204910921617 ], [ 14.963799034019969, 30.403808168239955 ], [ 14.978196734736436, 30.387610754933931 ], [ 15.002192902597212, 30.379212096182659 ], [ 15.075981118769104, 30.31322263456552 ], [ 15.108375945381152, 30.286826849918665 ], [ 15.149169430744474, 30.266430107237007 ], [ 15.174365406998289, 30.244833556162305 ], [ 15.22475735950592, 30.188442561689481 ], [ 15.257752090314494, 30.112254728731525 ], [ 15.263151228083169, 30.091857986049863 ], [ 15.264950940672726, 30.057663446848256 ], [ 15.276349120406596, 30.039666320952673 ], [ 15.297345767284776, 30.016270057288416 ], [ 15.320142126752515, 29.994673506213715 ], [ 15.339938965237655, 29.967077913173824 ], [ 15.371733887653185, 29.943081745313044 ], [ 15.378932738011418, 29.94008222433045 ], [ 15.383132067387054, 29.931683565579178 ] ] } },
{ "type": "Feature", "properties": { "average_dip": "(50,40,70)", "average_rake": "", "catalog_id": "NAF_87", "catalog_name": "GEM_N_Africa", "dip_dir": "E", "lower_seis_depth": null, "name": "Western Fault Zone", "net_slip_rate": "", "slip_type": "Normal", "upper_seis_depth": null, "downthrown_side_id": null, "reference": "Abdunasser and McCaffrey 2015", "epistemic_quality": "2", "accuracy": "125000", "activity_confidence": "2", "fs_name": "Hun Graben", "last_movement": "", "downthrown_side_dir": "E", "vert_sep_rate": "", "strike_slip_rate": "", "exposure_quality": "2", "shortening_rate": "", "notes": "", "index_right": 71, "NAME_EN": "Libya" }, "geometry": { "type": "LineString", "coordinates": [ [ 15.330340498093342, 29.849496690656011 ], [ 15.363935133098432, 29.815902055650923 ], [ 15.401129193282635, 29.789506271004068 ], [ 15.414327085606063, 29.765510103143292 ], [ 15.423925552750374, 29.742713743675555 ], [ 15.42872478632253, 29.724716617779972 ], [ 15.460819660836322, 29.68182346772883 ], [ 15.470718080078893, 29.671925048486262 ], [ 15.52140998468478, 29.633231227810757 ], [ 15.556804332279427, 29.602636113788268 ], [ 15.584999829515839, 29.571441095569256 ], [ 15.627593027468718, 29.531847418598975 ], [ 15.667186704439001, 29.483255178680903 ], [ 15.689383159710221, 29.459858915016639 ], [ 15.74397444159349, 29.393869453399503 ], [ 15.76437118427515, 29.336878554730156 ], [ 15.767370705257747, 29.315881907851978 ], [ 15.774869507714238, 29.295785117268576 ], [ 15.780268645482913, 29.288286314812083 ] ] } },
{ "type": "Feature", "properties": { "average_dip": "(50,40,70)", "average_rake": "", "catalog_id": "NAF_88", "catalog_name": "GEM_N_Africa", "dip_dir": "W", "lower_seis_depth": null, "name": "Eastern Fault Zone", "net_slip_rate": "", "slip_type": "Normal", "upper_seis_depth": null, "downthrown_side_id": null, "reference": "Abdunasser and McCaffrey 2015", "epistemic_quality": "2", "accuracy": "125000", "activity_confidence": "2", "fs_name": "Hun Graben", "last_movement": "", "downthrown_side_dir": "W", "vert_sep_rate": "", "strike_slip_rate": "", "exposure_quality": "2", "shortening_rate": "", "notes": "", "index_right": 71, "NAME_EN": "Libya" }, "geometry": { "type": "LineString", "coordinates": [ [ 15.74397444159349, 30.036966752068317 ], [ 15.7535729087378, 30.021969147155332 ], [ 15.763171375882111, 30.011170871617981 ], [ 15.779368789188135, 30.000372596080634 ], [ 15.80516466963847, 29.976376428219854 ], [ 15.81776265776538, 29.952980164555598 ], [ 15.821961987141016, 29.928983996694821 ], [ 15.830960550088806, 29.903788020441006 ], [ 15.843558538215715, 29.889990223921057 ], [ 15.8585561431287, 29.87919194838371 ], [ 15.877753077417323, 29.860594918291607 ], [ 15.895150299116386, 29.846197217575138 ], [ 15.917946658584123, 29.831199612662154 ], [ 15.97313784466391, 29.780207755958003 ], [ 15.98453602439778, 29.766409959438057 ], [ 15.997134012524686, 29.755011779704187 ], [ 16.050525486014916, 29.69142193487313 ], [ 16.064323282534861, 29.669225479601909 ], [ 16.079320887447846, 29.632631323614227 ], [ 16.090119162985197, 29.614634197718644 ], [ 16.099717630129508, 29.57444061655184 ], [ 16.105716672094701, 29.559443011638855 ], [ 16.117714756025091, 29.541445885743272 ], [ 16.120714277007686, 29.524648568240732 ], [ 16.117714756025087, 29.507251346541668 ], [ 16.12371379799028, 29.482655274484372 ], [ 16.132712360938072, 29.457459298230553 ], [ 16.138711402903269, 29.447860831086246 ], [ 16.128513031562438, 29.436462651352375 ], [ 16.116514947632048, 29.408867058312481 ], [ 16.103317055308622, 29.391469836613417 ], [ 16.098517821736465, 29.368073572949161 ], [ 16.098517821736465, 29.354875680625732 ], [ 16.101517342719063, 29.338078363123188 ], [ 16.114115330845973, 29.321880949817164 ], [ 16.126113414776359, 29.311682578476333 ], [ 16.141710923885871, 29.301484207135505 ], [ 16.155508720405816, 29.298484686152907 ], [ 16.162707570764052, 29.294885260973793 ], [ 16.176505367283998, 29.279887656060804 ], [ 16.222098086219475, 29.206099439888916 ], [ 16.244294541490692, 29.174904421669904 ], [ 16.257492433814122, 29.164706050329077 ], [ 16.314483332483466, 29.140109978271781 ], [ 16.37207413534933, 29.110114768445808 ], [ 16.399669728389224, 29.099316492908457 ], [ 16.418866662677846, 29.08791831317459 ], [ 16.445262447324701, 29.07712003763724 ], [ 16.456060722862052, 29.069921187279007 ] ] } },
{ "type": "Feature", "properties": { "average_dip": "(50,40,70)", "average_rake": "", "catalog_id": "NAF_89", "catalog_name": "GEM_N_Africa", "dip_dir": "W", "lower_seis_depth": null, "name": "Eastern Fault Zone", "net_slip_rate": "", "slip_type": "Normal", "upper_seis_depth": null, "downthrown_side_id": null, "reference": "Abdunasser and McCaffrey 2015", "epistemic_quality": "2", "accuracy": "125000", "activity_confidence": "2", "fs_name": "Hun Graben", "last_movement": "", "downthrown_side_dir": "W", "vert_sep_rate": "", "strike_slip_rate": "", "exposure_quality": "2", "shortening_rate": "", "notes": "Fault geomorphology nice in the south but gets a bit ambiguous towards the north.", "index_right": 71, "NAME_EN": "Libya" }, "geometry": { "type": "LineString", "coordinates": [ [ 15.860355855718266, 29.949380739376469 ], [ 15.852257149065254, 29.963478487994674 ], [ 15.829160837499257, 29.98927436844501 ], [ 15.821062130846245, 30.00067254817888 ], [ 15.805764573834999, 30.033967231085708 ], [ 15.791366873118532, 30.05256426117781 ], [ 15.785367831153339, 30.064862297206457 ], [ 15.78296821436726, 30.075360620645547 ], [ 15.771570034633392, 30.096657219621985 ], [ 15.770070274142093, 30.105655782569777 ], [ 15.749973483558696, 30.138050609181828 ], [ 15.744874297888281, 30.159347208158266 ], [ 15.722152926445098, 30.200965561791794 ], [ 15.717953597069462, 30.227361346438649 ], [ 15.721253070150318, 30.242958855548153 ], [ 15.702955992156477, 30.272954065374122 ], [ 15.68945814773479, 30.290651239171446 ], [ 15.670561165544427, 30.310748029754848 ], [ 15.654063800140143, 30.314347454933966 ], [ 15.638166338932377, 30.33594400600867 ], [ 15.641765764111494, 30.369538641013758 ], [ 15.638166338932377, 30.38993538369542 ], [ 15.615369979464639, 30.41873078512835 ], [ 15.602172087141211, 30.454725036919516 ], [ 15.581775344459551, 30.490719288710682 ], [ 15.564978026957007, 30.531512774074002 ], [ 15.548180709454462, 30.560308175506936 ] ] } }
]
}
