{
"type": "FeatureCollection",
"name": "faults_bolivia",
"crs": { "type": "name", "properties": { "name": "urn:ogc:def:crs:OGC:1.3:CRS84" } },
"features": [
{ "type": "Feature", "properties": { "average_dip": null, "average_rake": null, "catalog_id": "ATA_408", "catalog_name": "Active Tectonics of the Andes", "dip_dir": null, "lower_seis_depth": null, "name": null, "net_slip_rate": null, "slip_type": "Normal", "upper_seis_depth": null, "downthrown_side_id": null, "reference": null, "epistemic_quality": null, "accuracy": null, "activity_confidence": null, "fs_name": null, "last_movement": null, "downthrown_side_dir": null, "vert_sep_rate": null, "strike_slip_rate": null, "exposure_quality": null, "shortening_rate": null, "notes": null, "index_right": 3, "NAME_EN": "Bolivia" }, "geometry": { "type": "LineString", "coordinates": [ [ -69.234105010999897, -15.978918284 ], [ -69.20882359, -15.980248885 ], [ -69.179550365999901, -15.988232492 ], [ -69.162252552, -15.9975466989999 ], [ -69.146285338, -16.020166918 ], [ -69.136971130999896, -16.045448339 ], [ -69.118342715, -16.060084951 ], [ -69.069110474999903, -16.086696973 ], [ -69.030523043, -16.101333585 ], [ -68.9972580149999, -16.121292600999901 ], [ -68.971976594999902, -16.14391282 ], [ -68.954678779999895, -16.173186044 ], [ -68.89347113, -16.195806263 ], [ -68.856214299, -16.217095879999899 ], [ -68.828271676, -16.2450385029999 ], [ -68.812304463, -16.271650524999899 ], [ -68.765733424, -16.2916095419999 ], [ -68.731137796, -16.298262547 ], [ -68.689889162, -16.303584951999898 ], [ -68.641987522, -16.318221563999899 ], [ -68.610053095999902, -16.335519378 ], [ -68.582110472999901, -16.354147794 ], [ -68.546184243, -16.374106809999901 ], [ -68.522233424, -16.404710635 ], [ -68.498282603999897, -16.431322657 ], [ -68.458364570999905, -16.45926528 ], [ -68.411793531999905, -16.525795334999899 ] ] } },
{ "type": "Feature", "properties": { "average_dip": null, "average_rake": null, "catalog_id": "ATA_409", "catalog_name": "Active Tectonics of the Andes", "dip_dir": null, "lower_seis_depth": null, "name": null, "net_slip_rate": null, "slip_type": "Normal", "upper_seis_depth": null, "downthrown_side_id": null, "reference": null, "epistemic_quality": null, "accuracy": null, "activity_confidence": null, "fs_name": null, "last_movement": null, "downthrown_side_dir": null, "vert_sep_rate": null, "strike_slip_rate": null, "exposure_quality": null, "shortening_rate": null, "notes": null, "index_right": 3, "NAME_EN": "Bolivia" }, "geometry": { "type": "LineString", "coordinates": [ [ -68.438405554, -16.681475663999901 ], [ -68.461025773, -16.65353304 ], [ -68.504935609, -16.633574023999898 ], [ -68.544853642, -16.596317192999901 ], [ -68.591424681, -16.564382766999898 ], [ -68.62735091, -16.547084953 ], [ -68.661946539, -16.541762548 ], [ -68.711178779, -16.539101345999899 ], [ -68.745774408, -16.520472931 ], [ -68.767064026, -16.492530308 ], [ -68.80831266, -16.472571291 ], [ -68.874842714, -16.471240689999899 ], [ -68.917421949999905, -16.475232493 ], [ -68.950686977, -16.475232493 ] ] } },
{ "type": "Feature", "properties": { "average_dip": "(72.0,,)", "average_rake": null, "catalog_id": "SA_150", "catalog_name": "SARA", "dip_dir": "NE", "lower_seis_depth": "(39.0,,)", "name": "Achacachi", "net_slip_rate": "(0.5,0.1,1.0)", "slip_type": "Normal", "upper_seis_depth": "(0.0,,)", "downthrown_side_id": "NE", "reference": null, "epistemic_quality": null, "accuracy": null, "activity_confidence": null, "fs_name": null, "last_movement": null, "downthrown_side_dir": null, "vert_sep_rate": null, "strike_slip_rate": null, "exposure_quality": null, "shortening_rate": null, "notes": null, "index_right": 3, "NAME_EN": "Bolivia" }, "geometry": { "type": "LineString", "coordinates": [ [ -68.494252478414396, -16.065602795453302 ], [ -68.587883690367306, -16.007800763662299 ] ] } },
{ "type": "Feature", "properties": { "average_dip": "(70,,)", "average_rake": null, "catalog_id": "SA_151", "catalog_name": "SARA", "dip_dir": "NE", "lower_seis_depth": "(39.0,,)", "name": "Amachuma", "net_slip_rate": "(0.055,0.01,0.1)", "slip_type": "Normal", "upper_seis_depth": "(0.0,,)", "downthrown_side_id": "NE", "reference": null, "epistemic_quality": null, "accuracy": null, "activity_confidence": null, "fs_name": null, "last_movement": null, "downthrown_side_dir": null, "vert_sep_rate": null, "strike_slip_rate": null, "exposure_quality": null, "shortening_rate": null, "notes": null, "index_right": 3, "NAME_EN": "Bolivia" }, "geometry": { "type": "LineString", "coordinates": [ [ -68.250066643220293, -16.528199651542899 ], [ -68.433437440061198, -16.392502696639401 ] ] } },
{ "type": "Feature", "properties": { "average_dip": "(72.0,,)", "average_rake": null, "catalog_id": "SA_152", "catalog_name": "SARA", "dip_dir": "SW", "lower_seis_depth": "(43.7,,)", "name": "Escoma", "net_slip_rate": "(0.055,0.01,0.1)", "slip_type": "Normal", "upper_seis_depth": "(0.0,,)", "downthrown_side_id": "NE", "reference": null, "epistemic_quality": null, "accuracy": null, "activity_confidence": null, "fs_name": null, "last_movement": null, "downthrown_side_dir": null, "vert_sep_rate": null, "strike_slip_rate": null, "exposure_quality": null, "shortening_rate": null, "notes": null, "index_right": 3, "NAME_EN": "Bolivia" }, "geometry": { "type": "LineString", "coordinates": [ [ -69.257492940736299, -15.556602020419 ], [ -69.193071957147595, -15.6514970824195 ], [ -69.078664690623896, -15.7409930719454 ] ] } },
{ "type": "Feature", "properties": { "average_dip": "(52.0,45,60)", "average_rake": null, "catalog_id": "SA_153", "catalog_name": "SARA", "dip_dir": "SW", "lower_seis_depth": "(39.0,,)", "name": "Huarina", "net_slip_rate": "(0.055,0.01,0.1)", "slip_type": "Normal", "upper_seis_depth": "(0.0,,)", "downthrown_side_id": "SW", "reference": null, "epistemic_quality": null, "accuracy": null, "activity_confidence": null, "fs_name": null, "last_movement": null, "downthrown_side_dir": null, "vert_sep_rate": null, "strike_slip_rate": null, "exposure_quality": null, "shortening_rate": null, "notes": null, "index_right": 3, "NAME_EN": "Bolivia" }, "geometry": { "type": "LineString", "coordinates": [ [ -68.608471999651201, -16.178438824881901 ], [ -68.528693772491707, -16.301775475036699 ] ] } },
{ "type": "Feature", "properties": { "average_dip": "(70,,)", "average_rake": null, "catalog_id": "SA_154", "catalog_name": "SARA", "dip_dir": "NE", "lower_seis_depth": "(39.0,,)", "name": "Peñas", "net_slip_rate": "(0.055,0.01,0.1)", "slip_type": "Normal", "upper_seis_depth": "(0.0,,)", "downthrown_side_id": "NE", "reference": null, "epistemic_quality": null, "accuracy": null, "activity_confidence": null, "fs_name": null, "last_movement": null, "downthrown_side_dir": null, "vert_sep_rate": null, "strike_slip_rate": null, "exposure_quality": null, "shortening_rate": null, "notes": null, "index_right": 3, "NAME_EN": "Bolivia" }, "geometry": { "type": "LineString", "coordinates": [ [ -68.325609144691001, -16.241417891514601 ], [ -68.509123019301697, -16.119273965038101 ] ] } },
{ "type": "Feature", "properties": { "average_dip": "(7.0,,)", "average_rake": null, "catalog_id": "SA_407", "catalog_name": "SARA", "dip_dir": "W", "lower_seis_depth": "(nan,,)", "name": "Ibibobo", "net_slip_rate": "(7.0,,)", "slip_type": "Reverse", "upper_seis_depth": "(nan,,)", "downthrown_side_id": "E", "reference": null, "epistemic_quality": null, "accuracy": null, "activity_confidence": null, "fs_name": null, "last_movement": null, "downthrown_side_dir": null, "vert_sep_rate": null, "strike_slip_rate": null, "exposure_quality": null, "shortening_rate": null, "notes": null, "index_right": 3, "NAME_EN": "Bolivia" }, "geometry": { "type": "LineString", "coordinates": [ [ -62.991683434214686, -21.000920275736206 ], [ -62.991254884006025, -21.014776732482858 ], [ -62.995254685953512, -21.041775395628392 ], [ -62.993683335188429, -21.058631703835655 ], [ -62.990112083449603, -21.072488160582306 ], [ -62.988397882614962, -21.094629921363037 ], [ -62.984683780806584, -21.106486477135942 ], [ -62.979969728511328, -21.111771929709406 ], [ -62.97539852628563, -21.120628634021699 ], [ -62.975112826146528, -21.127913987568906 ], [ -62.971970124616355, -21.137484942228966 ], [ -62.953971015852666, -21.163197954748519 ], [ -62.949828363835628, -21.174768810382322 ], [ -62.949399813626968, -21.208052876588191 ], [ -62.961399219469428, -21.238479941403 ], [ -62.96282772016496, -21.243908244046018 ], [ -62.962684870095408, -21.258478951140432 ], [ -62.960256418913005, -21.2661928548963 ], [ -62.956256616965518, -21.269764106635126 ], [ -62.956542317104621, -21.278477960877865 ], [ -62.953399615574455, -21.284906214007755 ], [ -62.944971461470821, -21.286477564772838 ], [ -62.939971709036463, -21.290905916928985 ], [ -62.936686157436746, -21.296334219572003 ], [ -62.935114806671656, -21.306048024301614 ], [ -62.938543208340931, -21.31561897896167 ], [ -62.943685810844848, -21.321190131674243 ], [ -62.944685761331719, -21.329189735569216 ], [ -62.943542960775289, -21.333046687447148 ], [ -62.944685761331719, -21.352902847115029 ], [ -62.940828809453784, -21.370759105809164 ], [ -62.942543010288418, -21.381330010956095 ], [ -62.965827571625567, -21.407185873545203 ], [ -62.966256121834228, -21.413328426535987 ], [ -62.977969827537578, -21.422899381196043 ], [ -62.98468378080657, -21.425184982308892 ], [ -62.985826581363, -21.431898935577887 ], [ -62.984826630876128, -21.436041587594929 ], [ -62.986969381919423, -21.441612740307498 ], [ -62.987826482336764, -21.453897846289056 ], [ -62.986683681780335, -21.460897499697158 ], [ -62.976684176911618, -21.470611304426768 ], [ -62.981826779415535, -21.492181664929284 ], [ -62.980255428650452, -21.50903797313655 ], [ -62.987969332406315, -21.53675088662985 ], [ -63.007111241726427, -21.590891062990472 ], [ -63.0102539432566, -21.60460466966757 ], [ -63.0151108456214, -21.645316939490201 ], [ -63.018110697082015, -21.652030892759196 ], [ -63.032395704037306, -21.66574449943629 ] ] } },
{ "type": "Feature", "properties": { "average_dip": "(7.0,,)", "average_rake": null, "catalog_id": "SA_408", "catalog_name": "SARA", "dip_dir": "W", "lower_seis_depth": "(nan,,)", "name": "Percheles", "net_slip_rate": "(5.0,,)", "slip_type": "Reverse", "upper_seis_depth": "(nan,,)", "downthrown_side_id": "E", "reference": null, "epistemic_quality": null, "accuracy": null, "activity_confidence": null, "fs_name": null, "last_movement": null, "downthrown_side_dir": null, "vert_sep_rate": null, "strike_slip_rate": null, "exposure_quality": null, "shortening_rate": null, "notes": null, "index_right": 3, "NAME_EN": "Bolivia" }, "geometry": { "type": "LineString", "coordinates": [ [ -63.275809994215678, -17.969997148046627 ], [ -63.252398165046998, -17.991154504776844 ], [ -63.242513170509106, -18.009883968111794 ], [ -63.233148438841631, -18.036243953546162 ], [ -63.231240808316777, -18.059829203671654 ], [ -63.217713973685981, -18.094686815989473 ], [ -63.215632922204321, -18.11584417271969 ], [ -63.20730871627768, -18.133879952227417 ], [ -63.201585824703109, -18.153649941303197 ], [ -63.197943984610205, -18.183131503960055 ], [ -63.1977705636534, -18.209664910351233 ], [ -63.195342670258128, -18.218162537234679 ], [ -63.192741355906051, -18.25371383337972 ] ] } },
{ "type": "Feature", "properties": { "average_dip": "(7.0,,)", "average_rake": null, "catalog_id": "SA_409", "catalog_name": "SARA", "dip_dir": "W", "lower_seis_depth": "(nan,,)", "name": "Rio Seco", "net_slip_rate": "(10.0,,)", "slip_type": "Reverse", "upper_seis_depth": "(nan,,)", "downthrown_side_id": "E", "reference": null, "epistemic_quality": null, "accuracy": null, "activity_confidence": null, "fs_name": null, "last_movement": null, "downthrown_side_dir": null, "vert_sep_rate": null, "strike_slip_rate": null, "exposure_quality": null, "shortening_rate": null, "notes": null, "index_right": 3, "NAME_EN": "Bolivia" }, "geometry": { "type": "LineString", "coordinates": [ [ -63.89591998051155, -17.530635153981045 ], [ -63.873028414213287, -17.551445668797655 ], [ -63.829326333098408, -17.577111970404804 ], [ -63.798804244700712, -17.599309852875855 ], [ -63.767588472475801, -17.615958264729141 ], [ -63.73515875355325, -17.643011933990731 ], [ -63.721285077008851, -17.660007187757628 ], [ -63.713827975866231, -17.663649027850536 ], [ -63.707758242378056, -17.669545340381909 ], [ -63.697873247840164, -17.676135336740501 ], [ -63.67133984144899, -17.68532664745117 ], [ -63.637349333915196, -17.704056110786119 ], [ -63.626250392679665, -17.70717768800861 ], [ -63.610469085610404, -17.717929787330522 ], [ -63.544915963938088, -17.754868451130005 ], [ -63.52653334251675, -17.7683952857608 ], [ -63.485779417667558, -17.804293423819448 ], [ -63.471558899209541, -17.831520514037848 ], [ -63.469131005814269, -17.839064325658867 ], [ -63.451875620612171, -17.865944573963652 ], [ -63.442510888944696, -17.886581667823457 ], [ -63.439215890765396, -17.903056658719937 ], [ -63.440950100333453, -17.926295066931818 ], [ -63.431411947709172, -17.952134789495773 ], [ -63.416324324467126, -17.978494774930144 ], [ -63.406612750886055, -18.003120550796464 ], [ -63.402450647922734, -18.037457900243869 ], [ -63.38927065520555, -18.060002624628527 ], [ -63.369153824216163, -18.087056293890118 ], [ -63.355280147671756, -18.112028911670048 ], [ -63.354933305758145, -18.122087327164742 ], [ -63.349036993226775, -18.131798900745828 ], [ -63.331694897546264, -18.152262573648827 ], [ -63.323370691619623, -18.189374658405111 ], [ -63.317127537174642, -18.204288860690347 ], [ -63.315046485692982, -18.214694118098649 ], [ -63.303600702543847, -18.24105410353302 ], [ -63.292848603221927, -18.260477250695189 ], [ -63.289380184085829, -18.280940923598187 ], [ -63.292501761308323, -18.299323545019526 ], [ -63.287299132604154, -18.309035118600605 ], [ -63.273425456059748, -18.370772979223212 ], [ -63.273425456059748, -18.394705071262312 ], [ -63.268916511182816, -18.446384516390221 ], [ -63.261285989083397, -18.476212920960695 ], [ -63.255042834638409, -18.51956816016196 ], [ -63.253655466983972, -18.536563413928857 ], [ -63.255216255595222, -18.561189189795176 ], [ -63.251574415502311, -18.603503903255614 ], [ -63.253135204113562, -18.616857316929604 ], [ -63.256430202292854, -18.626048627640273 ], [ -63.260245463342571, -18.628129679121933 ] ] } },
{ "type": "Feature", "properties": { "average_dip": "(7.0,,)", "average_rake": null, "catalog_id": "SA_410", "catalog_name": "SARA", "dip_dir": "W", "lower_seis_depth": "(nan,,)", "name": "Mandeyapecua", "net_slip_rate": "(7.0,,)", "slip_type": "Reverse", "upper_seis_depth": "(nan,,)", "downthrown_side_id": "E", "reference": null, "epistemic_quality": null, "accuracy": null, "activity_confidence": null, "fs_name": null, "last_movement": null, "downthrown_side_dir": null, "vert_sep_rate": null, "strike_slip_rate": null, "exposure_quality": null, "shortening_rate": null, "notes": null, "index_right": 3, "NAME_EN": "Bolivia" }, "geometry": { "type": "LineString", "coordinates": [ [ -63.264684580868746, -18.906641825008052 ], [ -63.258113477669298, -18.941497241979032 ], [ -63.239828668766492, -18.99235186673997 ], [ -63.235257466540787, -19.028350084267377 ], [ -63.234971766401678, -19.051777495674099 ], [ -63.230686264315082, -19.067776703464059 ], [ -63.225829361950275, -19.103774920991462 ], [ -63.212401455412277, -19.143772940466359 ], [ -63.208973053743001, -19.165771851177549 ], [ -63.204687551656406, -19.180056858132868 ], [ -63.18754554331003, -19.294622613914541 ], [ -63.186402742753607, -19.346620039231905 ], [ -63.162975331346878, -19.49918391351472 ], [ -63.154404327173687, -19.520325723808593 ], [ -63.145261922722284, -19.555752541057785 ], [ -63.131548316045176, -19.572894549404168 ], [ -63.120120310480914, -19.593322109350275 ], [ -63.118691809785382, -19.600464612827935 ], [ -63.116406208672537, -19.654461939119042 ], [ -63.109120855125319, -19.670889697117662 ], [ -63.106121003664711, -19.712601917427197 ], [ -63.101835501578115, -19.730315326051791 ], [ -63.102121201717225, -19.746314533841748 ], [ -63.098692800047949, -19.795454957768047 ], [ -63.083836392814419, -19.845738182250773 ], [ -63.082122191979778, -19.856594787536817 ], [ -63.083264992536201, -19.864308691292688 ], [ -63.074122588084833, -19.932019624260903 ], [ -63.084407793092666, -19.959446837615115 ], [ -63.085550593649096, -20.000587657646438 ], [ -63.056980579738429, -20.056299184772179 ], [ -63.052980777790943, -20.068298590614646 ], [ -63.046981074869706, -20.095154403690646 ], [ -63.047838175287026, -20.117439014540945 ], [ -63.04412407347867, -20.13000982066163 ], [ -63.044695473756882, -20.143437727199629 ], [ -63.038124370557441, -20.156865633737631 ], [ -63.036981570001011, -20.167436538884566 ], [ -63.038981470974754, -20.176007543057757 ], [ -63.044695473756882, -20.187721248761122 ], [ -63.058409080433989, -20.20114915529912 ], [ -63.06040898140774, -20.211434360306949 ], [ -63.056123479321144, -20.222862365871205 ], [ -63.054980678764714, -20.23114766990529 ], [ -63.057266279877567, -20.238004473243844 ], [ -63.054123578347394, -20.248861078529888 ], [ -63.054409278486503, -20.270002888823761 ], [ -63.051837977234541, -20.279716693553379 ], [ -63.05212367737365, -20.290573298839423 ], [ -63.044981173895991, -20.300287103569037 ], [ -63.023982213671687, -20.314000710246152 ], [ -63.022839413115257, -20.317857662124087 ], [ -63.023839363602129, -20.320714663515151 ], [ -63.021553762489283, -20.330428468244769 ], [ -63.023553663463026, -20.337285271583323 ], [ -63.031124717149346, -20.338856622348406 ], [ -63.038695770835666, -20.344856325269642 ], [ -63.043552673200473, -20.355141530277471 ], [ -63.04112422201807, -20.364426784798429 ], [ -63.034553118818621, -20.372854938902066 ], [ -63.03398171854041, -20.378568941684193 ], [ -63.024553613949898, -20.386711395648728 ], [ -63.012125657898771, -20.389996947248452 ], [ -63.008697256229496, -20.396425200378346 ], [ -63.009411506577258, -20.411853007890091 ], [ -63.008125855951278, -20.415709959768026 ], [ -63.01469695915074, -20.445994174513309 ], [ -63.009982906855484, -20.463279032929247 ], [ -63.009268656507722, -20.473564237937076 ], [ -63.003268953586485, -20.482706642388482 ], [ -63.002269003099613, -20.493420397604972 ], [ -62.995412199761063, -20.504277002891012 ], [ -62.996126450108825, -20.515133608177056 ], [ -62.994126549135082, -20.537418219027355 ], [ -62.997126400595697, -20.554131677165078 ], [ -63.00069765233453, -20.558845729460334 ], [ -63.002411853169171, -20.578701889128229 ], [ -63.001697602821402, -20.596843847961484 ], [ -63.003268953586485, -20.606129102482441 ], [ -63.00755445567308, -20.607414753108422 ], [ -63.009411506577273, -20.616271457420719 ], [ -63.007125905464427, -20.632127815141128 ], [ -63.007983005881748, -20.63627046715817 ], [ -63.011411407551023, -20.64112736952298 ], [ -63.011554257620574, -20.645412871609576 ], [ -63.00941150657728, -20.648127022931085 ], [ -63.00784015581219, -20.660983529190876 ], [ -63.013554158594317, -20.673554335311554 ], [ -63.014696959150747, -20.680839688858768 ], [ -63.012554208107446, -20.692553394562129 ], [ -63.016125459846279, -20.698124547274706 ], [ -63.015411209498509, -20.709552552838961 ], [ -63.020125261793766, -20.722694759237854 ], [ -63.029696216453829, -20.731265763411045 ], [ -63.03141041728847, -20.736551215984516 ], [ -63.03226751770579, -20.756550225721963 ], [ -63.036267319653291, -20.763264178990962 ], [ -63.038981470974804, -20.792405593179812 ], [ -63.042124172504977, -20.796762520301186 ], [ -63.045052598930816, -20.808619076074098 ], [ -63.045052598930816, -20.822546957855536 ], [ -63.038695770835695, -20.829332336159315 ], [ -63.038838620905253, -20.835403464115323 ], [ -63.041338497122432, -20.839831816271474 ], [ -63.038981470974804, -20.846974319749133 ], [ -63.040624246774662, -20.869758905842868 ], [ -63.042481297678854, -20.876972834355303 ], [ -63.047338200043662, -20.885615263563274 ], [ -63.051980827304142, -20.890043615719421 ], [ -63.053837878208334, -20.897757519475295 ], [ -63.057480554981943, -20.903400097222644 ], [ -63.057766255121045, -20.923613382064431 ], [ -63.061194656790327, -20.933755737002709 ], [ -63.061051806720769, -20.945969417949506 ], [ -63.071408436763377, -20.97168243046908 ], [ -63.072479812285025, -20.984681786798422 ], [ -63.076693889336845, -20.991752865241306 ], [ -63.073051212563243, -20.999252493892847 ], [ -63.071408436763377, -21.008609173448583 ], [ -63.066765809502897, -21.016537352308784 ], [ -63.063051707694534, -21.01839440321298 ], [ -63.065480158876944, -21.024679806273323 ], [ -63.066765809502918, -21.039250513367747 ], [ -63.063480257903194, -21.046250166775856 ], [ -63.064480208390066, -21.059820923383409 ], [ -63.072051262076386, -21.084391135346557 ], [ -63.067622909920239, -21.092390739241537 ], [ -63.069194260685322, -21.104247295014453 ], [ -63.066480109363816, -21.120103652734855 ], [ -63.069051410615771, -21.136674260803026 ] ] } },
{ "type": "Feature", "properties": { "average_dip": "(7.0,,)", "average_rake": null, "catalog_id": "SA_411", "catalog_name": "SARA", "dip_dir": null, "lower_seis_depth": "(nan,,)", "name": null, "net_slip_rate": "(5.0,,)", "slip_type": "Reverse", "upper_seis_depth": "(nan,,)", "downthrown_side_id": null, "reference": null, "epistemic_quality": null, "accuracy": null, "activity_confidence": null, "fs_name": null, "last_movement": null, "downthrown_side_dir": null, "vert_sep_rate": null, "strike_slip_rate": null, "exposure_quality": null, "shortening_rate": null, "notes": null, "index_right": 3, "NAME_EN": "Bolivia" }, "geometry": { "type": "LineString", "coordinates": [ [ -63.39760657058811, -21.560224717028241 ], [ -63.399892171700955, -21.599079935946708 ], [ -63.402677748057251, -21.611650742067383 ], [ -63.406106149726533, -21.615221993806212 ], [ -63.406391849865635, -21.622864472527311 ], [ -63.40982025153491, -21.629864125935416 ], [ -63.418176980603775, -21.634792453335002 ], [ -63.420391156681852, -21.642077806882217 ], [ -63.413391503273743, -21.671076371001515 ], [ -63.417105605082128, -21.680075925383363 ], [ -63.415891379490922, -21.688789779626109 ], [ -63.408248900769827, -21.699574959877378 ], [ -63.408034625665501, -21.707146013563694 ], [ -63.409498838878406, -21.712717166276271 ], [ -63.412712965443355, -21.715931292841219 ], [ -63.413570065860675, -21.736287427752547 ], [ -63.422569620242527, -21.760571939576593 ], [ -63.422355345138193, -21.766785917602157 ], [ -63.418712668364584, -21.777713947922976 ], [ -63.419212643608027, -21.786213527061388 ], [ -63.428712173233315, -21.804569760998977 ], [ -63.430283523998405, -21.817283417189213 ], [ -63.426855122329123, -21.841996479221915 ], [ -63.432711975180808, -21.897279456139003 ], [ -63.437997427754276, -21.905993310381746 ], [ -63.457710737352613, -21.921849668102151 ], [ -63.472567144586151, -21.937991725961655 ], [ -63.475995546255426, -21.947134130413062 ], [ -63.476852646672747, -21.975132744045489 ], [ -63.480566748481131, -21.991131951835445 ], [ -63.493137554601809, -22.024558868110894 ], [ -63.507136861418026, -22.047129179100299 ], [ -63.522850369068877, -22.067128188837746 ], [ -63.549134781866663, -22.082841696488597 ], [ -63.558562886457175, -22.092269801079109 ], [ -63.572562193273392, -22.139124623892563 ], [ -63.584990149324518, -22.164123386064372 ], [ -63.591275552384857, -22.171980139889797 ], [ -63.602560707879562, -22.192121999696798 ], [ -63.608846110939901, -22.198264552687583 ], [ -63.632844922624834, -22.231548618893481 ], [ -63.643915803015204, -22.256547381065278 ], [ -63.664129087856978, -22.289902872305948 ], [ -63.669343115395669, -22.304116454226492 ], [ -63.684485222768302, -22.332686468137151 ], [ -63.693913327358814, -22.356256729613428 ], [ -63.707912634175031, -22.403968652844195 ] ] } },
{ "type": "Feature", "properties": { "average_dip": "(10.0,,)", "average_rake": null, "catalog_id": "SA_412", "catalog_name": "SARA", "dip_dir": "W", "lower_seis_depth": "(nan,,)", "name": null, "net_slip_rate": "(7.0,,)", "slip_type": "Reverse", "upper_seis_depth": "(nan,,)", "downthrown_side_id": "E", "reference": null, "epistemic_quality": null, "accuracy": null, "activity_confidence": null, "fs_name": null, "last_movement": null, "downthrown_side_dir": null, "vert_sep_rate": null, "strike_slip_rate": null, "exposure_quality": null, "shortening_rate": null, "notes": null, "index_right": 3, "NAME_EN": "Bolivia" }, "geometry": { "type": "LineString", "coordinates": [ [ -65.848553243658259, -16.586097912742233 ], [ -65.825661677359989, -16.598584221632198 ], [ -65.811441158901971, -16.604480534163571 ], [ -65.766351710132653, -16.616966843053536 ], [ -65.756986978465179, -16.62320999749852 ], [ -65.750050140192968, -16.629799993857112 ], [ -65.742766460007161, -16.640898935092636 ], [ -65.727765547243536, -16.647055379059214 ], [ -65.722302787104184, -16.65243142872017 ], [ -65.718140684140863, -16.657113794553908 ], [ -65.711550687782264, -16.671160892055116 ], [ -65.700278325589935, -16.686421936253964 ], [ -65.694555434015371, -16.689543513476455 ], [ -65.684150176607062, -16.702896927150444 ], [ -65.649986248116463, -16.728736649714403 ], [ -65.648252038548407, -16.732725331720918 ], [ -65.637846781140112, -16.73931532807951 ], [ -65.621718632157226, -16.745211640610883 ], [ -65.616082451061061, -16.75466308275676 ], [ -65.594925094330847, -16.769317153606789 ], [ -65.587988256058637, -16.785445302589658 ], [ -65.586774309361004, -16.810071078455977 ], [ -65.582265364484073, -16.82012949395067 ], [ -65.559460508664216, -16.847269873690667 ], [ -65.547407752166265, -16.857154868228559 ], [ -65.533187233708247, -16.863137891238331 ], [ -65.52642381639285, -16.870421571424146 ], [ -65.525643422087228, -16.875884331563505 ], [ -65.519747109555851, -16.88568261562299 ], [ -65.51194316649962, -16.891925770067974 ], [ -65.507954484493112, -16.890191560499925 ], [ -65.487057259198096, -16.889931429064717 ], [ -65.458442801325262, -16.896954977815323 ], [ -65.449858463963409, -16.90172405412746 ], [ -65.436071497897387, -16.925742856644959 ], [ -65.422197821352981, -16.945686266677541 ], [ -65.390288365300847, -16.973607040723159 ], [ -65.371732322922711, -16.981410983779387 ], [ -65.361847328384812, -16.983838877174659 ], [ -65.351095229062906, -16.998059395632673 ], [ -65.32646945319658, -17.006730443472929 ], [ -65.285368686433785, -17.038813320481864 ], [ -65.266292381185224, -17.065866989743455 ], [ -65.244788182541399, -17.072456986102047 ], [ -65.231261347910603, -17.081821717769522 ] ] } },
{ "type": "Feature", "properties": { "average_dip": "(10.0,,)", "average_rake": null, "catalog_id": "SA_413", "catalog_name": "SARA", "dip_dir": "W", "lower_seis_depth": "(nan,,)", "name": null, "net_slip_rate": "(6.0,,)", "slip_type": "Reverse", "upper_seis_depth": "(nan,,)", "downthrown_side_id": "E", "reference": null, "epistemic_quality": null, "accuracy": null, "activity_confidence": null, "fs_name": null, "last_movement": null, "downthrown_side_dir": null, "vert_sep_rate": null, "strike_slip_rate": null, "exposure_quality": null, "shortening_rate": null, "notes": null, "index_right": 3, "NAME_EN": "Bolivia" }, "geometry": { "type": "LineString", "coordinates": [ [ -66.224096325619655, -16.122240208527863 ], [ -66.218893696915515, -16.12484152287994 ], [ -66.208315018550394, -16.126055469577576 ], [ -66.199470549753343, -16.129870730627289 ], [ -66.196695814444453, -16.135420201245051 ], [ -66.184903189381714, -16.137848094640322 ], [ -66.180567665461595, -16.140449408992396 ], [ -66.176232141541462, -16.152242034055142 ], [ -66.171376354750919, -16.157271241802487 ], [ -66.165133200305931, -16.192995958904334 ], [ -66.160450834472201, -16.202707532485416 ], [ -66.153340575243192, -16.20999121267123 ], [ -66.141547950180453, -16.214846999461773 ], [ -66.116922174314126, -16.219009102425094 ], [ -66.105476391164999, -16.226813045481322 ], [ -66.089348242182126, -16.229934622703812 ], [ -66.081370878169082, -16.233229620883108 ], [ -66.078422721903408, -16.237911986716846 ], [ -66.056051418475548, -16.25750855483582 ], [ -66.055704576561936, -16.273463282861886 ], [ -66.047033528721684, -16.280226700177284 ], [ -66.038882743751842, -16.281093804961309 ], [ -66.022060910941747, -16.288897748017536 ], [ -65.978792382218884, -16.319593257372041 ], [ -65.969687781986622, -16.328437726169099 ], [ -65.964571863760867, -16.342484823670311 ], [ -65.951305160565283, -16.353150212513821 ], [ -65.949657661475626, -16.357832578347558 ], [ -65.933963064884765, -16.373743951134426 ], [ -65.926419253263731, -16.386663812416405 ], [ -65.925292017044498, -16.393080387818191 ], [ -65.91809504733709, -16.398803279392759 ], [ -65.90968413093205, -16.415278270289239 ], [ -65.908643605191216, -16.431232998315306 ], [ -65.899625715437352, -16.446494042514153 ], [ -65.897544663955685, -16.457592983749677 ] ] } },
{ "type": "Feature", "properties": { "average_dip": "(10.0,,)", "average_rake": null, "catalog_id": "SA_414", "catalog_name": "SARA", "dip_dir": "W", "lower_seis_depth": "(nan,,)", "name": null, "net_slip_rate": "(5.0,,)", "slip_type": "Reverse", "upper_seis_depth": "(nan,,)", "downthrown_side_id": "E", "reference": null, "epistemic_quality": null, "accuracy": null, "activity_confidence": null, "fs_name": null, "last_movement": null, "downthrown_side_dir": null, "vert_sep_rate": null, "strike_slip_rate": null, "exposure_quality": null, "shortening_rate": null, "notes": null, "index_right": 3, "NAME_EN": "Bolivia" }, "geometry": { "type": "LineString", "coordinates": [ [ -66.575447184106679, -15.342539586732277 ], [ -66.570764818272949, -15.353118265097386 ], [ -66.565215347655183, -15.36074878719681 ], [ -66.55238219685161, -15.364910890160132 ], [ -66.53278562873264, -15.361442471024031 ], [ -66.522900634194755, -15.365777994944157 ], [ -66.512668797743245, -15.376356673309266 ], [ -66.502610382248562, -15.392658243248944 ], [ -66.49862170024204, -15.427342434609956 ], [ -66.502783803205361, -15.443123741679218 ], [ -66.503650907989382, -15.462720309798192 ], [ -66.501396435550916, -15.468963464243174 ], [ -66.50191669842134, -15.478501616867453 ], [ -66.497754595458019, -15.496017133504765 ], [ -66.492205124840254, -15.505381865172239 ], [ -66.486655654222488, -15.510757914833196 ], [ -66.477811185425438, -15.515440280666933 ], [ -66.459601984960898, -15.516480806407763 ], [ -66.44867646468218, -15.513879492055688 ], [ -66.431160948044862, -15.519082120759839 ], [ -66.413472010450747, -15.527579747643287 ], [ -66.40653517217855, -15.535383690699517 ], [ -66.402719911128841, -15.543881317582965 ], [ -66.40237306921523, -15.571628670671776 ], [ -66.405668067394515, -15.586369452000207 ], [ -66.405147804524105, -15.594520236970043 ], [ -66.402112937780018, -15.599636155195791 ], [ -66.37991505530897, -15.621227064318022 ], [ -66.372978217036774, -15.63275955794556 ], [ -66.371330717947117, -15.639262843825751 ], [ -66.366561641634988, -15.644812314443513 ], [ -66.333871791277232, -15.654263756589391 ], [ -66.309246015410906, -15.657385333811881 ], [ -66.301962335225099, -15.664322172084084 ], [ -66.295025496952903, -15.671605852269897 ], [ -66.291730498773603, -15.680103479153345 ], [ -66.292077340687214, -15.694150576654556 ], [ -66.270573142043375, -15.707503990328547 ], [ -66.263809724727977, -15.723805560268223 ], [ -66.249242364356363, -15.741060945470316 ], [ -66.245513813785067, -15.743315417908782 ], [ -66.233894609679126, -15.76204488124373 ], [ -66.231293295327049, -15.7678544832967 ], [ -66.228171718104548, -15.784069342757974 ], [ -66.2368427659448, -15.804533015660972 ], [ -66.235021845898359, -15.82014090177343 ], [ -66.236929476423214, -15.830372738224931 ], [ -66.243172630868202, -15.83852352319477 ], [ -66.244039735652223, -15.843552730942116 ], [ -66.241438421300145, -15.859507458968183 ], [ -66.235021845898359, -15.87546218699425 ], [ -66.234501583027949, -15.881531920482427 ], [ -66.230166059107816, -15.893324545545171 ], [ -66.216986066390632, -15.911533746009704 ], [ -66.214905014908965, -15.920898477677179 ], [ -66.205540283241504, -15.933384786567142 ], [ -66.193921079135563, -15.943443202061838 ], [ -66.190972922869875, -15.94968635650682 ], [ -66.183515821727255, -15.955409248081388 ], [ -66.173630827189371, -15.966855031230521 ], [ -66.172070038578113, -15.971363976107453 ], [ -66.176752404411857, -15.987145283176716 ], [ -66.180741086418379, -15.993215016664893 ], [ -66.181955033116012, -16.000672117807511 ], [ -66.18906529234502, -16.010036849474986 ], [ -66.190626080956264, -16.016106582963161 ], [ -66.198083182098884, -16.025471314630636 ], [ -66.213344226297721, -16.05824787546679 ] ] } },
{ "type": "Feature", "properties": { "average_dip": "(10.0,,)", "average_rake": null, "catalog_id": "SA_415", "catalog_name": "SARA", "dip_dir": "W", "lower_seis_depth": "(nan,,)", "name": null, "net_slip_rate": "(4.0,,)", "slip_type": "Reverse", "upper_seis_depth": "(nan,,)", "downthrown_side_id": "E", "reference": null, "epistemic_quality": null, "accuracy": null, "activity_confidence": null, "fs_name": null, "last_movement": null, "downthrown_side_dir": null, "vert_sep_rate": null, "strike_slip_rate": null, "exposure_quality": null, "shortening_rate": null, "notes": null, "index_right": 3, "NAME_EN": "Bolivia" }, "geometry": { "type": "LineString", "coordinates": [ [ -67.219359196723914, -14.925809027529725 ], [ -67.208433676445196, -14.925462185616114 ], [ -67.202363942957021, -14.926849553270555 ], [ -67.19594736755522, -14.933786391542759 ], [ -67.193346053203157, -14.94852717287119 ], [ -67.190571317894268, -14.953556380618537 ], [ -67.185715531103725, -14.956504536884221 ], [ -67.172015275516131, -14.958585588365883 ], [ -67.166812646811977, -14.960840060804349 ], [ -67.161263176194211, -14.967776899076553 ], [ -67.163170806719066, -14.972112422996679 ], [ -67.160222650453377, -14.977661893614441 ], [ -67.154846600792425, -14.984078469016229 ], [ -67.149470551131472, -14.987373467195525 ], [ -67.142707133816074, -14.998992671301464 ], [ -67.127446089617223, -15.00298135330798 ], [ -67.11790793699295, -15.009051086796159 ], [ -67.117214253165727, -15.019629765161268 ], [ -67.106982416714231, -15.039746596150657 ], [ -67.110103993936718, -15.051712642170205 ], [ -67.10767610054144, -15.060557110967265 ], [ -67.102646892794098, -15.064372372016976 ], [ -67.085825059984003, -15.068881316893908 ], [ -67.07958190553903, -15.081714467697482 ], [ -67.074205855878063, -15.088131043099271 ], [ -67.069003227173908, -15.100617351989236 ], [ -67.063800598469768, -15.104606033995752 ], [ -67.049406659054938, -15.121601287762649 ], [ -67.043510346523576, -15.13426101760942 ], [ -67.042990083653152, -15.14761443128341 ], [ -67.039521664517054, -15.161488107827816 ], [ -67.013681941953095, -15.176055468199442 ], [ -67.002236158803967, -15.187327830391771 ], [ -66.98888274512997, -15.194958352491195 ], [ -66.982639590684997, -15.202415453633812 ], [ -66.975702752412786, -15.218370181659878 ], [ -66.966858283615736, -15.225480440888887 ], [ -66.960094866300338, -15.228428597154574 ], [ -66.956626447164226, -15.233631225858725 ], [ -66.957840393861872, -15.239874380303707 ], [ -66.956279605250614, -15.24611753474869 ], [ -66.951944081330495, -15.248892270057571 ], [ -66.940324877224555, -15.24681121857591 ], [ -66.925410674939315, -15.250106216755206 ], [ -66.916913048055875, -15.262245683731562 ], [ -66.913618049876575, -15.262419104688366 ], [ -66.903039371511468, -15.271436994442229 ], [ -66.900438057159391, -15.276119360275967 ], [ -66.886217538701374, -15.285830933857051 ], [ -66.882922540522074, -15.302132503796727 ], [ -66.875638860336267, -15.306468027716855 ], [ -66.867834917280035, -15.315312496513913 ], [ -66.862112025705471, -15.316526443211549 ], [ -66.854481503606053, -15.322943018613335 ], [ -66.849278874901898, -15.333868538892055 ], [ -66.842688878543299, -15.340458535250649 ], [ -66.843035720456911, -15.350343529788537 ], [ -66.840260985148035, -15.361962733894478 ], [ -66.830722832523747, -15.372541412259586 ], [ -66.829335464869317, -15.376183252352494 ], [ -66.826040466690017, -15.377917461920543 ], [ -66.825346782862795, -15.383293511581501 ], [ -66.816849155979355, -15.395259557601053 ], [ -66.81077942249118, -15.410867443713508 ], [ -66.807831266225492, -15.42526138312833 ], [ -66.800894427953295, -15.433412168098167 ], [ -66.799853902212462, -15.436707166277463 ], [ -66.796558904033162, -15.439135059672735 ], [ -66.794304431594696, -15.445204793160912 ] ] } },
{ "type": "Feature", "properties": { "average_dip": "(10.0,,)", "average_rake": null, "catalog_id": "SA_416", "catalog_name": "SARA", "dip_dir": "W", "lower_seis_depth": "(nan,,)", "name": null, "net_slip_rate": "(3.0,,)", "slip_type": "Reverse", "upper_seis_depth": "(nan,,)", "downthrown_side_id": "E", "reference": null, "epistemic_quality": null, "accuracy": null, "activity_confidence": null, "fs_name": null, "last_movement": null, "downthrown_side_dir": null, "vert_sep_rate": null, "strike_slip_rate": null, "exposure_quality": null, "shortening_rate": null, "notes": null, "index_right": 3, "NAME_EN": "Bolivia" }, "geometry": { "type": "LineString", "coordinates": [ [ -67.888027081957858, -14.150948734477822 ], [ -67.869170872776834, -14.158734063268472 ], [ -67.863528295029482, -14.163519540598504 ], [ -67.849171863039388, -14.161876764798642 ], [ -67.840886559005298, -14.162948140320291 ], [ -67.82681582715432, -14.171733419597812 ], [ -67.819244773468, -14.179875873562345 ], [ -67.807316792660302, -14.188875427944197 ], [ -67.801888490017276, -14.20166050916921 ], [ -67.795031686678726, -14.206231711394913 ], [ -67.787603483061957, -14.220516718350233 ], [ -67.782603730627599, -14.221516668837104 ], [ -67.777889678332343, -14.227516371758339 ], [ -67.770604324785126, -14.228516322245211 ], [ -67.765747422420318, -14.232801824331807 ], [ -67.764747471933447, -14.250229532817297 ], [ -67.762890421029255, -14.257086336155851 ], [ -67.749605364560807, -14.273085543945809 ], [ -67.748462564004384, -14.281799398188554 ], [ -67.735891757883707, -14.304084009038853 ], [ -67.723178101693463, -14.310797962307852 ], [ -67.72117820071972, -14.313940663838023 ], [ -67.71432139738117, -14.31651196508998 ], [ -67.710464445503234, -14.32051176703747 ], [ -67.705893243277529, -14.32636861988915 ], [ -67.704036192373337, -14.331796922532172 ], [ -67.70075064077362, -14.334796773992789 ], [ -67.696465138687017, -14.351510232130513 ], [ -67.684608582914095, -14.359081285816826 ], [ -67.67932313034062, -14.365509538946721 ], [ -67.6717520766543, -14.369366490824657 ], [ -67.669895025750108, -14.372509192354826 ], [ -67.665180973454852, -14.374794793467679 ], [ -67.654467218238366, -14.375651893884998 ], [ -67.650753116429982, -14.377937494997848 ], [ -67.629754156205664, -14.410078760647318 ], [ -67.610326546746435, -14.431363421010744 ], [ -67.603184043268769, -14.431649121149849 ], [ -67.58889903631345, -14.426363668576382 ], [ -67.578185281096964, -14.426506518645935 ], [ -67.573185528662606, -14.42450661767219 ], [ -67.558757671637721, -14.424792317811297 ], [ -67.546472565656146, -14.430649170662978 ], [ -67.536687335891827, -14.440077275253495 ], [ -67.529187707240283, -14.44186290112291 ], [ -67.51161714868519, -14.4336490221236 ], [ -67.506760246320383, -14.433363321984492 ], [ -67.495332240756127, -14.438791624627514 ], [ -67.483332834913668, -14.449076829635343 ], [ -67.472476229627617, -14.464504637147089 ], [ -67.452762920029286, -14.470218639929216 ], [ -67.442477715021454, -14.470790040207429 ], [ -67.39933699401638, -14.499074353978962 ], [ -67.395622892207996, -14.505359757039304 ], [ -67.388194688591241, -14.509930959265006 ], [ -67.375052482192345, -14.527072967611389 ], [ -67.374481081914126, -14.554500180965602 ], [ -67.360624625167461, -14.581070293902494 ], [ -67.364910127254063, -14.606783306422068 ], [ -67.349339469672756, -14.619925512820963 ], [ -67.340339915290912, -14.6216397136556 ], [ -67.317912454371054, -14.638210321723772 ], [ -67.313769802354017, -14.645067125062324 ], [ -67.302056096650645, -14.653923829374623 ], [ -67.289628140599518, -14.655638030209261 ], [ -67.278342985104814, -14.659923532295858 ], [ -67.274343183157328, -14.666208935356197 ], [ -67.268200630166547, -14.67035158737324 ], [ -67.258486825436961, -14.668065986260393 ], [ -67.25077292168109, -14.673494288903415 ], [ -67.246201719455385, -14.684065194050351 ], [ -67.24391611834254, -14.69606459989282 ], [ -67.232773812917387, -14.708349705874394 ], [ -67.231916712500066, -14.717206410186693 ], [ -67.225917009578836, -14.721206212134183 ], [ -67.216488904988324, -14.722349012690607 ], [ -67.205632299702273, -14.726348814638097 ], [ -67.202203898033005, -14.740633821593416 ], [ -67.198775496363723, -14.746633524514651 ], [ -67.185633289964827, -14.760347131191757 ], [ -67.175062384817892, -14.763489832721929 ], [ -67.160777377862559, -14.778917640233674 ], [ -67.163062978975404, -14.793774047467206 ] ] } },
{ "type": "Feature", "properties": { "average_dip": "(10.0,,)", "average_rake": null, "catalog_id": "SA_417", "catalog_name": "SARA", "dip_dir": "W", "lower_seis_depth": "(nan,,)", "name": null, "net_slip_rate": "(3.0,,)", "slip_type": "Reverse", "upper_seis_depth": "(nan,,)", "downthrown_side_id": "E", "reference": null, "epistemic_quality": null, "accuracy": null, "activity_confidence": null, "fs_name": null, "last_movement": null, "downthrown_side_dir": null, "vert_sep_rate": null, "strike_slip_rate": null, "exposure_quality": null, "shortening_rate": null, "notes": null, "index_right": 3, "NAME_EN": "Bolivia" }, "geometry": { "type": "LineString", "coordinates": [ [ -68.694477855307895, -13.586132136210542 ], [ -68.686673912251663, -13.583357400901662 ], [ -68.678349706325022, -13.574166090190992 ], [ -68.668291290830339, -13.569483724357257 ], [ -68.660140505860497, -13.569483724357257 ], [ -68.655631560983565, -13.564974779480325 ], [ -68.633260257555705, -13.55561004781285 ], [ -68.625109472585876, -13.558384783121731 ], [ -68.612623163695901, -13.557864520251316 ], [ -68.595974751842618, -13.562373465128248 ], [ -68.576378183723648, -13.581102928463196 ], [ -68.56961476640825, -13.584051084728882 ], [ -68.56163740239522, -13.590987923001085 ], [ -68.548804251591633, -13.594803184050797 ], [ -68.546029516282758, -13.598791866057313 ], [ -68.536838205572096, -13.600872917538974 ], [ -68.525912685293363, -13.607809755811177 ], [ -68.517761900323535, -13.611104753990473 ], [ -68.503714802822316, -13.606248967199933 ], [ -68.49348296637082, -13.60815659772479 ], [ -68.470938241986161, -13.618041592262678 ], [ -68.466949559979639, -13.62428474670766 ], [ -68.4518619367376, -13.639025528036091 ], [ -68.446659308033446, -13.648043417789957 ], [ -68.446312466119835, -13.653419467450913 ], [ -68.434172999143485, -13.65706130754382 ], [ -68.426022214173642, -13.661396831463946 ], [ -68.412495379542847, -13.676657875662793 ], [ -68.409720644233971, -13.693653129429689 ], [ -68.400009070652885, -13.701457072485917 ], [ -68.386135394108479, -13.703191282053968 ], [ -68.381279607317936, -13.733019686624441 ], [ -68.376423820527393, -13.737528631501373 ], [ -68.369660403211995, -13.740823629680669 ], [ -68.357347515278846, -13.760420197799641 ], [ -68.346421995000128, -13.763368354065328 ], [ -68.321622798176989, -13.761634144497277 ], [ -68.30930991024384, -13.763368354065328 ], [ -68.288152553513612, -13.769784929467116 ], [ -68.266474933912988, -13.769438087553503 ], [ -68.258497569899959, -13.780190186875418 ], [ -68.237687055083356, -13.816608587804483 ], [ -68.224507062366172, -13.829094896694448 ], [ -68.212714437303418, -13.8377659445347 ], [ -68.170052881929379, -13.862391720401021 ], [ -68.156872889212181, -13.867594349105174 ], [ -68.142652370754178, -13.880774341822358 ], [ -68.123922907419228, -13.894648018366764 ], [ -68.093053977107928, -13.898116437502866 ], [ -68.063572414451059, -13.906440643429509 ], [ -68.053860840869973, -13.917539584665034 ], [ -68.049698737906652, -13.929332209727779 ], [ -68.043108741548068, -13.938003257568031 ], [ -68.029235065003661, -13.947367989235506 ], [ -67.995938241297083, -13.98101165485569 ], [ -68.005302972964557, -13.995925857140925 ], [ -67.980677197098231, -14.00945269177172 ], [ -67.973393516912424, -14.019857949180025 ], [ -67.977208777962133, -14.049339511836887 ], [ -67.967497204381047, -14.070496868567107 ], [ -67.959866682281628, -14.07986160023458 ], [ -67.922754597525341, -14.103100008446459 ], [ -67.911655656289824, -14.114198949681983 ], [ -67.906799869499281, -14.125297890917508 ] ] } },
{ "type": "Feature", "properties": { "average_dip": "(10.0,,)", "average_rake": null, "catalog_id": "SA_419", "catalog_name": "SARA", "dip_dir": "S", "lower_seis_depth": "(nan,,)", "name": null, "net_slip_rate": "(2.5,,)", "slip_type": "Reverse", "upper_seis_depth": "(nan,,)", "downthrown_side_id": null, "reference": null, "epistemic_quality": null, "accuracy": null, "activity_confidence": null, "fs_name": null, "last_movement": null, "downthrown_side_dir": null, "vert_sep_rate": null, "strike_slip_rate": null, "exposure_quality": null, "shortening_rate": null, "notes": null, "index_right": 3, "NAME_EN": "Bolivia" }, "geometry": { "type": "LineString", "coordinates": [ [ -68.92280251982038, -13.366245100031279 ], [ -68.95778016961907, -13.353510939977866 ], [ -68.980716940434434, -13.337089949841243 ], [ -69.020885809832237, -13.324467480190037 ], [ -69.038413410350586, -13.316395900250541 ], [ -69.071941260380811, -13.291726129557162 ], [ -69.084476500290236, -13.275047019604244 ], [ -69.137450860368858, -13.233842699580862 ], [ -69.163709350006457, -13.222564210070175 ], [ -69.18477151009705, -13.211163560250043 ], [ -69.204180889836152, -13.196327799688163 ], [ -69.233977350174541, -13.181724219796877 ], [ -69.291634409999972, -13.160947959580596 ], [ -69.326345480059842, -13.158324149739656 ], [ -69.352243130216266, -13.162292669970668 ], [ -69.419477979724945, -13.177352369815992 ], [ -69.476257390266312, -13.195567799714127 ], [ -69.521111240091614, -13.205025900424914 ], [ -69.538399409605006, -13.207094869932234 ], [ -69.562656889703646, -13.207612929792845 ], [ -69.621684019901579, -13.203768110409897 ], [ -69.673930310435424, -13.1929724597112 ], [ -69.694946140152183, -13.18321700985706 ] ] } }
]
}
