{
"type": "FeatureCollection",
"name": "faults_puerto_rico",
"crs": { "type": "name", "properties": { "name": "urn:ogc:def:crs:OGC:1.3:CRS84" } },
"features": [
{ "type": "Feature", "properties": { "average_dip": null, "average_rake": null, "catalog_id": "CA_157.0", "catalog_name": "GEM_Central_Am_Carib", "dip_dir": "S", "lower_seis_depth": null, "name": "Cerro Goden Fault", "net_slip_rate": null, "slip_type": "Normal-Dextral", "upper_seis_depth": null, "downthrown_side_id": null, "reference": "Mann et al., 2005", "epistemic_quality": null, "accuracy": null, "activity_confidence": null, "fs_name": null, "last_movement": null, "downthrown_side_dir": null, "vert_sep_rate": null, "strike_slip_rate": null, "exposure_quality": null, "shortening_rate": null, "notes": null, "index_right": 210, "NAME_EN": "Puerto Rico" }, "geometry": { "type": "LineString", "coordinates": [ [ -67.528860944611637, 18.4020756217677 ], [ -67.514784737822566, 18.389931443361451 ], [ -67.497396482377255, 18.378339273064576 ], [ -67.475316158002258, 18.367023106822391 ], [ -67.459307922830391, 18.363987062220826 ], [ -67.420667355174132, 18.373095196025513 ], [ -67.406039140275695, 18.375027224408328 ], [ -67.375954698314757, 18.375027224408328 ], [ -67.362154495580384, 18.37364720413489 ], [ -67.344766240135073, 18.3667471027677 ], [ -67.31937386710382, 18.361779029783328 ], [ -67.299777579221015, 18.360399009509891 ], [ -67.286805388650691, 18.351014871650527 ], [ -67.244852772338191, 18.332798604041152 ], [ -67.234364618260059, 18.330590571603654 ], [ -67.214216322267873, 18.322172447935682 ], [ -67.180543827596011, 18.313892326295054 ], [ -67.147699345088199, 18.297332083013806 ], [ -67.136935186955384, 18.296504070849743 ], [ -67.129483077478824, 18.292640014084117 ], [ -67.102986688228825, 18.28463589649818 ], [ -67.094706566588201, 18.278839811349744 ], [ -67.082010380072575, 18.273871738365369 ], [ -67.023773524533524, 18.237025197064593 ], [ -67.002659214349933, 18.221154963920061 ], [ -66.986926983232735, 18.214944872689593 ], [ -66.977680847400705, 18.207768767267719 ] ] } },
{ "type": "Feature", "properties": { "average_dip": null, "average_rake": null, "catalog_id": "CA_158.0", "catalog_name": "GEM_Central_Am_Carib", "dip_dir": "N", "lower_seis_depth": null, "name": "Great Southern Puerto Rico Fault", "net_slip_rate": null, "slip_type": "Dextral-Normal", "upper_seis_depth": null, "downthrown_side_id": null, "reference": "Mann et al., 2005", "epistemic_quality": null, "accuracy": null, "activity_confidence": null, "fs_name": "Great Southern Puerto Rico Fault Zone", "last_movement": null, "downthrown_side_dir": null, "vert_sep_rate": null, "strike_slip_rate": null, "exposure_quality": null, "shortening_rate": null, "notes": null, "index_right": 210, "NAME_EN": "Puerto Rico" }, "geometry": { "type": "LineString", "coordinates": [ [ -67.099122631463203, 18.283531880279433 ], [ -67.025153544806955, 18.278563807295061 ], [ -66.955462520998367, 18.269317671463028 ], [ -66.909369843865548, 18.253447438318503 ], [ -66.885771497189765, 18.243097286267723 ], [ -66.873213312701481, 18.239371231529439 ], [ -66.839264813974921, 18.221016961892722 ], [ -66.808904367959329, 18.212736840252099 ], [ -66.794414155088234, 18.203076698338027 ], [ -66.764536716168308, 18.189207494589986 ], [ -66.746872456668314, 18.186585456070457 ], [ -66.741214373547209, 18.183687413496237 ], [ -66.670833339601899, 18.137456734336094 ], [ -66.657723147004248, 18.131798651215 ], [ -66.639092873312833, 18.120068478890783 ], [ -66.626741691865561, 18.103370233582186 ], [ -66.619910591512053, 18.099092170734529 ] ] } },
{ "type": "Feature", "properties": { "average_dip": null, "average_rake": null, "catalog_id": "CA_159.0", "catalog_name": "GEM_Central_Am_Carib", "dip_dir": "N", "lower_seis_depth": null, "name": "Cerrillos Fault", "net_slip_rate": null, "slip_type": "Dextral-Normal", "upper_seis_depth": null, "downthrown_side_id": null, "reference": "Mann et al., 2005", "epistemic_quality": null, "accuracy": null, "activity_confidence": null, "fs_name": "Great Southern Puerto Rico Fault Zone", "last_movement": null, "downthrown_side_dir": null, "vert_sep_rate": null, "strike_slip_rate": null, "exposure_quality": null, "shortening_rate": null, "notes": null, "index_right": 210, "NAME_EN": "Puerto Rico" }, "geometry": { "type": "LineString", "coordinates": [ [ -66.610319450611712, 18.121103494095884 ], [ -66.553186611291395, 18.082945933535338 ], [ -66.539317407543351, 18.071008758170109 ], [ -66.514753046676162, 18.054586516916203 ] ] } },
{ "type": "Feature", "properties": { "average_dip": "(80,60,90)", "average_rake": null, "catalog_id": "CA_160.0", "catalog_name": "GEM_Central_Am_Carib", "dip_dir": "N", "lower_seis_depth": null, "name": "South Lajas Fault", "net_slip_rate": null, "slip_type": "Dextral-Normal", "upper_seis_depth": null, "downthrown_side_id": null, "reference": "Prentice and Mann, 2005", "epistemic_quality": "1", "accuracy": null, "activity_confidence": "1", "fs_name": null, "last_movement": "5040", "downthrown_side_dir": null, "vert_sep_rate": null, "strike_slip_rate": null, "exposure_quality": "1", "shortening_rate": null, "notes": null, "index_right": 210, "NAME_EN": "Puerto Rico" }, "geometry": { "type": "LineString", "coordinates": [ [ -67.192895009043397, 18.001455736388895 ], [ -67.183096865101987, 18.003111760717019 ], [ -67.169986672504336, 18.000627724224831 ], [ -67.152977922634236, 18.000006715101783 ], [ -67.125895024768027, 18.007217321030488 ] ] } },
{ "type": "Feature", "properties": { "average_dip": "(90,,)", "average_rake": null, "catalog_id": "CA_218.0", "catalog_name": "GEM_Central_Am_Carib", "dip_dir": null, "lower_seis_depth": null, "name": null, "net_slip_rate": null, "slip_type": "Dextral-Normal", "upper_seis_depth": null, "downthrown_side_id": null, "reference": "Jansma and Mattioli 2005", "epistemic_quality": "2", "accuracy": "80000", "activity_confidence": "2", "fs_name": "Great Northern Puerto Rico Fault Zone", "last_movement": null, "downthrown_side_dir": null, "vert_sep_rate": null, "strike_slip_rate": null, "exposure_quality": "2", "shortening_rate": null, "notes": "Probably inactive", "index_right": 210, "NAME_EN": "Puerto Rico" }, "geometry": { "type": "LineString", "coordinates": [ [ -65.725912450283971, 18.189527410419039 ], [ -65.745475578022123, 18.198354675374063 ], [ -65.787941879697641, 18.210521986528285 ], [ -65.828976733002079, 18.226029343881706 ], [ -65.838042572685609, 18.232232286823074 ], [ -65.884564644745865, 18.24082097704958 ], [ -65.911762163796482, 18.25107969037569 ], [ -65.92607664750733, 18.253942587117859 ], [ -65.990491824206146, 18.282332979811045 ], [ -66.027709481854359, 18.288535922752413 ], [ -66.058724196561158, 18.299510360264058 ], [ -66.097134727851937, 18.306190452662456 ], [ -66.113119234662364, 18.312393395603824 ] ] } },
{ "type": "Feature", "properties": { "average_dip": "(90,,)", "average_rake": null, "catalog_id": "CA_219.0", "catalog_name": "GEM_Central_Am_Carib", "dip_dir": null, "lower_seis_depth": null, "name": null, "net_slip_rate": null, "slip_type": "Dextral-Normal", "upper_seis_depth": null, "downthrown_side_id": null, "reference": "Jansma and Mattioli 2005", "epistemic_quality": "2", "accuracy": "80000", "activity_confidence": "2", "fs_name": "Great Northern Puerto Rico Fault Zone", "last_movement": null, "downthrown_side_dir": null, "vert_sep_rate": null, "strike_slip_rate": null, "exposure_quality": "2", "shortening_rate": null, "notes": "Almost certainly inactive", "index_right": 210, "NAME_EN": "Puerto Rico" }, "geometry": { "type": "LineString", "coordinates": [ [ -65.839712595785173, 18.233902309922673 ], [ -65.854027079496021, 18.243445299063236 ], [ -65.863808643365104, 18.256566909131514 ], [ -65.877168828161899, 18.265394174086538 ], [ -65.8924376107868, 18.278754358883329 ], [ -65.933233889362725, 18.298794636078519 ], [ -65.984288881264746, 18.329809350785354 ] ] } },
{ "type": "Feature", "properties": { "average_dip": "(90,,)", "average_rake": null, "catalog_id": "CA_220.0", "catalog_name": "GEM_Central_Am_Carib", "dip_dir": null, "lower_seis_depth": null, "name": null, "net_slip_rate": null, "slip_type": "Dextral-Normal", "upper_seis_depth": null, "downthrown_side_id": null, "reference": "Jansma and Mattioli 2005", "epistemic_quality": "2", "accuracy": "100000", "activity_confidence": "2", "fs_name": "Great Northern Puerto Rico Fault Zone", "last_movement": null, "downthrown_side_dir": null, "vert_sep_rate": null, "strike_slip_rate": null, "exposure_quality": "2", "shortening_rate": null, "notes": "Almost certainly inactive", "index_right": 210, "NAME_EN": "Puerto Rico" }, "geometry": { "type": "LineString", "coordinates": [ [ -66.303979017473637, 18.32193638474439 ], [ -66.247794668908583, 18.301418958092174 ], [ -66.205209079868766, 18.289848083759232 ], [ -66.148547581846685, 18.267541346643164 ], [ -66.129938753022586, 18.263962725715452 ], [ -66.089381049175174, 18.260145530059226 ], [ -66.043336126571944, 18.265632748815051 ], [ -66.00754991729481, 18.265155599358025 ], [ -65.976058053130942, 18.269211369742766 ], [ -65.961027845234554, 18.26825707082871 ] ] } },
{ "type": "Feature", "properties": { "average_dip": "(90,,)", "average_rake": null, "catalog_id": "CA_221.0", "catalog_name": "GEM_Central_Am_Carib", "dip_dir": null, "lower_seis_depth": null, "name": null, "net_slip_rate": null, "slip_type": "Dextral-Normal", "upper_seis_depth": null, "downthrown_side_id": null, "reference": "Jansma and Mattioli 2005", "epistemic_quality": "2", "accuracy": "80000", "activity_confidence": "2", "fs_name": "Great Northern Puerto Rico Fault Zone", "last_movement": null, "downthrown_side_dir": null, "vert_sep_rate": null, "strike_slip_rate": null, "exposure_quality": "2", "shortening_rate": null, "notes": "Almost certainly inactive", "index_right": 210, "NAME_EN": "Puerto Rico" }, "geometry": { "type": "LineString", "coordinates": [ [ -66.253520462392842, 18.33839804101186 ], [ -66.237058806125361, 18.325276430943582 ], [ -66.202704045219335, 18.308099050490561 ], [ -66.183856641666708, 18.301418958092167 ], [ -66.158567720444211, 18.296170314064856 ], [ -66.119202890239379, 18.284480152367664 ], [ -66.086995301889971, 18.286150175467263 ], [ -66.020194377906009, 18.270642818113842 ], [ -66.01041281403694, 18.26706419718613 ] ] } }
]
}
