{
"type": "FeatureCollection",
"name": "faults_haiti",
"crs": { "type": "name", "properties": { "name": "urn:ogc:def:crs:OGC:1.3:CRS84" } },
"features": [
{ "type": "Feature", "properties": { "average_dip": null, "average_rake": null, "catalog_id": "CA_132.0", "catalog_name": "GEM_Central_Am_Carib", "dip_dir": null, "lower_seis_depth": null, "name": "Enriquillo Fault", "net_slip_rate": null, "slip_type": "Sinistral", "upper_seis_depth": null, "downthrown_side_id": null, "reference": "Calais et al., 2010", "epistemic_quality": null, "accuracy": null, "activity_confidence": "1", "fs_name": null, "last_movement": null, "downthrown_side_dir": null, "vert_sep_rate": null, "strike_slip_rate": "None", "exposure_quality": null, "shortening_rate": "(2,1,3)", "notes": null, "index_right": 112, "NAME_EN": "Haiti" }, "geometry": { "type": "LineString", "coordinates": [ [ -74.411750151401449, 18.335902783232612 ], [ -74.385959241626892, 18.335580396860429 ], [ -74.374353332228353, 18.338320681023976 ], [ -74.286664238994845, 18.343962442537158 ], [ -74.232503328468283, 18.352505681399983 ], [ -74.208807930112911, 18.353311647330436 ], [ -74.179793156616526, 18.356535511052257 ], [ -74.13014565530051, 18.357019090610528 ], [ -74.053296803831614, 18.352465383103461 ], [ -73.982049415579397, 18.339408735030091 ], [ -73.95658089217703, 18.332155041655991 ], [ -73.925309414075372, 18.326029700584542 ] ] } },
{ "type": "Feature", "properties": { "average_dip": null, "average_rake": null, "catalog_id": "CA_133.0", "catalog_name": "GEM_Central_Am_Carib", "dip_dir": null, "lower_seis_depth": null, "name": "Enriquillo Fault", "net_slip_rate": null, "slip_type": "Sinistral", "upper_seis_depth": null, "downthrown_side_id": null, "reference": "Calais et al., 2010", "epistemic_quality": null, "accuracy": null, "activity_confidence": "1", "fs_name": null, "last_movement": null, "downthrown_side_dir": null, "vert_sep_rate": null, "strike_slip_rate": "None", "exposure_quality": null, "shortening_rate": "(1,0,2)", "notes": null, "index_right": 112, "NAME_EN": "Haiti" }, "geometry": { "type": "LineString", "coordinates": [ [ -73.939333221265272, 18.310071575161533 ], [ -73.881948447016882, 18.321999870932267 ], [ -73.866473901152148, 18.323289416420995 ], [ -73.794420546969477, 18.339247541844003 ], [ -73.686421112288514, 18.352223593324325 ], [ -73.628713951667947, 18.364474275467241 ], [ -73.579872416282356, 18.369471264236061 ], [ -73.533609971874242, 18.373178707516153 ], [ -73.403768860477967, 18.370196633573471 ], [ -73.379428689378216, 18.371808565434378 ], [ -73.332682665411824, 18.370841406317833 ], [ -73.30866488068429, 18.374387656411834 ], [ -73.232904083221527, 18.377289133761469 ], [ -73.218074310101159, 18.379545838366745 ], [ -73.150373171942945, 18.379868224738924 ], [ -73.082994420156908, 18.388250270415657 ], [ -73.05228711820655, 18.38752490107824 ], [ -72.988938196072795, 18.400259162779427 ], [ -72.944126490339499, 18.406868083409158 ], [ -72.921398251100669, 18.413315810852797 ] ] } },
{ "type": "Feature", "properties": { "average_dip": null, "average_rake": null, "catalog_id": "CA_134.0", "catalog_name": "GEM_Central_Am_Carib", "dip_dir": null, "lower_seis_depth": null, "name": "Enriquillo Fault", "net_slip_rate": null, "slip_type": "Sinistral", "upper_seis_depth": null, "downthrown_side_id": null, "reference": "Prentice et al., 2010", "epistemic_quality": "1", "accuracy": null, "activity_confidence": "1", "fs_name": null, "last_movement": null, "downthrown_side_dir": null, "vert_sep_rate": null, "strike_slip_rate": "None", "exposure_quality": "1", "shortening_rate": "(1,0,2)", "notes": null, "index_right": 112, "NAME_EN": "Haiti" }, "geometry": { "type": "LineString", "coordinates": [ [ -73.035442430260048, 18.434875399492469 ], [ -73.023514134489318, 18.439066422330836 ], [ -72.999657542947858, 18.442612672424836 ], [ -72.935180268511459, 18.437776876842108 ], [ -72.895526744733075, 18.44454699065793 ], [ -72.881664130729249, 18.44454699065793 ], [ -72.840076288717782, 18.441645513308291 ], [ -72.825246515597414, 18.437776876842108 ], [ -72.80171231042813, 18.42842767204883 ], [ -72.770118445954267, 18.422947103721732 ], [ -72.718214240032978, 18.425526194699188 ], [ -72.672757761555317, 18.439388808703011 ], [ -72.635038556010031, 18.440678354191739 ], [ -72.603444691536197, 18.447126081635378 ], [ -72.53364804195877, 18.471627445921214 ], [ -72.44853803970274, 18.4772692074344 ], [ -72.398568152014533, 18.484361707622401 ], [ -72.385027924382882, 18.484684093994584 ], [ -72.355045991769984, 18.491293014624315 ], [ -72.340216218649616, 18.496128810207043 ], [ -72.300885081243408, 18.502254151278503 ], [ -72.275738944213217, 18.503624293360275 ], [ -72.258813659673663, 18.50765412301255 ], [ -72.225527266745857, 18.510475003769141 ] ] } },
{ "type": "Feature", "properties": { "average_dip": "(30,10,50)", "average_rake": null, "catalog_id": "CA_143.0", "catalog_name": "GEM_Central_Am_Carib", "dip_dir": "S", "lower_seis_depth": null, "name": "Lamentin Thrust", "net_slip_rate": null, "slip_type": "Reverse", "upper_seis_depth": null, "downthrown_side_id": null, "reference": "Saint Fleur et al., 2015 GRL", "epistemic_quality": null, "accuracy": "100000", "activity_confidence": "1", "fs_name": null, "last_movement": null, "downthrown_side_dir": "N", "vert_sep_rate": null, "strike_slip_rate": null, "exposure_quality": null, "shortening_rate": null, "notes": null, "index_right": 112, "NAME_EN": "Haiti" }, "geometry": { "type": "LineString", "coordinates": [ [ -72.613131636009811, 18.656137354107482 ], [ -72.598227417056691, 18.626880924310608 ], [ -72.577251108900441, 18.607008632373109 ], [ -72.556826808853572, 18.60148855127936 ], [ -72.538058533134816, 18.590448389091858 ], [ -72.526466362837937, 18.575544170138734 ], [ -72.506042062791067, 18.56616003227936 ], [ -72.463399436341845, 18.553049839681709 ], [ -72.441733118048873, 18.548633774806706 ], [ -72.384876282783253, 18.532073531525459 ], [ -72.361001932052773, 18.529727497060613 ], [ -72.331883504283255, 18.533315549771551 ], [ -72.312425218427776, 18.533591553826238 ] ] } },
{ "type": "Feature", "properties": { "average_dip": "(20,15,40)", "average_rake": null, "catalog_id": "CA_144.0", "catalog_name": "GEM_Central_Am_Carib", "dip_dir": "S", "lower_seis_depth": null, "name": null, "net_slip_rate": null, "slip_type": "Reverse", "upper_seis_depth": null, "downthrown_side_id": null, "reference": "DEM, Saint Fleur et al., 2015 GRL", "epistemic_quality": null, "accuracy": null, "activity_confidence": null, "fs_name": null, "last_movement": null, "downthrown_side_dir": "N", "vert_sep_rate": null, "strike_slip_rate": null, "exposure_quality": null, "shortening_rate": null, "notes": null, "index_right": 112, "NAME_EN": "Haiti" }, "geometry": { "type": "LineString", "coordinates": [ [ -72.306353129224661, 18.531107517334064 ], [ -72.266884549404338, 18.525587436240315 ], [ -72.253084346669965, 18.521447375420003 ], [ -72.23542008716997, 18.512063237560628 ], [ -72.226863961474663, 18.511787233505942 ], [ -72.20257560466213, 18.50240309564656 ], [ -72.189327410037137, 18.508199180795 ], [ -72.18822339381839, 18.517100311558671 ], [ -72.18394533097073, 18.518204327777422 ], [ -72.174975199193383, 18.525311432185624 ], [ -72.164280042074239, 18.527657466650467 ], [ -72.150065833257827, 18.52627744637703 ], [ -72.137507648769542, 18.520757365283281 ], [ -72.130952552470717, 18.520136356160233 ], [ -72.119222380146496, 18.504680129097732 ], [ -72.113840301080103, 18.505577142275467 ], [ -72.107837212890644, 18.509510200054763 ], [ -72.103490149029312, 18.509855205123124 ] ] } },
{ "type": "Feature", "properties": { "average_dip": "(20,15,40)", "average_rake": null, "catalog_id": "CA_145.0", "catalog_name": "GEM_Central_Am_Carib", "dip_dir": "N", "lower_seis_depth": null, "name": "Matheux Thrust", "net_slip_rate": null, "slip_type": "Reverse", "upper_seis_depth": null, "downthrown_side_id": null, "reference": "Pubellier et al., 2000 Tectonics", "epistemic_quality": "2", "accuracy": "100000", "activity_confidence": null, "fs_name": null, "last_movement": null, "downthrown_side_dir": "S", "vert_sep_rate": null, "strike_slip_rate": null, "exposure_quality": "2", "shortening_rate": null, "notes": null, "index_right": 112, "NAME_EN": "Haiti" }, "geometry": { "type": "LineString", "coordinates": [ [ -72.858085234544916, 19.048822122914139 ], [ -72.829656816912106, 19.017633664734451 ], [ -72.798744362787104, 18.998037376851638 ], [ -72.710423065287102, 18.954704740265704 ], [ -72.671230489521491, 18.931244395617266 ], [ -72.658810307060548, 18.926276322632891 ], [ -72.647494140818367, 18.91854820910164 ], [ -72.625413816443356, 18.898123909054767 ], [ -72.609129577216805, 18.88901577525008 ], [ -72.59174132177148, 18.873007540078206 ], [ -72.568832985232405, 18.855619284632898 ], [ -72.560552863591781, 18.846235146773523 ], [ -72.548408685185535, 18.839059041351646 ], [ -72.529640409466779, 18.835470988640711 ], [ -72.507008076982402, 18.821394781851648 ], [ -72.493759882357409, 18.808146587226648 ], [ -72.486307772880849, 18.798210441257897 ], [ -72.475819618802717, 18.790482327726647 ], [ -72.457879355248025, 18.781926202031336 ], [ -72.454015298482418, 18.770748037816485 ], [ -72.440767103857411, 18.759707875628987 ], [ -72.439111079529283, 18.754463798589924 ], [ -72.420618807865225, 18.743147632347736 ], [ -72.41647874704492, 18.736247530980549 ], [ -72.414822722716792, 18.729899437722736 ], [ -72.408198625404282, 18.721067307972739 ], [ -72.393294406451162, 18.715823230933676 ], [ -72.370662073966784, 18.702023028199299 ], [ -72.319877327904294, 18.680218707878989 ], [ -72.231832034458989, 18.632746010472729 ] ] } },
{ "type": "Feature", "properties": { "average_dip": "(15,10,30)", "average_rake": null, "catalog_id": "CA_146.0", "catalog_name": "GEM_Central_Am_Carib", "dip_dir": "S", "lower_seis_depth": null, "name": "Ganthier Thrust", "net_slip_rate": null, "slip_type": "Reverse", "upper_seis_depth": null, "downthrown_side_id": null, "reference": "Saint Fleur et al., 2015 GRL", "epistemic_quality": "2", "accuracy": "100000", "activity_confidence": "1", "fs_name": null, "last_movement": null, "downthrown_side_dir": "N", "vert_sep_rate": null, "strike_slip_rate": null, "exposure_quality": "2", "shortening_rate": null, "notes": null, "index_right": 112, "NAME_EN": "Haiti" }, "geometry": { "type": "LineString", "coordinates": [ [ -72.122120422720684, 18.553394844750088 ], [ -72.117428353790999, 18.553118840695401 ], [ -72.110804256478502, 18.549806792039149 ], [ -72.099488090236306, 18.539042633906337 ], [ -72.085135879392553, 18.5310385163204 ], [ -72.054499429322249, 18.525794439281338 ], [ -72.048151336064436, 18.526070443336025 ], [ -72.036559165767557, 18.518066325750087 ], [ -72.01641086977537, 18.514478273039153 ] ] } },
{ "type": "Feature", "properties": { "average_dip": "(15,10,30)", "average_rake": null, "catalog_id": "CA_147.0", "catalog_name": "GEM_Central_Am_Carib", "dip_dir": "S", "lower_seis_depth": null, "name": "Balan Thrust", "net_slip_rate": null, "slip_type": "Reverse", "upper_seis_depth": null, "downthrown_side_id": null, "reference": "Saint Fleur et al., 2015", "epistemic_quality": "2", "accuracy": "100000", "activity_confidence": "1", "fs_name": null, "last_movement": null, "downthrown_side_dir": "N", "vert_sep_rate": null, "strike_slip_rate": null, "exposure_quality": "2", "shortening_rate": null, "notes": null, "index_right": 112, "NAME_EN": "Haiti" }, "geometry": { "type": "LineString", "coordinates": [ [ -72.059467502306617, 18.569127075867275 ], [ -72.048979348228499, 18.552566832586024 ], [ -72.029659064400377, 18.543734702836026 ], [ -72.02193095086912, 18.538490625796964 ], [ -72.009786772462874, 18.535178577140712 ], [ -72.006750727861316, 18.532418536593838 ], [ -71.999850626494123, 18.531590524429774 ], [ -71.99350253323631, 18.526898455500088 ] ] } },
{ "type": "Feature", "properties": { "average_dip": "(30,15,50)", "average_rake": null, "catalog_id": "CA_148.0", "catalog_name": "GEM_Central_Am_Carib", "dip_dir": "N", "lower_seis_depth": null, "name": null, "net_slip_rate": null, "slip_type": "Reverse", "upper_seis_depth": null, "downthrown_side_id": null, "reference": "Saint Fleur et al., 2015 GRL", "epistemic_quality": "2", "accuracy": "100000", "activity_confidence": "2", "fs_name": null, "last_movement": null, "downthrown_side_dir": "S", "vert_sep_rate": null, "strike_slip_rate": null, "exposure_quality": "2", "shortening_rate": null, "notes": null, "index_right": 112, "NAME_EN": "Haiti" }, "geometry": { "type": "LineString", "coordinates": [ [ -72.185325351244188, 18.676699656181754 ], [ -72.169179114044979, 18.673939615634879 ], [ -72.148892816025437, 18.666901512240347 ], [ -72.143372734931688, 18.663589463584099 ], [ -72.133298586935595, 18.668695538595816 ], [ -72.104870169302785, 18.672835599416128 ], [ -72.07547573747857, 18.666349504130974 ], [ -72.042217248888718, 18.649375254767694 ] ] } },
{ "type": "Feature", "properties": { "average_dip": "(20,10,50)", "average_rake": null, "catalog_id": "CA_149.0", "catalog_name": "GEM_Central_Am_Carib", "dip_dir": "N", "lower_seis_depth": null, "name": "Boca de Cachon Thrust", "net_slip_rate": null, "slip_type": "Reverse", "upper_seis_depth": null, "downthrown_side_id": null, "reference": "Saint Fleur et al., 2015 GRL", "epistemic_quality": "2", "accuracy": "100000", "activity_confidence": "1", "fs_name": null, "last_movement": null, "downthrown_side_dir": "S", "vert_sep_rate": null, "strike_slip_rate": null, "exposure_quality": "2", "shortening_rate": null, "notes": null, "index_right": 112, "NAME_EN": "Haiti" }, "geometry": { "type": "LineString", "coordinates": [ [ -72.035041143466842, 18.651031279095825 ], [ -72.026485017771535, 18.642199149345828 ], [ -72.012408810982464, 18.622602861463015 ], [ -71.992536519044961, 18.611562699275517 ], [ -71.958864024373099, 18.604662597908327 ], [ -71.937059704052785, 18.604938601963017 ], [ -71.927951570248098, 18.599970528978641 ], [ -71.911115322912153, 18.595554464103639 ], [ -71.90476722965434, 18.59113839922864 ], [ -71.874406783638719, 18.581202253259892 ], [ -71.85729453224809, 18.56905807485364 ], [ -71.825278061904342, 18.552773835627079 ], [ -71.790777555068402, 18.544217709931768 ], [ -71.782359431400437, 18.543113693713007 ], [ -71.774907321923877, 18.544079707904412 ] ] } },
{ "type": "Feature", "properties": { "average_dip": "(20,15,50)", "average_rake": null, "catalog_id": "CA_153.0", "catalog_name": "GEM_Central_Am_Carib", "dip_dir": "S", "lower_seis_depth": null, "name": "Independencia Thrust", "net_slip_rate": null, "slip_type": "Reverse", "upper_seis_depth": null, "downthrown_side_id": null, "reference": "Symithe and Calais, 2016", "epistemic_quality": "1", "accuracy": "100000", "activity_confidence": "1", "fs_name": null, "last_movement": null, "downthrown_side_dir": "N", "vert_sep_rate": null, "strike_slip_rate": null, "exposure_quality": "2", "shortening_rate": "(5,2,9)", "notes": null, "index_right": 112, "NAME_EN": "Haiti" }, "geometry": { "type": "LineString", "coordinates": [ [ -72.015306853556723, 18.493708967923958 ], [ -71.997642594056728, 18.489844911158333 ], [ -71.972250221025476, 18.488188886830208 ], [ -71.955689977744228, 18.488740894939582 ], [ -71.942993791228602, 18.491500935486457 ], [ -71.929745596603595, 18.489292903048955 ], [ -71.914289369541095, 18.498125032798956 ], [ -71.902145191134849, 18.499229049017707 ], [ -71.887792980291096, 18.496469008470832 ], [ -71.866264664025479, 18.476596716533333 ], [ -71.856880526166108, 18.460036473252082 ], [ -71.832592169353603, 18.446236270517709 ], [ -71.825416063931726, 18.435748116439584 ], [ -71.81879196661923, 18.431332051564585 ], [ -71.812719877416114, 18.423051929923961 ], [ -71.793675597642675, 18.410079739353648 ], [ -71.759727098916116, 18.398211565002086 ], [ -71.752550993494239, 18.393795500127087 ], [ -71.74095882319736, 18.391311463634899 ], [ -71.732126693447356, 18.391311463634899 ], [ -71.728262636681734, 18.396279536619275 ], [ -71.709770365017675, 18.396003532564588 ], [ -71.674993854127052, 18.386067386595837 ], [ -71.664229695994237, 18.387999414978651 ], [ -71.650981501369245, 18.395451524455211 ], [ -71.637733306744238, 18.397383552838026 ], [ -71.593020649884863, 18.397935560947399 ], [ -71.574804382275488, 18.395451524455211 ], [ -71.560452171431734, 18.387723410923964 ], [ -71.553828074119238, 18.386343390650524 ], [ -71.531885751771583, 18.376683248736462 ], [ -71.523605630130959, 18.369507143314586 ], [ -71.506355376712989, 18.367023106822398 ], [ -71.500697293591898, 18.364677072357555 ], [ -71.487035092884867, 18.356120946662244 ], [ -71.47985898746299, 18.349634851377086 ], [ -71.473924900287201, 18.339560703380997 ], [ -71.466196786755944, 18.334040622287247 ], [ -71.420104109623139, 18.311408289802873 ], [ -71.387259627115327, 18.284083888388807 ], [ -71.36517930274033, 18.274699750529429 ], [ -71.350827091896576, 18.270835693763807 ], [ -71.331506808068454, 18.268075653216929 ], [ -71.321018653990336, 18.264211596451307 ], [ -71.309978491802838, 18.257587499138808 ], [ -71.293970256630956, 18.252067418045055 ], [ -71.285138126880952, 18.246547336951306 ], [ -71.276858005240328, 18.237715207201305 ], [ -71.237665429474703, 18.227227053123183 ], [ -71.226073259177838, 18.229435085560681 ], [ -71.217793137537214, 18.233851150435683 ], [ -71.200128878037205, 18.237163199091931 ], [ -71.180256586099716, 18.237163199091931 ], [ -71.153208188740336, 18.228883077451307 ], [ -71.130299852201304, 18.217014903099752 ], [ -71.11401561297474, 18.203490704420062 ], [ -71.098835389966922, 18.193830562506001 ], [ -71.063230866912235, 18.160710075943502 ], [ -71.047774639849735, 18.152153950248188 ] ] } }
]
}
