{
"type": "FeatureCollection",
"name": "faults_nicaragua",
"crs": { "type": "name", "properties": { "name": "urn:ogc:def:crs:OGC:1.3:CRS84" } },
"features": [
{ "type": "Feature", "properties": { "average_dip": "(90.0,,)", "average_rake": null, "catalog_id": "CA_99.0", "catalog_name": "GEM_Central_Am_Carib", "dip_dir": null, "lower_seis_depth": null, "name": "Marabios Fault", "net_slip_rate": "(15,10,20)", "slip_type": "Dextral", "upper_seis_depth": null, "downthrown_side_id": null, "reference": "Turner et al., 2007", "epistemic_quality": "1", "accuracy": "100000", "activity_confidence": "1", "fs_name": null, "last_movement": null, "downthrown_side_dir": null, "vert_sep_rate": null, "strike_slip_rate": null, "exposure_quality": "2", "shortening_rate": null, "notes": null, "index_right": 29, "NAME_EN": "Nicaragua" }, "geometry": { "type": "LineString", "coordinates": [ [ -87.047660535540913, 12.746068143486907 ], [ -86.900312363925167, 12.6468537079323 ], [ -86.528503810881418, 12.410605472775039 ] ] } },
{ "type": "Feature", "properties": { "average_dip": "(80,60,90)", "average_rake": null, "catalog_id": "CA_100.0", "catalog_name": "GEM_Central_Am_Carib", "dip_dir": "N", "lower_seis_depth": null, "name": "Cosiguina Fault", "net_slip_rate": "(2., 0., 4.)", "slip_type": "Dextral-Normal", "upper_seis_depth": null, "downthrown_side_id": null, "reference": "DEM, Funk et al., 2009", "epistemic_quality": "2", "accuracy": "100000", "activity_confidence": "1", "fs_name": null, "last_movement": null, "downthrown_side_dir": "N", "vert_sep_rate": null, "strike_slip_rate": null, "exposure_quality": "1", "shortening_rate": null, "notes": null, "index_right": 29, "NAME_EN": "Nicaragua" }, "geometry": { "type": "LineString", "coordinates": [ [ -87.647444337856243, 12.998417236146734 ], [ -87.633691841838782, 12.978279652692581 ], [ -87.616010061244893, 12.961334612956771 ], [ -87.596854798934842, 12.947090956367248 ], [ -87.587522748065837, 12.943161671790827 ] ] } },
{ "type": "Feature", "properties": { "average_dip": "(80,60,90)", "average_rake": "(-45, 0, -90)", "catalog_id": "CA_101.0", "catalog_name": "GEM_Central_Am_Carib", "dip_dir": "W", "lower_seis_depth": null, "name": "Cofradia Fault", "net_slip_rate": "(1., 0.1, 3.)", "slip_type": "Sinistral-Normal", "upper_seis_depth": null, "downthrown_side_id": null, "reference": null, "epistemic_quality": "1", "accuracy": "100000", "activity_confidence": "1", "fs_name": null, "last_movement": null, "downthrown_side_dir": "W", "vert_sep_rate": null, "strike_slip_rate": null, "exposure_quality": "1", "shortening_rate": null, "notes": null, "index_right": 29, "NAME_EN": "Nicaragua" }, "geometry": { "type": "LineString", "coordinates": [ [ -86.080150952436639, 12.406323166537433 ], [ -86.084080237013055, 12.385694422511229 ], [ -86.093903448454114, 12.350330861323448 ], [ -86.100779696462851, 12.295320877253566 ], [ -86.100534116176817, 12.250870845482813 ], [ -86.107901524757608, 12.234908126891106 ], [ -86.118952637628794, 12.126361640467502 ], [ -86.125337725065464, 12.096892006144348 ], [ -86.14228276480128, 12.045074565792808 ] ] } },
{ "type": "Feature", "properties": { "average_dip": "(90,,)", "average_rake": null, "catalog_id": "CA_102.0", "catalog_name": "GEM_Central_Am_Carib", "dip_dir": null, "lower_seis_depth": null, "name": "Ometepe Fault", "net_slip_rate": "(10., 5., 20.)", "slip_type": "Dextral", "upper_seis_depth": null, "downthrown_side_id": null, "reference": null, "epistemic_quality": "1", "accuracy": "100000", "activity_confidence": "1", "fs_name": null, "last_movement": null, "downthrown_side_dir": null, "vert_sep_rate": null, "strike_slip_rate": null, "exposure_quality": "2", "shortening_rate": null, "notes": null, "index_right": 29, "NAME_EN": "Nicaragua" }, "geometry": { "type": "LineString", "coordinates": [ [ -86.158736643965014, 11.984661815430348 ], [ -85.928873496244435, 11.799985440338604 ], [ -85.828676739545728, 11.736134565971778 ], [ -85.630247868436513, 11.544581942871297 ], [ -85.236337089650391, 11.227292213325374 ] ] } },
{ "type": "Feature", "properties": { "average_dip": "(60,40,70)", "average_rake": null, "catalog_id": "CA_246.0", "catalog_name": "GEM_Central_Am_Carib", "dip_dir": "W", "lower_seis_depth": null, "name": "Sebaco Fault", "net_slip_rate": null, "slip_type": "Normal", "upper_seis_depth": null, "downthrown_side_id": null, "reference": "DEM", "epistemic_quality": "2", "accuracy": "35000", "activity_confidence": "2", "fs_name": null, "last_movement": null, "downthrown_side_dir": "W", "vert_sep_rate": null, "strike_slip_rate": null, "exposure_quality": "1", "shortening_rate": null, "notes": "Very clear scarp in topopgraphy data and a hanging-wall basin that looks to be actively subsiding (no erosion despite external drainage, river near fault). Nonetheless, no clear quaternary scarps observed.", "index_right": 29, "NAME_EN": "Nicaragua" }, "geometry": { "type": "LineString", "coordinates": [ [ -86.076573225741541, 12.966758282805857 ], [ -86.076367549938936, 12.955034762057908 ], [ -86.071842682281869, 12.933438802785366 ], [ -86.073796602406532, 12.919555686110163 ], [ -86.072254033887063, 12.906906624250533 ], [ -86.078835659570117, 12.886133368188379 ], [ -86.088296746489519, 12.869576466079431 ] ] } },
{ "type": "Feature", "properties": { "average_dip": "(75,50,90)", "average_rake": null, "catalog_id": "CA_247.0", "catalog_name": "GEM_Central_Am_Carib", "dip_dir": "E", "lower_seis_depth": null, "name": "Aeropuerto Fault", "net_slip_rate": null, "slip_type": "Sinistral-Reverse", "upper_seis_depth": null, "downthrown_side_id": null, "reference": "Cowen et al., 2002", "epistemic_quality": "1", "accuracy": "100000", "activity_confidence": "1", "fs_name": null, "last_movement": null, "downthrown_side_dir": "E", "vert_sep_rate": "(0.6,0.3,0.9)", "strike_slip_rate": "None", "exposure_quality": "2", "shortening_rate": null, "notes": "Most rapid slip probably sinistral. Hard to locate trace on DEM.", "index_right": 29, "NAME_EN": "Nicaragua" }, "geometry": { "type": "LineString", "coordinates": [ [ -86.182993144500188, 12.171166167202157 ], [ -86.18116664074654, 12.15655413717286 ], [ -86.183094616930958, 12.149451067019729 ], [ -86.194865418898999, 12.12783743926806 ], [ -86.205114134405662, 12.103484055885897 ], [ -86.224799785972905, 12.073042326658193 ], [ -86.228655738341757, 12.059647965798003 ], [ -86.226626289726568, 12.047268329245403 ] ] } },
{ "type": "Feature", "properties": { "average_dip": "(80,70,90)", "average_rake": null, "catalog_id": "CA_248.0", "catalog_name": "GEM_Central_Am_Carib", "dip_dir": "E", "lower_seis_depth": null, "name": "Tiscapa Fault", "net_slip_rate": null, "slip_type": "Sinistral-Normal", "upper_seis_depth": null, "downthrown_side_id": null, "reference": "Freundt et al., 2010; Brown et al., 1973", "epistemic_quality": "1", "accuracy": "50000", "activity_confidence": "1", "fs_name": null, "last_movement": "1972", "downthrown_side_dir": "E", "vert_sep_rate": "(4.,,)", "strike_slip_rate": null, "exposure_quality": "2", "shortening_rate": null, "notes": "Source of the 1972 Managua Earthquake. Geology indicates mostly normal slip but '72 event was pure left lateral on a very steep plane.", "index_right": 29, "NAME_EN": "Nicaragua" }, "geometry": { "type": "LineString", "coordinates": [ [ -86.2854802995668, 12.107948842839296 ], [ -86.281624347197948, 12.124184431760737 ], [ -86.278783119136705, 12.129460998160205 ], [ -86.267418206891691, 12.145899531943165 ], [ -86.227235124311122, 12.215509619443852 ], [ -86.219929109296473, 12.225250972796717 ] ] } },
{ "type": "Feature", "properties": { "average_dip": "(80,70,90)", "average_rake": null, "catalog_id": "CA_249.0", "catalog_name": "GEM_Central_Am_Carib", "dip_dir": "E", "lower_seis_depth": null, "name": "Punta Huete Fault", "net_slip_rate": null, "slip_type": "Sinistral-Normal", "upper_seis_depth": null, "downthrown_side_id": null, "reference": "DEM; Brown et al., 1973", "epistemic_quality": "2", "accuracy": "50000", "activity_confidence": "1", "fs_name": null, "last_movement": null, "downthrown_side_dir": "E", "vert_sep_rate": null, "strike_slip_rate": null, "exposure_quality": "2", "shortening_rate": null, "notes": null, "index_right": 29, "NAME_EN": "Nicaragua" }, "geometry": { "type": "LineString", "coordinates": [ [ -86.129821590782427, 12.38172146102711 ], [ -86.139359999273779, 12.344176661646276 ], [ -86.149507242349685, 12.328549907309387 ], [ -86.184616703392294, 12.289584493897927 ], [ -86.203186158221243, 12.26249135488527 ] ] } },
{ "type": "Feature", "properties": { "average_dip": "(90,)", "average_rake": null, "catalog_id": "CA_255.0", "catalog_name": "GEM_Central_Am_Carib", "dip_dir": null, "lower_seis_depth": null, "name": "Haciendas Fault", "net_slip_rate": null, "slip_type": "Dextral", "upper_seis_depth": null, "downthrown_side_id": null, "reference": "Montero et al. 2017", "epistemic_quality": "1", "accuracy": "50000", "activity_confidence": "1", "fs_name": null, "last_movement": null, "downthrown_side_dir": null, "vert_sep_rate": null, "strike_slip_rate": null, "exposure_quality": "1", "shortening_rate": null, "notes": null, "index_right": 29, "NAME_EN": "Nicaragua" }, "geometry": { "type": "LineString", "coordinates": [ [ -85.204633586307423, 10.923589672133966 ], [ -85.211959633482309, 10.926520091003923 ], [ -85.223864460141513, 10.936043952331284 ], [ -85.23979861274691, 10.953992767909771 ], [ -85.249139322894891, 10.977252967690054 ], [ -85.264707173141545, 10.996850143882893 ], [ -85.288883128818682, 11.01479895946138 ], [ -85.292546152406132, 11.022491308995017 ], [ -85.300421653119145, 11.031465716784261 ], [ -85.335769830738002, 11.064707655840335 ], [ -85.348040959755949, 11.073315761270834 ], [ -85.361777298208864, 11.078443994293259 ], [ -85.372400066612471, 11.086502646185636 ], [ -85.38870052157661, 11.102986252329146 ], [ -85.40426837182325, 11.122033974983866 ] ] } }
]
}
