{
"type": "FeatureCollection",
"name": "faults_honduras",
"crs": { "type": "name", "properties": { "name": "urn:ogc:def:crs:OGC:1.3:CRS84" } },
"features": [
{ "type": "Feature", "properties": { "average_dip": "(90,,)", "average_rake": null, "catalog_id": "CA_27.0", "catalog_name": "GEM_Central_Am_Carib", "dip_dir": null, "lower_seis_depth": null, "name": "Los Amates Fault", "net_slip_rate": null, "slip_type": "Sinistral", "upper_seis_depth": null, "downthrown_side_id": null, "reference": "Mueller 1979 PhD thesis", "epistemic_quality": "1", "accuracy": "100000", "activity_confidence": "1", "fs_name": "Motagua Fault Zone", "last_movement": null, "downthrown_side_dir": null, "vert_sep_rate": null, "strike_slip_rate": "None", "exposure_quality": "1", "shortening_rate": null, "notes": null, "index_right": 135, "NAME_EN": "Honduras" }, "geometry": { "type": "LineString", "coordinates": [ [ -89.124052997813308, 15.161834704334415 ], [ -89.068049298983766, 15.189836553749185 ], [ -89.036313869647032, 15.211304638300508 ], [ -88.990577515602908, 15.247707042539707 ], [ -88.964442456149129, 15.259841177286107 ], [ -88.871569655590179, 15.308377716271711 ], [ -88.818366141702114, 15.339646448118202 ], [ -88.748828215655436, 15.375582154867155 ], [ -88.739027568360271, 15.383516012201341 ], [ -88.671823129764832, 15.414318046557581 ], [ -88.586884186540019, 15.449320358326041 ], [ -88.497278268412771, 15.494590014879918 ], [ -88.342101352905914, 15.565061335907084 ], [ -88.298465137567902, 15.593763231557222 ], [ -88.204892290773557, 15.645683327347109 ], [ -88.185290996183213, 15.658750857074001 ], [ -88.168956584024599, 15.661551042015478 ] ] } },
{ "type": "Feature", "properties": { "average_dip": "(50,40,70)", "average_rake": null, "catalog_id": "CA_45.0", "catalog_name": "GEM_Central_Am_Carib", "dip_dir": "W", "lower_seis_depth": null, "name": "Ocotepeque Fault", "net_slip_rate": null, "slip_type": "Normal", "upper_seis_depth": null, "downthrown_side_id": null, "reference": "Guzman-Speziale 2001", "epistemic_quality": "2", "accuracy": "100000", "activity_confidence": null, "fs_name": "Esquipulas Graben", "last_movement": null, "downthrown_side_dir": "W", "vert_sep_rate": null, "strike_slip_rate": null, "exposure_quality": "2", "shortening_rate": "None", "notes": null, "index_right": 135, "NAME_EN": "Honduras" }, "geometry": { "type": "LineString", "coordinates": [ [ -89.290513061540253, 14.633413751882223 ], [ -89.295266736778089, 14.609170008169247 ], [ -89.292889899159178, 14.59823655512222 ], [ -89.28718548887376, 14.588729204646544 ], [ -89.273399830684042, 14.577320384075733 ], [ -89.26579395030349, 14.57446817893303 ], [ -89.25533586478025, 14.567813033600057 ], [ -89.248205351923488, 14.560207153219515 ], [ -89.231567488591054, 14.537389512077892 ], [ -89.227289180877008, 14.522653118840594 ], [ -89.222535505639172, 14.516473341031405 ], [ -89.213028155163485, 14.511719665793567 ], [ -89.19401345421214, 14.50601525550816 ], [ -89.186407573831602, 14.493655699889782 ], [ -89.1835553686889, 14.478443939128701 ], [ -89.1835553686889, 14.467985853605455 ], [ -89.172621915641869, 14.447545050082752 ], [ -89.170720445546735, 14.43993916970221 ], [ -89.172146548118079, 14.423301306369778 ], [ -89.174523385737004, 14.419498366179507 ], [ -89.175474120784571, 14.412843220846534 ], [ -89.171671180594302, 14.385271904467073 ], [ -89.171908864356169, 14.362216579563556 ], [ -89.167392872880228, 14.349143972659501 ], [ -89.167155189118333, 14.330842322993824 ], [ -89.148853539452659, 14.30398405790004 ], [ -89.144337547976704, 14.293050604853011 ], [ -89.146239018071853, 14.28520704071058 ], [ -89.141960710357793, 14.276175057758687 ] ] } },
{ "type": "Feature", "properties": { "average_dip": "(50,40,70)", "average_rake": null, "catalog_id": "CA_46.0", "catalog_name": "GEM_Central_Am_Carib", "dip_dir": "E", "lower_seis_depth": null, "name": "El Corpus Fault", "net_slip_rate": null, "slip_type": "Normal", "upper_seis_depth": null, "downthrown_side_id": null, "reference": null, "epistemic_quality": "2", "accuracy": "100000", "activity_confidence": null, "fs_name": "San Marcos Graben", "last_movement": null, "downthrown_side_dir": "E", "vert_sep_rate": null, "strike_slip_rate": null, "exposure_quality": "2", "shortening_rate": "None", "notes": null, "index_right": 135, "NAME_EN": "Honduras" }, "geometry": { "type": "LineString", "coordinates": [ [ -88.936839623845131, 14.748215008876011 ], [ -88.924004700702966, 14.711136342020874 ], [ -88.923053965655399, 14.696399948783576 ], [ -88.91925102546513, 14.68831870087925 ], [ -88.914497350227279, 14.663124222118709 ], [ -88.91497271775107, 14.632225333072761 ], [ -88.918300290417562, 14.624619452692219 ] ] } },
{ "type": "Feature", "properties": { "average_dip": "(50,40,70)", "average_rake": null, "catalog_id": "CA_47.0", "catalog_name": "GEM_Central_Am_Carib", "dip_dir": "E", "lower_seis_depth": null, "name": "San Marcos Fault", "net_slip_rate": null, "slip_type": "Normal", "upper_seis_depth": null, "downthrown_side_id": null, "reference": null, "epistemic_quality": "2", "accuracy": "100000", "activity_confidence": null, "fs_name": "San Marcos Graben", "last_movement": null, "downthrown_side_dir": "E", "vert_sep_rate": null, "strike_slip_rate": null, "exposure_quality": "2", "shortening_rate": "None", "notes": null, "index_right": 135, "NAME_EN": "Honduras" }, "geometry": { "type": "LineString", "coordinates": [ [ -89.036310278196893, 14.501380422151264 ], [ -89.032982705530415, 14.490922336628021 ], [ -89.03060586791149, 14.474284473295588 ], [ -89.023950722578519, 14.46335102024856 ], [ -89.013968004579056, 14.454794404820451 ], [ -89.00968969686501, 14.44576242186856 ], [ -89.00541138915095, 14.427698455964775 ], [ -89.003034551532025, 14.401077874632881 ], [ -89.008263594293652, 14.389193686538286 ], [ -89.008738961817443, 14.383489276252879 ], [ -89.001608448960681, 14.36352384025396 ], [ -88.997330141246621, 14.358294797492338 ] ] } },
{ "type": "Feature", "properties": { "average_dip": "(50,40,70)", "average_rake": null, "catalog_id": "CA_48.0", "catalog_name": "GEM_Central_Am_Carib", "dip_dir": "W", "lower_seis_depth": null, "name": "Corquin Fault", "net_slip_rate": null, "slip_type": "Normal", "upper_seis_depth": null, "downthrown_side_id": null, "reference": null, "epistemic_quality": "2", "accuracy": "100000", "activity_confidence": null, "fs_name": "San Marcos Graben", "last_movement": null, "downthrown_side_dir": "W", "vert_sep_rate": null, "strike_slip_rate": null, "exposure_quality": "2", "shortening_rate": "None", "notes": null, "index_right": 135, "NAME_EN": "Honduras" }, "geometry": { "type": "LineString", "coordinates": [ [ -88.867079439729835, 14.655874867381003 ], [ -88.86280113201579, 14.6354340638583 ], [ -88.857572089254163, 14.620697670621 ], [ -88.858047456777953, 14.610239585097757 ], [ -88.852818414016326, 14.582192901194512 ], [ -88.854719884111461, 14.568882610528565 ], [ -88.858047456777953, 14.558899892529105 ], [ -88.864227234587133, 14.549392542053429 ] ] } },
{ "type": "Feature", "properties": { "average_dip": "(50,40,70)", "average_rake": null, "catalog_id": "CA_49.0", "catalog_name": "GEM_Central_Am_Carib", "dip_dir": "E", "lower_seis_depth": null, "name": "Cerro Las Minas Fault", "net_slip_rate": null, "slip_type": "Normal", "upper_seis_depth": null, "downthrown_side_id": null, "reference": null, "epistemic_quality": "2", "accuracy": "100000", "activity_confidence": null, "fs_name": "Lempira Graben", "last_movement": null, "downthrown_side_dir": "E", "vert_sep_rate": null, "strike_slip_rate": null, "exposure_quality": "2", "shortening_rate": "None", "notes": null, "index_right": 135, "NAME_EN": "Honduras" }, "geometry": { "type": "LineString", "coordinates": [ [ -88.703553011548209, 14.619271568049649 ], [ -88.69547176364388, 14.615468627859379 ], [ -88.683112208025491, 14.612616422716675 ], [ -88.660294566883877, 14.610239585097757 ], [ -88.648410378789279, 14.604059807288568 ], [ -88.636050823170905, 14.587897311479917 ], [ -88.632723250504412, 14.578865328528025 ], [ -88.628920310314143, 14.564128935290727 ], [ -88.629395677837934, 14.535131516339915 ], [ -88.639853763361174, 14.51706755043613 ], [ -88.643181336027652, 14.507560199960453 ], [ -88.643656703551443, 14.498052849484777 ], [ -88.650787216408204, 14.486168661390183 ], [ -88.653164054027116, 14.471907635676668 ], [ -88.651262583931981, 14.457171242439369 ], [ -88.636526190694681, 14.437205806440449 ] ] } },
{ "type": "Feature", "properties": { "average_dip": "(50,40,70)", "average_rake": null, "catalog_id": "CA_50.0", "catalog_name": "GEM_Central_Am_Carib", "dip_dir": "W", "lower_seis_depth": null, "name": "Gracias Fault", "net_slip_rate": null, "slip_type": "Normal", "upper_seis_depth": null, "downthrown_side_id": null, "reference": null, "epistemic_quality": "2", "accuracy": "100000", "activity_confidence": null, "fs_name": "Lempira Graben", "last_movement": null, "downthrown_side_dir": "W", "vert_sep_rate": null, "strike_slip_rate": null, "exposure_quality": "2", "shortening_rate": "None", "notes": null, "index_right": 135, "NAME_EN": "Honduras" }, "geometry": { "type": "LineString", "coordinates": [ [ -88.604914250363024, 14.728130730996137 ], [ -88.602537412744113, 14.70721455994965 ], [ -88.589702489601947, 14.653022662238294 ], [ -88.582096609221409, 14.627352815953969 ], [ -88.581621241697619, 14.608338115002617 ], [ -88.57401536131708, 14.585995841384777 ], [ -88.572589258745722, 14.564604302814507 ], [ -88.574966096364648, 14.558424525005316 ] ] } },
{ "type": "Feature", "properties": { "average_dip": "(50,40,70)", "average_rake": null, "catalog_id": "CA_51.0", "catalog_name": "GEM_Central_Am_Carib", "dip_dir": "E", "lower_seis_depth": null, "name": "Erandique Fault", "net_slip_rate": null, "slip_type": "Normal", "upper_seis_depth": null, "downthrown_side_id": null, "reference": null, "epistemic_quality": "2", "accuracy": "100000", "activity_confidence": null, "fs_name": "Lempira Graben", "last_movement": null, "downthrown_side_dir": "E", "vert_sep_rate": null, "strike_slip_rate": null, "exposure_quality": "2", "shortening_rate": "None", "notes": null, "index_right": 135, "NAME_EN": "Honduras" }, "geometry": { "type": "LineString", "coordinates": [ [ -88.510791480653751, 14.385390746348007 ], [ -88.508890010558616, 14.371129720634492 ], [ -88.50413633532078, 14.361622370158816 ], [ -88.500333395130511, 14.346410609397733 ], [ -88.481318694179166, 14.309331942542597 ], [ -88.485121634369435, 14.299824592066921 ], [ -88.485121634369435, 14.287465036448541 ], [ -88.481318694179166, 14.274154745782594 ], [ -88.484170899321867, 14.241829754165295 ], [ -88.477515753988882, 14.233273138737186 ], [ -88.470860608655912, 14.217110642928537 ], [ -88.468959138560777, 14.208554027500428 ], [ -88.470860608655912, 14.178130505978265 ], [ -88.467057668465642, 14.164820215312318 ], [ -88.472762078751046, 14.122987873219342 ], [ -88.46800840351321, 14.106825377410694 ], [ -88.470860608655912, 14.09161361664961 ], [ -88.46800840351321, 14.077352590936096 ] ] } },
{ "type": "Feature", "properties": { "average_dip": "(50,40,70)", "average_rake": null, "catalog_id": "CA_52.0", "catalog_name": "GEM_Central_Am_Carib", "dip_dir": "W", "lower_seis_depth": null, "name": "San Juan Fault", "net_slip_rate": null, "slip_type": "Normal", "upper_seis_depth": null, "downthrown_side_id": null, "reference": null, "epistemic_quality": "2", "accuracy": "100000", "activity_confidence": null, "fs_name": "Lempira Graben", "last_movement": null, "downthrown_side_dir": "W", "vert_sep_rate": null, "strike_slip_rate": null, "exposure_quality": "2", "shortening_rate": "None", "notes": null, "index_right": 135, "NAME_EN": "Honduras" }, "geometry": { "type": "LineString", "coordinates": [ [ -88.430929736658072, 14.543212764244231 ], [ -88.429028266562938, 14.48331645624747 ], [ -88.426651428944012, 14.472383003200443 ], [ -88.429503634086714, 14.462875652724767 ], [ -88.4214223861824, 14.449089994535036 ], [ -88.413816505801847, 14.426747720917197 ], [ -88.392900334755367, 14.416289635393953 ], [ -88.38101614666077, 14.405356182346926 ], [ -88.371984163708873, 14.389193686538276 ], [ -88.358673873042932, 14.374457293300978 ], [ -88.347265052472125, 14.364949942825302 ], [ -88.350117257614826, 14.354491857302058 ], [ -88.371033428661306, 14.308381207495028 ], [ -88.371984163708873, 14.298873857019352 ], [ -88.363189864518901, 14.261795190164213 ], [ -88.360099975614304, 14.255615412355024 ], [ -88.354157881567005, 14.233035454975292 ], [ -88.352731778995647, 14.193817634263132 ], [ -88.348215787519692, 14.179318924787726 ], [ -88.351543360186184, 14.169573890550158 ], [ -88.350117257614826, 14.163631796502859 ], [ -88.352018727709975, 14.151272240884481 ] ] } },
{ "type": "Feature", "properties": { "average_dip": "(50,40,70)", "average_rake": null, "catalog_id": "CA_53.0", "catalog_name": "GEM_Central_Am_Carib", "dip_dir": "W", "lower_seis_depth": null, "name": "Santa Barbara Fault", "net_slip_rate": null, "slip_type": "Normal", "upper_seis_depth": null, "downthrown_side_id": null, "reference": null, "epistemic_quality": "2", "accuracy": "100000", "activity_confidence": null, "fs_name": "Santa Barbara Graben", "last_movement": null, "downthrown_side_dir": "W", "vert_sep_rate": null, "strike_slip_rate": null, "exposure_quality": "2", "shortening_rate": "None", "notes": null, "index_right": 135, "NAME_EN": "Honduras" }, "geometry": { "type": "LineString", "coordinates": [ [ -88.188967667052054, 14.98696834769642 ], [ -88.188967667052054, 14.97460879207804 ], [ -88.186115461909353, 14.958446296269392 ], [ -88.181361786671516, 14.949889680841283 ], [ -88.16615002591044, 14.910909543891011 ], [ -88.16615002591044, 14.899500723320198 ], [ -88.141430914673677, 14.847210295703979 ], [ -88.117662538484481, 14.822491184467221 ], [ -88.103401512770972, 14.790166192849922 ], [ -88.096746367438001, 14.758791936280192 ], [ -88.080583871629344, 14.737875765233703 ], [ -88.071076521153671, 14.702698568473702 ], [ -88.070125786106104, 14.692240482950456 ], [ -88.059667700582864, 14.670373576856402 ], [ -88.046357409916922, 14.609526533812074 ], [ -88.045406674869355, 14.596216243146127 ], [ -88.03875152953637, 14.58290595248018 ], [ -88.020687563632592, 14.555334636100719 ], [ -87.996919187443396, 14.531566259911529 ], [ -87.980756691634753, 14.510650088865042 ], [ -87.975052281349349, 14.501142738389365 ], [ -87.97124934115908, 14.489733917818553 ], [ -87.956037580398004, 14.469530798057743 ], [ -87.944153392303406, 14.44932767829693 ], [ -87.934170674303942, 14.443385584249633 ], [ -87.917295127209613, 14.42056794310801 ], [ -87.911590716924209, 14.415338900346388 ], [ -87.897805058734505, 14.40773301996585 ], [ -87.885445503116131, 14.389669054062065 ], [ -87.877364255211802, 14.384440011300443 ], [ -87.873561315021533, 14.378260233491254 ], [ -87.872610579973966, 14.36399920777774 ], [ -87.869758374831264, 14.351164284635576 ], [ -87.861677126926935, 14.343083036731251 ], [ -87.84884220378477, 14.334051053779358 ], [ -87.842187058451799, 14.323592968256115 ], [ -87.831253605404768, 14.311233412637735 ] ] } },
{ "type": "Feature", "properties": { "average_dip": "(50,40,70)", "average_rake": null, "catalog_id": "CA_54.0", "catalog_name": "GEM_Central_Am_Carib", "dip_dir": "E", "lower_seis_depth": null, "name": "Masaguara Fault", "net_slip_rate": null, "slip_type": "Normal", "upper_seis_depth": null, "downthrown_side_id": null, "reference": null, "epistemic_quality": "2", "accuracy": "100000", "activity_confidence": null, "fs_name": "Santa Barbara Graben", "last_movement": null, "downthrown_side_dir": "E", "vert_sep_rate": null, "strike_slip_rate": null, "exposure_quality": "2", "shortening_rate": "None", "notes": null, "index_right": 135, "NAME_EN": "Honduras" }, "geometry": { "type": "LineString", "coordinates": [ [ -88.316128479664243, 14.794682184325875 ], [ -88.287606428237211, 14.767110867946414 ], [ -88.280000547856673, 14.757603517470738 ], [ -88.269542462333433, 14.750948372137763 ], [ -88.249577026334507, 14.726229260901006 ], [ -88.232463795478296, 14.708165294997221 ], [ -88.205843214146398, 14.665382217856678 ], [ -88.164010872053424, 14.618796200525864 ], [ -88.147848376244767, 14.602633704717215 ], [ -88.13263661548369, 14.590274149098835 ], [ -88.120277059865316, 14.549392542053427 ], [ -88.105065299104226, 14.533230046244778 ], [ -88.092705743485851, 14.49234843919937 ], [ -88.078444717772328, 14.465727857867478 ], [ -88.065134427106386, 14.449565362058827 ], [ -88.050873401392877, 14.422944780726933 ], [ -88.026154290156114, 14.403930079775581 ], [ -88.016646939680442, 14.388718319014499 ], [ -88.005238119109634, 14.376358763396121 ], [ -87.996681503681515, 14.360196267587471 ], [ -87.980519007872871, 14.320740763113408 ], [ -87.97814217025396, 14.310282677590164 ] ] } },
{ "type": "Feature", "properties": { "average_dip": "(50,40,70)", "average_rake": null, "catalog_id": "CA_55.0", "catalog_name": "GEM_Central_Am_Carib", "dip_dir": "E", "lower_seis_depth": null, "name": "Marcala Fault", "net_slip_rate": null, "slip_type": "Normal", "upper_seis_depth": null, "downthrown_side_id": null, "reference": null, "epistemic_quality": "2", "accuracy": "100000", "activity_confidence": null, "fs_name": "Santa Barbara Graben", "last_movement": null, "downthrown_side_dir": "E", "vert_sep_rate": null, "strike_slip_rate": null, "exposure_quality": "2", "shortening_rate": "None", "notes": null, "index_right": 135, "NAME_EN": "Honduras" }, "geometry": { "type": "LineString", "coordinates": [ [ -88.043267521012297, 14.313610250256653 ], [ -88.041366050917162, 14.276056215877732 ], [ -88.036612375679312, 14.253713942259893 ], [ -88.03803847825067, 14.245632694355567 ], [ -88.037087743203102, 14.225191890832864 ], [ -88.039464580822028, 14.216635275404755 ], [ -88.037563110726893, 14.204275719786377 ], [ -88.03851384577446, 14.192391531691781 ], [ -88.036612375679312, 14.185736386358808 ], [ -88.036612375679312, 14.177179770930699 ], [ -88.039939948345804, 14.168147787978807 ], [ -88.039464580822028, 14.154362129789076 ] ] } },
{ "type": "Feature", "properties": { "average_dip": "(50,40,70)", "average_rake": null, "catalog_id": "CA_62.0", "catalog_name": "GEM_Central_Am_Carib", "dip_dir": "E", "lower_seis_depth": null, "name": "Choloma Fault", "net_slip_rate": null, "slip_type": "Normal", "upper_seis_depth": null, "downthrown_side_id": null, "reference": "Rogers and Mann, 2007", "epistemic_quality": "1", "accuracy": "100000", "activity_confidence": null, "fs_name": "San Pedro Sula Graben", "last_movement": null, "downthrown_side_dir": "E", "vert_sep_rate": null, "strike_slip_rate": null, "exposure_quality": "2", "shortening_rate": "(1.,0.,2.)", "notes": null, "index_right": 135, "NAME_EN": "Honduras" }, "geometry": { "type": "LineString", "coordinates": [ [ -87.855282329577037, 15.771910544902985 ], [ -87.875098220454376, 15.751573183213084 ], [ -87.892306757268898, 15.742186708586978 ], [ -87.899607348644764, 15.730714350710624 ], [ -87.923073535210037, 15.714027284708655 ], [ -87.934024422273822, 15.701511985207176 ], [ -87.93663177633664, 15.6889966857057 ], [ -87.945496780150179, 15.670223736453485 ], [ -87.946018250962737, 15.663966086702747 ], [ -87.94966854665067, 15.656144024514322 ], [ -87.953840313151161, 15.635806662824423 ], [ -87.953318842338604, 15.628506071448561 ], [ -87.951232959088358, 15.623812834135508 ] ] } },
{ "type": "Feature", "properties": { "average_dip": "(50,40,70)", "average_rake": null, "catalog_id": "CA_63.0", "catalog_name": "GEM_Central_Am_Carib", "dip_dir": "E", "lower_seis_depth": null, "name": "San Pedro Sula Fault", "net_slip_rate": null, "slip_type": "Normal", "upper_seis_depth": null, "downthrown_side_id": null, "reference": "Rogers and Mann, 2007", "epistemic_quality": "1", "accuracy": "100000", "activity_confidence": null, "fs_name": "San Pedro Sula Graben", "last_movement": null, "downthrown_side_dir": "E", "vert_sep_rate": null, "strike_slip_rate": null, "exposure_quality": "2", "shortening_rate": "(1,0,2)", "notes": null, "index_right": 135, "NAME_EN": "Honduras" }, "geometry": { "type": "LineString", "coordinates": [ [ -87.992950624093297, 15.655101082889196 ], [ -88.012245044158078, 15.633720779574173 ], [ -88.023195931221878, 15.619119596822449 ], [ -88.03049652259773, 15.594610468632057 ], [ -88.038318584786154, 15.584702523193387 ], [ -88.038840055598712, 15.552892803627135 ], [ -88.041447409661529, 15.539856033313095 ], [ -88.050833884287627, 15.529948087874427 ], [ -88.051876825912757, 15.502831605621227 ], [ -88.042490351286645, 15.48040836068108 ], [ -88.022674460409306, 15.448077170302268 ], [ -88.020327841752788, 15.435301135394509 ], [ -88.020849312565346, 15.42878275023749 ], [ -88.016677546064855, 15.414442302892049 ], [ -88.016938281471141, 15.409749065578994 ], [ -88.01172357334552, 15.399841120140325 ], [ -88.007030336032471, 15.397755236890079 ], [ -88.002337098719408, 15.399058913921483 ], [ -87.999469009250319, 15.396973030671237 ], [ -87.985650032717444, 15.365945517323825 ], [ -87.988778857592806, 15.352908747009787 ], [ -87.989300328405378, 15.341175653727152 ], [ -87.997383126000074, 15.32735667719427 ], [ -87.999729744656605, 15.32031682122469 ], [ -87.996340184374972, 15.316145054724199 ], [ -87.997383126000088, 15.308844463348336 ], [ -88.013548721189494, 15.293200338971491 ], [ -88.013548721189494, 15.280685039470013 ], [ -88.011202102532977, 15.275209595938117 ], [ -88.014852398220896, 15.268430475374817 ], [ -88.017720487689985, 15.24574649502839 ], [ -88.025803285284695, 15.237402962027407 ], [ -88.030757258004016, 15.225409133338486 ] ] } },
{ "type": "Feature", "properties": { "average_dip": "(50,40,70)", "average_rake": null, "catalog_id": "CA_64.0", "catalog_name": "GEM_Central_Am_Carib", "dip_dir": "W", "lower_seis_depth": null, "name": "Mezapa Fault", "net_slip_rate": null, "slip_type": "Normal", "upper_seis_depth": null, "downthrown_side_id": null, "reference": "Rogers and Mann, 2007", "epistemic_quality": "1", "accuracy": "100000", "activity_confidence": null, "fs_name": "San Pedro Sula Graben", "last_movement": null, "downthrown_side_dir": "W", "vert_sep_rate": null, "strike_slip_rate": null, "exposure_quality": "2", "shortening_rate": "(0.5, 0., 2)", "notes": null, "index_right": 135, "NAME_EN": "Honduras" }, "geometry": { "type": "LineString", "coordinates": [ [ -87.711356385310026, 15.697861689519243 ], [ -87.703534323121602, 15.688214479486856 ], [ -87.688672404963597, 15.674395502953974 ], [ -87.681371813587745, 15.663705351296464 ], [ -87.680328871962615, 15.659533584795971 ], [ -87.669638720305102, 15.651711522607547 ], [ -87.65947003946016, 15.636328133636983 ], [ -87.654907169850233, 15.615078198025099 ], [ -87.655167905256505, 15.597869661210568 ], [ -87.658035994725594, 15.593176423897514 ], [ -87.656210846881635, 15.572317591395054 ], [ -87.649170990912054, 15.551719494298872 ], [ -87.639002310067099, 15.535814634515745 ] ] } },
{ "type": "Feature", "properties": { "average_dip": "(50,40,70)", "average_rake": null, "catalog_id": "CA_65.0", "catalog_name": "GEM_Central_Am_Carib", "dip_dir": "W", "lower_seis_depth": null, "name": "Pajuiles Fault", "net_slip_rate": null, "slip_type": "Normal", "upper_seis_depth": null, "downthrown_side_id": null, "reference": "Rogers and Mann, 2007", "epistemic_quality": "1", "accuracy": "100000", "activity_confidence": null, "fs_name": "San Pedro Sula Graben", "last_movement": null, "downthrown_side_dir": "W", "vert_sep_rate": null, "strike_slip_rate": null, "exposure_quality": "2", "shortening_rate": "(0.5,0.,1.)", "notes": null, "index_right": 135, "NAME_EN": "Honduras" }, "geometry": { "type": "LineString", "coordinates": [ [ -87.603020824000367, 15.638283649184087 ], [ -87.60145641156268, 15.633068941058472 ], [ -87.603020824000367, 15.610645696118327 ], [ -87.608235532125988, 15.579878918177197 ], [ -87.612407298626479, 15.567363618675719 ], [ -87.620750831627461, 15.557455673237051 ], [ -87.632483924910105, 15.538682723984834 ], [ -87.639784516285957, 15.534250222078061 ], [ -87.655689376069091, 15.519388303920058 ], [ -87.675505266946431, 15.510784035512792 ] ] } },
{ "type": "Feature", "properties": { "average_dip": "(50,40,70)", "average_rake": null, "catalog_id": "CA_66.0", "catalog_name": "GEM_Central_Am_Carib", "dip_dir": "W", "lower_seis_depth": null, "name": "El Progreso Fault", "net_slip_rate": null, "slip_type": "Normal", "upper_seis_depth": null, "downthrown_side_id": null, "reference": "Rogers and Mann, 2007", "epistemic_quality": "1", "accuracy": "100000", "activity_confidence": null, "fs_name": "San Pedro Sula Graben", "last_movement": null, "downthrown_side_dir": "W", "vert_sep_rate": null, "strike_slip_rate": null, "exposure_quality": "2", "shortening_rate": "(1.,0.,2.)", "notes": null, "index_right": 135, "NAME_EN": "Honduras" }, "geometry": { "type": "LineString", "coordinates": [ [ -87.7638945696756, 15.478192109727692 ], [ -87.767544865363533, 15.471412989164392 ], [ -87.775366927551943, 15.440124740410704 ], [ -87.77875648783359, 15.42213399737733 ], [ -87.776670604583344, 15.4117045811261 ], [ -87.77979942945872, 15.405707666781641 ], [ -87.783971195959211, 15.389281336185954 ], [ -87.78866443327226, 15.383284421841495 ], [ -87.788142962459702, 15.374158682621669 ], [ -87.790489581116219, 15.364772207995561 ], [ -87.799876055742331, 15.355124997963172 ], [ -87.799876055742331, 15.349910289837558 ], [ -87.807958853337041, 15.328660354225669 ], [ -87.825688860964135, 15.310930346598576 ], [ -87.829339156652068, 15.303629755222715 ], [ -87.840290043715854, 15.263867605764901 ], [ -87.849155047529408, 15.24665906895037 ], [ -87.848894312123136, 15.220585528322292 ], [ -87.846808428872876, 15.211199053696186 ], [ -87.860366669999465, 15.167656240847297 ], [ -87.860627405405751, 15.162180797315401 ], [ -87.868970938406733, 15.147840349969957 ], [ -87.876010794376313, 15.127502988280058 ], [ -87.879139619251688, 15.109512245246686 ], [ -87.882789914939622, 15.10169018305826 ], [ -87.885918739814983, 15.076398848649024 ], [ -87.896087420659939, 15.044328393676491 ], [ -87.901823599598117, 15.034420448237821 ], [ -87.909384926380255, 15.014604557360482 ], [ -87.912253015849345, 14.995831608108267 ], [ -87.910688603411657, 14.986705868888439 ], [ -87.911731545036787, 14.978883806700017 ], [ -87.917467723974951, 14.965325565573416 ] ] } },
{ "type": "Feature", "properties": { "average_dip": "(50,40,70)", "average_rake": null, "catalog_id": "CA_67.0", "catalog_name": "GEM_Central_Am_Carib", "dip_dir": "W", "lower_seis_depth": null, "name": "El Negrito Fault", "net_slip_rate": null, "slip_type": "Normal", "upper_seis_depth": null, "downthrown_side_id": null, "reference": "Rogers and Mann, 2007", "epistemic_quality": "2", "accuracy": "100000", "activity_confidence": null, "fs_name": "El Negrito Graben", "last_movement": null, "downthrown_side_dir": "W", "vert_sep_rate": null, "strike_slip_rate": null, "exposure_quality": "2", "shortening_rate": "(0.2,0.,0.5)", "notes": null, "index_right": 135, "NAME_EN": "Honduras" }, "geometry": { "type": "LineString", "coordinates": [ [ -87.653994595928239, 15.38432736346661 ], [ -87.648779887802618, 15.365554414214396 ], [ -87.645651062927257, 15.359818235276219 ], [ -87.644086650489569, 15.345738523337056 ], [ -87.652951654303109, 15.324358220022033 ], [ -87.651908712677994, 15.319664982708979 ], [ -87.652951654303109, 15.312885862145679 ], [ -87.656601949991042, 15.309235566457749 ], [ -87.662338128929221, 15.297241737768832 ], [ -87.664424012179467, 15.25239524788854 ], [ -87.669638720305088, 15.236751123511695 ], [ -87.681632548994003, 15.216935232634356 ], [ -87.692583436057788, 15.210677582883617 ], [ -87.71187785612257, 15.196076400131894 ], [ -87.720742859936109, 15.185125513068101 ], [ -87.727000509686846, 15.180432275755049 ] ] } },
{ "type": "Feature", "properties": { "average_dip": "(50,40,70)", "average_rake": null, "catalog_id": "CA_68.0", "catalog_name": "GEM_Central_Am_Carib", "dip_dir": "W", "lower_seis_depth": null, "name": "Portillo de Gonzalez Fault", "net_slip_rate": null, "slip_type": "Normal", "upper_seis_depth": null, "downthrown_side_id": null, "reference": "Rogers and Mann, 2007", "epistemic_quality": "2", "accuracy": "100000", "activity_confidence": null, "fs_name": "Morazon Graben", "last_movement": null, "downthrown_side_dir": "W", "vert_sep_rate": null, "strike_slip_rate": null, "exposure_quality": "2", "shortening_rate": "(0.2,0.,0.5)", "notes": null, "index_right": 135, "NAME_EN": "Honduras" }, "geometry": { "type": "LineString", "coordinates": [ [ -87.51267600572406, 15.354603527150603 ], [ -87.523626892787846, 15.33322322383558 ], [ -87.53144895497627, 15.322793807584349 ], [ -87.547093079353118, 15.311842920520556 ], [ -87.558565437229475, 15.308192624832625 ], [ -87.565866028605342, 15.301413504269325 ], [ -87.576816915669127, 15.27951173014174 ], [ -87.587767802732927, 15.270125255515634 ], [ -87.591939569233418, 15.261781722514648 ], [ -87.607062222797694, 15.253438189513664 ], [ -87.627921055300163, 15.228407590510709 ], [ -87.628963996925279, 15.220064057509726 ], [ -87.639393413176521, 15.192947575256525 ], [ -87.64304370886444, 15.176260509254556 ] ] } },
{ "type": "Feature", "properties": { "average_dip": "(60,40,70)", "average_rake": null, "catalog_id": "CA_69.0", "catalog_name": "GEM_Central_Am_Carib", "dip_dir": "W", "lower_seis_depth": null, "name": "Yojoa Fault", "net_slip_rate": null, "slip_type": "Normal", "upper_seis_depth": null, "downthrown_side_id": null, "reference": "Rogers and Mann, 2007", "epistemic_quality": "2", "accuracy": "100000", "activity_confidence": null, "fs_name": "San Pedro Sula Graben", "last_movement": null, "downthrown_side_dir": "W", "vert_sep_rate": null, "strike_slip_rate": null, "exposure_quality": "2", "shortening_rate": "(0.1.,0.,0.5)", "notes": null, "index_right": 135, "NAME_EN": "Honduras" }, "geometry": { "type": "LineString", "coordinates": [ [ -88.029062477863121, 14.881629500157285 ], [ -88.036623804645259, 14.871721554718615 ], [ -88.056961166335157, 14.831829037557657 ], [ -88.064261757711023, 14.820617415087584 ], [ -88.079645146681585, 14.805494761523299 ] ] } },
{ "type": "Feature", "properties": { "average_dip": "(50,40,70)", "average_rake": null, "catalog_id": "CA_79.0", "catalog_name": "GEM_Central_Am_Carib", "dip_dir": "E", "lower_seis_depth": null, "name": "La Paz Fault", "net_slip_rate": null, "slip_type": "Normal", "upper_seis_depth": null, "downthrown_side_id": null, "reference": "Rogers and Mann, 2007", "epistemic_quality": "2", "accuracy": "100000", "activity_confidence": "1", "fs_name": "Comayagua Graben", "last_movement": null, "downthrown_side_dir": "E", "vert_sep_rate": null, "strike_slip_rate": null, "exposure_quality": "2", "shortening_rate": "None", "notes": null, "index_right": 135, "NAME_EN": "Honduras" }, "geometry": { "type": "LineString", "coordinates": [ [ -87.708517085239521, 14.481031469191061 ], [ -87.708762665525555, 14.463595268883196 ], [ -87.719813778396727, 14.445422327717253 ], [ -87.722269581256995, 14.412268989103708 ], [ -87.725462124975337, 14.394832788795846 ], [ -87.713183110674024, 14.376168687057849 ], [ -87.710727307813755, 14.357259005033828 ], [ -87.711464048671843, 14.353329720457408 ], [ -87.708271504953501, 14.349154855594961 ], [ -87.698939454084496, 14.327789370710677 ], [ -87.707166393666355, 14.28898768551853 ], [ -87.708148714810463, 14.259518051195379 ], [ -87.70348268937596, 14.244783234033802 ], [ -87.703973849948014, 14.229557256300176 ] ] } },
{ "type": "Feature", "properties": { "average_dip": "(50,40,70)", "average_rake": null, "catalog_id": "CA_80.0", "catalog_name": "GEM_Central_Am_Carib", "dip_dir": "W", "lower_seis_depth": null, "name": "Comayagua Fault", "net_slip_rate": null, "slip_type": "Normal", "upper_seis_depth": null, "downthrown_side_id": null, "reference": "Rogers and Mann, 2007", "epistemic_quality": "1", "accuracy": "100000", "activity_confidence": "1", "fs_name": "Comayagua Graben", "last_movement": null, "downthrown_side_dir": "W", "vert_sep_rate": null, "strike_slip_rate": null, "exposure_quality": "2", "shortening_rate": "None", "notes": null, "index_right": 135, "NAME_EN": "Honduras" }, "geometry": { "type": "LineString", "coordinates": [ [ -87.545574565461067, 14.371748241909378 ], [ -87.545574565461067, 14.357504585319855 ], [ -87.548521528893389, 14.343752089302384 ], [ -87.547048047177242, 14.336384680721597 ], [ -87.553678714899945, 14.313300133835128 ], [ -87.556134517760213, 14.295372772955211 ], [ -87.560554962908682, 14.285549561514161 ], [ -87.560800543194702, 14.277199831789268 ], [ -87.559081481192521, 14.271305904924638 ], [ -87.564238667199078, 14.239626048027251 ], [ -87.564238667199078, 14.226119132295807 ], [ -87.570132594063708, 14.208928512273969 ], [ -87.571606075779854, 14.198859720546892 ] ] } },
{ "type": "Feature", "properties": { "average_dip": "(50,40,70)", "average_rake": null, "catalog_id": "CA_81.0", "catalog_name": "GEM_Central_Am_Carib", "dip_dir": "W", "lower_seis_depth": null, "name": "Pie de la Cuesta Fault", "net_slip_rate": null, "slip_type": "Normal", "upper_seis_depth": null, "downthrown_side_id": null, "reference": null, "epistemic_quality": "2", "accuracy": "100000", "activity_confidence": null, "fs_name": "Comayagua Graben", "last_movement": null, "downthrown_side_dir": "W", "vert_sep_rate": null, "strike_slip_rate": null, "exposure_quality": "2", "shortening_rate": "None", "notes": null, "index_right": 135, "NAME_EN": "Honduras" }, "geometry": { "type": "LineString", "coordinates": [ [ -87.638035543149925, 14.160794776212828 ], [ -87.637789962863906, 14.156619911350383 ], [ -87.628949072566954, 14.134272105321994 ], [ -87.628703492280934, 14.127150277027232 ], [ -87.641964827726341, 14.081226763540322 ], [ -87.639017864294033, 14.068456588666956 ], [ -87.64000018543814, 14.061825920944248 ], [ -87.646630853160815, 14.051511548931144 ], [ -87.648227125019986, 14.02977769361782 ], [ -87.634597419145521, 14.011727542594887 ], [ -87.627721171136812, 13.993554601428949 ], [ -87.623300725988344, 13.988151835136371 ], [ -87.622441194987246, 13.978574203981347 ], [ -87.625265368276544, 13.972311906687677 ] ] } },
{ "type": "Feature", "properties": { "average_dip": "(50,40,70)", "average_rake": null, "catalog_id": "CA_82.0", "catalog_name": "GEM_Central_Am_Carib", "dip_dir": "W", "lower_seis_depth": null, "name": "Valle Arriba Fault", "net_slip_rate": null, "slip_type": "Normal", "upper_seis_depth": null, "downthrown_side_id": null, "reference": null, "epistemic_quality": "2", "accuracy": "100000", "activity_confidence": null, "fs_name": null, "last_movement": null, "downthrown_side_dir": "W", "vert_sep_rate": null, "strike_slip_rate": null, "exposure_quality": "2", "shortening_rate": "None", "notes": null, "index_right": 135, "NAME_EN": "Honduras" }, "geometry": { "type": "LineString", "coordinates": [ [ -87.069824156356518, 14.537883305406144 ], [ -87.067859514068303, 14.531252637683435 ], [ -87.060737685773546, 14.52707777282099 ], [ -87.053861437764809, 14.518236882524045 ], [ -87.052879116620701, 14.510869473943256 ], [ -87.038389879745154, 14.491714211633209 ], [ -87.039863361461315, 14.477716135329711 ], [ -87.041336843177476, 14.47526033246945 ], [ -87.039372200889261, 14.471822208465081 ], [ -87.044283806609783, 14.447755340434508 ], [ -87.042810324893637, 14.426144275264198 ], [ -87.03765313888708, 14.403305308663755 ], [ -87.040600102319388, 14.396674640941047 ], [ -87.042810324893637, 14.371379871480343 ], [ -87.040600102319388, 14.360574338895187 ], [ -87.043055905179628, 14.345409756233069 ], [ -87.041582423463481, 14.314466640193761 ] ] } },
{ "type": "Feature", "properties": { "average_dip": "(50,40,70)", "average_rake": null, "catalog_id": "CA_83.0", "catalog_name": "GEM_Central_Am_Carib", "dip_dir": "E", "lower_seis_depth": null, "name": "Salalica Fault", "net_slip_rate": null, "slip_type": "Normal", "upper_seis_depth": null, "downthrown_side_id": null, "reference": "Rogers and Mann, 2007", "epistemic_quality": "2", "accuracy": "100000", "activity_confidence": null, "fs_name": null, "last_movement": null, "downthrown_side_dir": "E", "vert_sep_rate": null, "strike_slip_rate": null, "exposure_quality": "2", "shortening_rate": "None", "notes": null, "index_right": 135, "NAME_EN": "Honduras" }, "geometry": { "type": "LineString", "coordinates": [ [ -87.047906115828496, 14.004974084729165 ], [ -87.052572141262985, 14.000308059294667 ], [ -87.055027944123253, 13.995150873288114 ], [ -87.065342316136352, 13.962243114960597 ], [ -87.077375750151646, 13.948490618943126 ], [ -87.084006417874349, 13.932282320065394 ], [ -87.092356147599247, 13.924423750912553 ], [ -87.096285432175662, 13.917301922617792 ], [ -87.105617483044668, 13.90698755060469 ], [ -87.103652840756453, 13.899128981451849 ], [ -87.104144001328507, 13.892989474301192 ], [ -87.106845384474795, 13.886358806578484 ], [ -87.129438770789179, 13.862537518833935 ], [ -87.145647069666907, 13.851240825676729 ] ] } },
{ "type": "Feature", "properties": { "average_dip": "(50,35,80)", "average_rake": "(-70,0,-90)", "catalog_id": "CA_84.0", "catalog_name": "GEM_Central_Am_Carib", "dip_dir": "N", "lower_seis_depth": null, "name": "La Cieba Fault", "net_slip_rate": "(1., 0.1, 3.)", "slip_type": "Normal-Sinistral", "upper_seis_depth": null, "downthrown_side_id": null, "reference": "Rogers and Mann, 2007", "epistemic_quality": "1", "accuracy": "100000", "activity_confidence": "1", "fs_name": null, "last_movement": null, "downthrown_side_dir": "N", "vert_sep_rate": null, "strike_slip_rate": null, "exposure_quality": "1", "shortening_rate": null, "notes": null, "index_right": 135, "NAME_EN": "Honduras" }, "geometry": { "type": "LineString", "coordinates": [ [ -87.763128001343887, 15.480297653031879 ], [ -87.760794988626628, 15.483981357322273 ], [ -87.745691801036017, 15.491839926475114 ], [ -87.734517898021821, 15.493190618048258 ], [ -87.725554217581873, 15.491225975760049 ], [ -87.700013867835139, 15.500803606915072 ], [ -87.695593422686656, 15.50583800277861 ], [ -87.68994507610806, 15.507311484494767 ], [ -87.674841888517449, 15.508293805638873 ], [ -87.67054423351199, 15.506820323922716 ], [ -87.656054996636399, 15.506329163350658 ], [ -87.65175734163094, 15.504487311205462 ], [ -87.633216030035967, 15.505101261920528 ], [ -87.618235632588366, 15.503504990061357 ], [ -87.60141338299556, 15.507065904208737 ], [ -87.580539058683328, 15.508784966210921 ], [ -87.552911276505384, 15.510135657784065 ], [ -87.548368041213891, 15.508662176067908 ], [ -87.525774654899479, 15.508171015495858 ], [ -87.474939535692045, 15.519713288939093 ], [ -87.443996419652734, 15.523642573515513 ], [ -87.433927627925669, 15.525852796089749 ], [ -87.417964909333989, 15.533711365242588 ], [ -87.411334241611286, 15.535798797673813 ], [ -87.406545426033773, 15.535307637101759 ], [ -87.399423597739002, 15.538377390677088 ], [ -87.379777174856912, 15.555690800841939 ], [ -87.360130751974808, 15.561830307992595 ], [ -87.285965505594845, 15.591054362029714 ], [ -87.260179575562091, 15.591545522601766 ], [ -87.235375966673445, 15.597439449466396 ], [ -87.172261833164697, 15.605543598905264 ], [ -87.153352151140666, 15.612419846913999 ], [ -87.134688049402669, 15.615612390632339 ], [ -87.097605426212709, 15.616103551204393 ], [ -87.09146591906206, 15.617822613206576 ], [ -87.077959003330605, 15.627645824647626 ], [ -87.060277222736715, 15.632066269796098 ], [ -87.03584198427707, 15.642380641809201 ], [ -87.017914623397147, 15.654905236396539 ], [ -86.995566817368754, 15.67455165927864 ], [ -86.980340839635133, 15.681919067859427 ], [ -86.966833923903692, 15.6863395130079 ], [ -86.930979202143874, 15.693952501874715 ], [ -86.884564528084908, 15.694198082160742 ], [ -86.815065307139434, 15.71212544304066 ], [ -86.799348168833745, 15.720966333337605 ], [ -86.775772461375226, 15.730298384206604 ], [ -86.754652556776975, 15.760750339673859 ], [ -86.74482934533593, 15.770573551114909 ], [ -86.711921587008405, 15.77843212026775 ], [ -86.694730966986569, 15.77843212026775 ], [ -86.67852266810884, 15.782852565416222 ], [ -86.64757955206953, 15.785799528848537 ], [ -86.631371253191787, 15.784817207704432 ], [ -86.603866261156853, 15.780396762555959 ], [ -86.590604925711432, 15.780887923128013 ], [ -86.564082254820605, 15.76664426653849 ], [ -86.530192175348972, 15.745033201368178 ], [ -86.511159703181974, 15.739998805504641 ], [ -86.495442564876299, 15.739753225218616 ] ] } },
{ "type": "Feature", "properties": { "average_dip": "(50,35,80)", "average_rake": "(-70,0,-90)", "catalog_id": "CA_85.0", "catalog_name": "GEM_Central_Am_Carib", "dip_dir": "N", "lower_seis_depth": null, "name": "Trujillo Fault", "net_slip_rate": "(0.5, 0., 1.)", "slip_type": "Normal-Sinistral", "upper_seis_depth": null, "downthrown_side_id": null, "reference": "Rogers and Mann, 2007", "epistemic_quality": "2", "accuracy": "100000", "activity_confidence": null, "fs_name": null, "last_movement": null, "downthrown_side_dir": "N", "vert_sep_rate": null, "strike_slip_rate": null, "exposure_quality": "2", "shortening_rate": null, "notes": null, "index_right": 135, "NAME_EN": "Honduras" }, "geometry": { "type": "LineString", "coordinates": [ [ -86.49261839158693, 15.740305780862176 ], [ -86.477392413853295, 15.743498324580518 ], [ -86.445712556955911, 15.744480645724623 ], [ -86.437117246944993, 15.747673189442965 ], [ -86.422628010069445, 15.759706623458252 ], [ -86.408384353479917, 15.761180105174409 ], [ -86.39561417860655, 15.765600550322882 ], [ -86.382352843161101, 15.772967958903671 ], [ -86.371792890861983, 15.776160502622012 ], [ -86.366635704855426, 15.776160502622012 ], [ -86.348217183403463, 15.78622929434909 ], [ -86.331517723953667, 15.792123221213719 ], [ -86.314081523645811, 15.790895319783589 ], [ -86.301311348772444, 15.798999469222455 ], [ -86.292961619047546, 15.802192012940797 ], [ -86.28755885275497, 15.806612458089269 ], [ -86.279945863888159, 15.807594779233373 ], [ -86.272578455307368, 15.811032903237741 ], [ -86.260790601578108, 15.823311917539055 ], [ -86.256861317001693, 15.831416066977921 ], [ -86.241635339268058, 15.852781551862204 ], [ -86.224199138960202, 15.86948101131199 ], [ -86.211674544372869, 15.873901456460461 ], [ -86.202342493503878, 15.880286543897144 ], [ -86.195220665209121, 15.882987927043432 ], [ -86.179994687475485, 15.887408372191905 ], [ -86.166733352030064, 15.88839069333601 ], [ -86.145613447431813, 15.895021361058719 ], [ -86.130633049984212, 15.897722744205009 ], [ -86.071939361623933, 15.893547879342561 ], [ -86.06702775590341, 15.896740423060903 ], [ -86.059169186750566, 15.897231583632955 ], [ -86.010298709831304, 15.896740423060912 ], [ -85.997774115243971, 15.897968324491043 ], [ -85.982548137510335, 15.902879930211569 ], [ -85.979846754364047, 15.905090152785805 ], [ -85.96118265262605, 15.909019437362225 ], [ -85.94939479889679, 15.913439882510698 ], [ -85.920661905431729, 15.93357746596485 ], [ -85.915750299711192, 15.939716973115507 ], [ -85.908874051702455, 15.941681615403716 ] ] } },
{ "type": "Feature", "properties": { "average_dip": "(50,35,80)", "average_rake": "(-70,0,-90)", "catalog_id": "CA_86.0", "catalog_name": "GEM_Central_Am_Carib", "dip_dir": "N", "lower_seis_depth": null, "name": "La Esperanza Fault", "net_slip_rate": "(0.2, 0., 1.)", "slip_type": "Normal-Sinistral", "upper_seis_depth": null, "downthrown_side_id": null, "reference": "Rogers and Mann, 2007", "epistemic_quality": "2", "accuracy": "100000", "activity_confidence": "1", "fs_name": null, "last_movement": null, "downthrown_side_dir": "N", "vert_sep_rate": null, "strike_slip_rate": null, "exposure_quality": "2", "shortening_rate": null, "notes": null, "index_right": 135, "NAME_EN": "Honduras" }, "geometry": { "type": "LineString", "coordinates": [ [ -85.484511317449076, 15.824785399255212 ], [ -85.51594559406044, 15.820856114678792 ], [ -85.534609695798437, 15.824785399255212 ], [ -85.563097008977479, 15.827732362687527 ], [ -85.616142350759148, 15.826750041543423 ], [ -85.646594306226405, 15.812997545525953 ], [ -85.668205371396709, 15.78647487463512 ], [ -85.683185768844311, 15.77345911947573 ], [ -85.699639648008073, 15.763881488320704 ], [ -85.801064306136922, 15.744971806296682 ], [ -85.834217644750467, 15.734411853997543 ], [ -85.861968217071436, 15.72016819740802 ], [ -85.879158837093271, 15.709853825394918 ], [ -85.891683431680619, 15.700030613953867 ], [ -85.940553908599838, 15.679647450213688 ], [ -85.959463590623855, 15.668596337342507 ], [ -85.974689568357491, 15.662702410477875 ], [ -85.979355593791979, 15.654107100466957 ], [ -86.017174957840027, 15.622918404141618 ], [ -86.045171110447015, 15.605236623547729 ], [ -86.055485482460114, 15.596886893822836 ], [ -86.087410919643531, 15.579205113228944 ], [ -86.101654576233059, 15.566926098927633 ], [ -86.111968948246158, 15.561523332635055 ] ] } },
{ "type": "Feature", "properties": { "average_dip": "(45,35,60)", "average_rake": "(-90,0,-90)", "catalog_id": "CA_87.0", "catalog_name": "GEM_Central_Am_Carib", "dip_dir": "N", "lower_seis_depth": null, "name": "Cayo Sierra Fault", "net_slip_rate": "(0.05, 0., 0.5)", "slip_type": "Normal-Sinistral", "upper_seis_depth": null, "downthrown_side_id": null, "reference": null, "epistemic_quality": "2", "accuracy": "100000", "activity_confidence": null, "fs_name": null, "last_movement": null, "downthrown_side_dir": "N", "vert_sep_rate": null, "strike_slip_rate": null, "exposure_quality": "2", "shortening_rate": null, "notes": null, "index_right": 135, "NAME_EN": "Honduras" }, "geometry": { "type": "LineString", "coordinates": [ [ -86.179257946617398, 15.429646719038955 ], [ -86.169189154890319, 15.442662474198347 ], [ -86.162804067453635, 15.454450327927606 ], [ -86.139719520567169, 15.47851719595818 ], [ -86.126949345693802, 15.496690137124123 ], [ -86.118845196254938, 15.512407275429803 ], [ -86.108039663669771, 15.526159771447274 ], [ -86.09870761280078, 15.544578292899242 ], [ -86.089375561931789, 15.557839628344661 ] ] } },
{ "type": "Feature", "properties": { "average_dip": "(80,70,90)", "average_rake": "(-10, -45, 0)", "catalog_id": "CA_88.0", "catalog_name": "GEM_Central_Am_Carib", "dip_dir": "S", "lower_seis_depth": null, "name": "Rio Viejo Fault", "net_slip_rate": "(0.2, 0., 2.)", "slip_type": "Sinistral-Normal", "upper_seis_depth": null, "downthrown_side_id": null, "reference": "Rogers and Mann, 2007", "epistemic_quality": "1", "accuracy": "100000", "activity_confidence": "1", "fs_name": null, "last_movement": null, "downthrown_side_dir": "S", "vert_sep_rate": null, "strike_slip_rate": null, "exposure_quality": "2", "shortening_rate": null, "notes": null, "index_right": 135, "NAME_EN": "Honduras" }, "geometry": { "type": "LineString", "coordinates": [ [ -86.123020061117401, 15.803911074942972 ], [ -86.145613447431813, 15.798508308650394 ], [ -86.152980856012604, 15.792614381785764 ], [ -86.177538884615231, 15.780826528056505 ], [ -86.22469029953227, 15.752339214877459 ], [ -86.283138407606515, 15.739077879432042 ], [ -86.381861682589076, 15.72139609883815 ], [ -86.429504258078168, 15.72139609883815 ], [ -86.457500410685157, 15.726062124272648 ], [ -86.471252906702631, 15.724343062270464 ], [ -86.510054591894772, 15.724343062270464 ], [ -86.546891634798712, 15.719431456549939 ], [ -86.565801316822728, 15.715011011401467 ], [ -86.643650267493044, 15.685786957364337 ], [ -86.690064941552009, 15.666386114768262 ], [ -86.735988455038921, 15.640354604449477 ], [ -86.7713520162267, 15.624637466143797 ], [ -86.802295132266011, 15.613586353272614 ], [ -86.827589901726697, 15.605973364405799 ], [ -86.84576284289264, 15.60253524040143 ], [ -86.90028166639047, 15.5966413135368 ], [ -86.911578359547676, 15.591238547244222 ], [ -86.926313176709257, 15.589765065528065 ] ] } },
{ "type": "Feature", "properties": { "average_dip": "(90,,)", "average_rake": null, "catalog_id": "CA_245.0", "catalog_name": "GEM_Central_Am_Carib", "dip_dir": null, "lower_seis_depth": null, "name": "Flowers Bay Fault", "net_slip_rate": null, "slip_type": "Sinistral", "upper_seis_depth": null, "downthrown_side_id": null, "reference": "Cox et al., 2008", "epistemic_quality": "1", "accuracy": "50000", "activity_confidence": "1", "fs_name": null, "last_movement": null, "downthrown_side_dir": null, "vert_sep_rate": null, "strike_slip_rate": null, "exposure_quality": "2", "shortening_rate": null, "notes": "Cox et al. map southwestern offshore portion as normal, but unclear why", "index_right": 135, "NAME_EN": "Honduras" }, "geometry": { "type": "LineString", "coordinates": [ [ -86.59697359374384, 16.265568177082208 ], [ -86.582894722095332, 16.275151274590858 ], [ -86.556866556022456, 16.298931553593803 ], [ -86.540894726841373, 16.317861128919528 ], [ -86.533559516402647, 16.330047043035467 ], [ -86.513210222927498, 16.343534365455049 ], [ -86.502089097423635, 16.353117462963699 ], [ -86.497475013437978, 16.359387884790344 ] ] } }
]
}
