{
"type": "FeatureCollection",
"name": "faults_greece",
"crs": { "type": "name", "properties": { "name": "urn:ogc:def:crs:OGC:1.3:CRS84" } },
"features": [
{ "type": "Feature", "properties": { "average_dip": "(47.5,40.0,55.0)", "average_rake": "(-75,-90.0,-60.0)", "catalog_id": "ME_BGCS006", "catalog_name": "EMME", "dip_dir": null, "lower_seis_depth": "(15.0,,)", "name": null, "net_slip_rate": "(0.2,0.1,0.4)", "slip_type": "Normal", "upper_seis_depth": "(1.0,,)", "downthrown_side_id": null, "reference": null, "epistemic_quality": "1", "accuracy": null, "activity_confidence": null, "fs_name": null, "last_movement": null, "downthrown_side_dir": null, "vert_sep_rate": null, "strike_slip_rate": null, "exposure_quality": null, "shortening_rate": null, "notes": null, "index_right": 79, "NAME_EN": "Greece" }, "geometry": { "type": "LineString", "coordinates": [ [ 26.176791, 41.711203 ], [ 26.081451, 41.735404 ], [ 26.018933, 41.745777 ], [ 25.970481, 41.748081 ], [ 25.839195, 41.743472 ], [ 25.782929, 41.751539 ], [ 25.725474, 41.76539 ], [ 25.646065, 41.801502 ], [ 25.540579, 41.83992 ], [ 25.437081, 41.869472 ] ] } },
{ "type": "Feature", "properties": { "average_dip": "(55.0,35.0,75.0)", "average_rake": "(-115,-160.0,-70.0)", "catalog_id": "ME_GRCS150", "catalog_name": "EMME", "dip_dir": null, "lower_seis_depth": "(14.0,,)", "name": null, "net_slip_rate": "(0.3,0.2,0.5)", "slip_type": "Dextral-Normal", "upper_seis_depth": "(0.0,,)", "downthrown_side_id": null, "reference": null, "epistemic_quality": "1", "accuracy": null, "activity_confidence": null, "fs_name": null, "last_movement": null, "downthrown_side_dir": null, "vert_sep_rate": null, "strike_slip_rate": null, "exposure_quality": null, "shortening_rate": null, "notes": null, "index_right": 79, "NAME_EN": "Greece" }, "geometry": { "type": "LineString", "coordinates": [ [ 24.479029, 40.94717 ], [ 24.536421, 40.966303 ], [ 24.563718, 40.977452 ], [ 24.600179, 40.988512 ], [ 24.669696, 41.018896 ], [ 24.732261, 41.064727 ], [ 24.762167, 41.089367 ], [ 24.787028, 41.10597 ], [ 24.815387, 41.120258 ], [ 24.848474, 41.133553 ], [ 24.872523, 41.142523 ], [ 24.895239, 41.147025 ], [ 24.930547, 41.149095 ], [ 24.945815, 41.147831 ], [ 24.9724, 41.14184 ], [ 25.000681, 41.139563 ], [ 25.017327, 41.140125 ], [ 25.033268, 41.137556 ], [ 25.055369, 41.131161 ], [ 25.112214, 41.120659 ], [ 25.144873, 41.120867 ], [ 25.158567, 41.121921 ], [ 25.197584, 41.133202 ], [ 25.207721, 41.134328 ], [ 25.234943, 41.131937 ], [ 25.251065, 41.134275 ], [ 25.28464, 41.142506 ], [ 25.305744, 41.150561 ], [ 25.349548, 41.161686 ], [ 25.391658, 41.174632 ], [ 25.42091, 41.177989 ], [ 25.454503, 41.171359 ], [ 25.512679, 41.155323 ], [ 25.644498, 41.125049 ], [ 25.743292, 41.1 ], [ 25.826633, 41.086023 ] ] } },
{ "type": "Feature", "properties": { "average_dip": "(60.0,45.0,75.0)", "average_rake": "(-105,-130.0,-80.0)", "catalog_id": "ME_GRCS160", "catalog_name": "EMME", "dip_dir": null, "lower_seis_depth": "(14.0,,)", "name": null, "net_slip_rate": "(0.6,0.4,0.7)", "slip_type": "Normal", "upper_seis_depth": "(0.0,,)", "downthrown_side_id": null, "reference": null, "epistemic_quality": "1", "accuracy": null, "activity_confidence": null, "fs_name": null, "last_movement": null, "downthrown_side_dir": null, "vert_sep_rate": null, "strike_slip_rate": null, "exposure_quality": null, "shortening_rate": null, "notes": null, "index_right": 79, "NAME_EN": "Greece" }, "geometry": { "type": "LineString", "coordinates": [ [ 26.129644, 40.847688 ], [ 26.075288, 40.845883 ], [ 25.977563, 40.847237 ], [ 25.93882, 40.849945 ], [ 25.872755, 40.851635 ], [ 25.795541, 40.850947 ], [ 25.732671, 40.847154 ], [ 25.703369, 40.847658 ], [ 25.632694, 40.862169 ], [ 25.605403, 40.864925 ], [ 25.593815, 40.864103 ], [ 25.568007, 40.856292 ], [ 25.557473, 40.856292 ], [ 25.499536, 40.875203 ] ] } },
{ "type": "Feature", "properties": { "average_dip": "(62.5,45.0,80.0)", "average_rake": "(-105,-120.0,-90.0)", "catalog_id": "ME_GRCS170", "catalog_name": "EMME", "dip_dir": null, "lower_seis_depth": "(14.0,,)", "name": null, "net_slip_rate": "(0.3,0.3,0.3)", "slip_type": "Normal", "upper_seis_depth": "(0.0,,)", "downthrown_side_id": null, "reference": null, "epistemic_quality": "1", "accuracy": null, "activity_confidence": null, "fs_name": null, "last_movement": null, "downthrown_side_dir": null, "vert_sep_rate": null, "strike_slip_rate": null, "exposure_quality": null, "shortening_rate": null, "notes": null, "index_right": 79, "NAME_EN": "Greece" }, "geometry": { "type": "LineString", "coordinates": [ [ 26.121717, 41.542607 ], [ 26.238586, 41.566811 ], [ 26.574329, 41.619393 ] ] } },
{ "type": "Feature", "properties": { "average_dip": "(60.0,45.0,75.0)", "average_rake": "(-105,-120.0,-90.0)", "catalog_id": "ME_GRCS288", "catalog_name": "EMME", "dip_dir": null, "lower_seis_depth": "(13.0,,)", "name": null, "net_slip_rate": "(0.6,0.1,1.0)", "slip_type": "Normal", "upper_seis_depth": "(0.0,,)", "downthrown_side_id": null, "reference": null, "epistemic_quality": "1", "accuracy": null, "activity_confidence": null, "fs_name": null, "last_movement": null, "downthrown_side_dir": null, "vert_sep_rate": null, "strike_slip_rate": null, "exposure_quality": null, "shortening_rate": null, "notes": null, "index_right": 79, "NAME_EN": "Greece" }, "geometry": { "type": "LineString", "coordinates": [ [ 25.45941, 40.51949 ], [ 25.78977, 40.44605 ] ] } },
{ "type": "Feature", "properties": { "average_dip": "(80.0,70.0,90.0)", "average_rake": "(-2,173.0,-177.0)", "catalog_id": "ME_GRCS831", "catalog_name": "EMME", "dip_dir": null, "lower_seis_depth": "(15.0,,)", "name": null, "net_slip_rate": "(1.2,0.8,1.6)", "slip_type": "Dextral", "upper_seis_depth": "(0.0,,)", "downthrown_side_id": null, "reference": null, "epistemic_quality": "1", "accuracy": null, "activity_confidence": null, "fs_name": null, "last_movement": null, "downthrown_side_dir": null, "vert_sep_rate": null, "strike_slip_rate": null, "exposure_quality": null, "shortening_rate": null, "notes": null, "index_right": 79, "NAME_EN": "Greece" }, "geometry": { "type": "LineString", "coordinates": [ [ 25.382807, 39.742699 ], [ 24.651233, 39.263335 ] ] } },
{ "type": "Feature", "properties": { "average_dip": "(80.0,70.0,90.0)", "average_rake": "(15,180.0,-150.0)", "catalog_id": "ME_GRCS850", "catalog_name": "EMME", "dip_dir": null, "lower_seis_depth": "(15.0,,)", "name": null, "net_slip_rate": "(1.2,0.5,2.0)", "slip_type": "Dextral", "upper_seis_depth": "(0.0,,)", "downthrown_side_id": null, "reference": null, "epistemic_quality": "1", "accuracy": null, "activity_confidence": null, "fs_name": null, "last_movement": null, "downthrown_side_dir": null, "vert_sep_rate": null, "strike_slip_rate": null, "exposure_quality": null, "shortening_rate": null, "notes": null, "index_right": 79, "NAME_EN": "Greece" }, "geometry": { "type": "LineString", "coordinates": [ [ 26.354506, 39.379322 ], [ 26.333096, 39.35704 ], [ 26.311687, 39.325208 ], [ 26.291296, 39.288602 ], [ 26.277023, 39.254383 ], [ 26.265808, 39.22096 ], [ 26.239301, 39.183557 ], [ 26.191384, 39.136606 ], [ 26.09453, 39.05066 ], [ 26.058929, 39.019602 ], [ 26.001716, 38.97414 ] ] } },
{ "type": "Feature", "properties": { "average_dip": "(62.5,50.0,75.0)", "average_rake": "(-95,-100.0,-90.0)", "catalog_id": "ME_GRCS915", "catalog_name": "EMME", "dip_dir": null, "lower_seis_depth": "(15.0,,)", "name": null, "net_slip_rate": "(3.0,3.0,3.0)", "slip_type": "Normal", "upper_seis_depth": "(1.0,,)", "downthrown_side_id": null, "reference": null, "epistemic_quality": "1", "accuracy": null, "activity_confidence": null, "fs_name": null, "last_movement": null, "downthrown_side_dir": null, "vert_sep_rate": null, "strike_slip_rate": null, "exposure_quality": null, "shortening_rate": null, "notes": null, "index_right": 79, "NAME_EN": "Greece" }, "geometry": { "type": "LineString", "coordinates": [ [ 26.586475, 37.708246 ], [ 26.649961, 37.708844 ], [ 26.688205, 37.717202 ], [ 26.724154, 37.722575 ], [ 26.744806, 37.723172 ], [ 26.835828, 37.713023 ], [ 26.869483, 37.704664 ], [ 26.918436, 37.695709 ], [ 26.95668, 37.686156 ] ] } },
{ "type": "Feature", "properties": { "average_dip": "(62.5,45.0,80.0)", "average_rake": "(-90,-100.0,-80.0)", "catalog_id": "ME_GRCS965", "catalog_name": "EMME", "dip_dir": null, "lower_seis_depth": "(14.5,,)", "name": null, "net_slip_rate": "(3.0,3.0,3.0)", "slip_type": "Normal", "upper_seis_depth": "(0.0,,)", "downthrown_side_id": null, "reference": null, "epistemic_quality": "1", "accuracy": null, "activity_confidence": null, "fs_name": null, "last_movement": null, "downthrown_side_dir": null, "vert_sep_rate": null, "strike_slip_rate": null, "exposure_quality": null, "shortening_rate": null, "notes": null, "index_right": 79, "NAME_EN": "Greece" }, "geometry": { "type": "LineString", "coordinates": [ [ 27.377805, 36.857044 ], [ 27.212311, 36.812388 ], [ 27.174385, 36.793444 ], [ 27.139907, 36.766379 ], [ 27.053711, 36.72443 ], [ 27.001993, 36.681127 ], [ 26.962343, 36.640531 ] ] } },
{ "type": "Feature", "properties": { "average_dip": "(82.5,75.0,90.0)", "average_rake": "(17,180.0,-145.0)", "catalog_id": "ME_GRCS999", "catalog_name": "EMME", "dip_dir": null, "lower_seis_depth": "(16.0,,)", "name": null, "net_slip_rate": "(4.0,1.0,7.0)", "slip_type": "Dextral", "upper_seis_depth": "(0.0,,)", "downthrown_side_id": null, "reference": null, "epistemic_quality": "1", "accuracy": null, "activity_confidence": null, "fs_name": null, "last_movement": null, "downthrown_side_dir": null, "vert_sep_rate": null, "strike_slip_rate": null, "exposure_quality": null, "shortening_rate": null, "notes": null, "index_right": 79, "NAME_EN": "Greece" }, "geometry": { "type": "LineString", "coordinates": [ [ 25.451359, 40.042083 ], [ 25.421157, 40.02456 ], [ 25.366004, 39.996729 ], [ 25.334489, 39.977144 ], [ 25.291155, 39.943129 ], [ 25.247821, 39.913236 ], [ 25.201861, 39.872005 ], [ 24.94026, 39.670721 ] ] } },
{ "type": "Feature", "properties": { "average_dip": "(72.5,55.0,90.0)", "average_rake": "(22,180.0,-135.0)", "catalog_id": "ME_TRCS996", "catalog_name": "EMME", "dip_dir": null, "lower_seis_depth": "(19.0,,)", "name": null, "net_slip_rate": "(21.9,15.0,28.8881)", "slip_type": "Dextral-Normal", "upper_seis_depth": "(0.0,,)", "downthrown_side_id": null, "reference": null, "epistemic_quality": "1", "accuracy": null, "activity_confidence": null, "fs_name": null, "last_movement": null, "downthrown_side_dir": null, "vert_sep_rate": null, "strike_slip_rate": null, "exposure_quality": null, "shortening_rate": null, "notes": null, "index_right": 79, "NAME_EN": "Greece" }, "geometry": { "type": "LineString", "coordinates": [ [ 25.005397, 39.984839 ], [ 25.389534, 40.092251 ], [ 25.524078, 40.123521 ], [ 25.773818, 40.212031 ], [ 25.926659, 40.247307 ], [ 26.085589, 40.272354 ], [ 26.200499, 40.315794 ], [ 26.321028, 40.371284 ], [ 26.488272, 40.451043 ], [ 26.681833, 40.532155 ], [ 26.84888, 40.595414 ], [ 26.987711, 40.655205 ], [ 27.067007, 40.682895 ], [ 27.20682, 40.715472 ], [ 27.424327, 40.777384 ], [ 27.501385, 40.79608 ], [ 27.575641, 40.803779 ], [ 27.710143, 40.808178 ], [ 27.881072, 40.811477 ], [ 28.026022, 40.80224 ] ] } },
{ "type": "Feature", "properties": { "average_dip": "(52.5,45,60)", "average_rake": "(-115,-130,-100)", "catalog_id": "EUR_ALCS003", "catalog_name": "SHARE", "dip_dir": null, "lower_seis_depth": "(12.0,,)", "name": null, "net_slip_rate": "(0.3,0.15,0.4)", "slip_type": "Dextral-Normal", "upper_seis_depth": "(1.0,,)", "downthrown_side_id": null, "reference": null, "epistemic_quality": null, "accuracy": null, "activity_confidence": null, "fs_name": null, "last_movement": null, "downthrown_side_dir": null, "vert_sep_rate": null, "strike_slip_rate": null, "exposure_quality": null, "shortening_rate": null, "notes": null, "index_right": 79, "NAME_EN": "Greece" }, "geometry": { "type": "LineString", "coordinates": [ [ 20.933247, 40.770544 ], [ 20.882603, 40.72849 ], [ 20.844646, 40.678312 ], [ 20.825563, 40.649317 ], [ 20.764648, 40.52566 ], [ 20.75189, 40.483993 ], [ 20.73226, 40.409281 ], [ 20.723279, 40.365956 ], [ 20.676318, 40.189455 ] ] } },
{ "type": "Feature", "properties": { "average_dip": "(37.5,30,45)", "average_rake": "(90,80,100)", "catalog_id": "EUR_ALCS010", "catalog_name": "SHARE", "dip_dir": null, "lower_seis_depth": "(25.0,,)", "name": null, "net_slip_rate": "(0.6,0.15,1.0)", "slip_type": "Reverse", "upper_seis_depth": "(4.0,,)", "downthrown_side_id": null, "reference": null, "epistemic_quality": null, "accuracy": null, "activity_confidence": null, "fs_name": null, "last_movement": null, "downthrown_side_dir": null, "vert_sep_rate": null, "strike_slip_rate": null, "exposure_quality": null, "shortening_rate": null, "notes": null, "index_right": 79, "NAME_EN": "Greece" }, "geometry": { "type": "LineString", "coordinates": [ [ 20.30902, 39.600642 ], [ 20.252926, 39.620471 ], [ 20.215029, 39.642267 ], [ 20.152947, 39.666258 ], [ 20.107163, 39.704552 ], [ 20.077962, 39.741361 ], [ 20.058743, 39.783254 ], [ 20.019306, 39.861194 ], [ 19.902615, 40.006882 ], [ 19.866911, 40.067375 ], [ 19.853927, 40.109349 ], [ 19.825535, 40.154193 ], [ 19.798127, 40.203877 ], [ 19.759799, 40.248765 ], [ 19.699751, 40.367367 ] ] } },
{ "type": "Feature", "properties": { "average_dip": "(37.5,30,45)", "average_rake": "(90,80,100)", "catalog_id": "EUR_ALCS011", "catalog_name": "SHARE", "dip_dir": null, "lower_seis_depth": "(25.0,,)", "name": null, "net_slip_rate": "(0.6,0.15,1.0)", "slip_type": "Reverse", "upper_seis_depth": "(5.0,,)", "downthrown_side_id": null, "reference": null, "epistemic_quality": null, "accuracy": null, "activity_confidence": null, "fs_name": null, "last_movement": null, "downthrown_side_dir": null, "vert_sep_rate": null, "strike_slip_rate": null, "exposure_quality": null, "shortening_rate": null, "notes": null, "index_right": 79, "NAME_EN": "Greece" }, "geometry": { "type": "LineString", "coordinates": [ [ 20.387311, 39.91227 ], [ 20.326979, 39.947154 ], [ 20.275012, 39.991816 ], [ 20.197917, 40.126034 ], [ 20.060038, 40.264909 ], [ 19.981723, 40.402525 ], [ 19.953275, 40.458075 ], [ 19.912536, 40.525668 ], [ 19.875174, 40.592413 ], [ 19.836562, 40.673217 ], [ 19.808028, 40.74069 ], [ 19.7914, 40.790861 ], [ 19.7724, 40.832074 ], [ 19.70352, 40.953919 ], [ 19.675016, 41.018426 ] ] } },
{ "type": "Feature", "properties": { "average_dip": "(37.5,30,45)", "average_rake": "(90,80,100)", "catalog_id": "EUR_ALCS015", "catalog_name": "SHARE", "dip_dir": null, "lower_seis_depth": "(25.0,,)", "name": null, "net_slip_rate": "(0.6,0.15,1.0)", "slip_type": "Reverse", "upper_seis_depth": "(5.0,,)", "downthrown_side_id": null, "reference": null, "epistemic_quality": null, "accuracy": null, "activity_confidence": null, "fs_name": null, "last_movement": null, "downthrown_side_dir": null, "vert_sep_rate": null, "strike_slip_rate": null, "exposure_quality": null, "shortening_rate": null, "notes": null, "index_right": 79, "NAME_EN": "Greece" }, "geometry": { "type": "LineString", "coordinates": [ [ 20.465484, 39.699341 ], [ 20.368947, 39.754955 ], [ 20.31373, 39.794091 ], [ 20.262365, 39.833813 ], [ 20.229273, 39.853453 ], [ 20.168838, 39.897311 ], [ 20.067027, 39.957732 ], [ 20.047261, 39.974977 ], [ 20.029075, 39.994627 ], [ 19.972801, 40.090363 ], [ 19.930204, 40.146385 ], [ 19.884762, 40.195766 ], [ 19.85835, 40.233095 ], [ 19.819846, 40.274777 ] ] } },
{ "type": "Feature", "properties": { "average_dip": "(62.5,50,75)", "average_rake": "(-90,-100,-80)", "catalog_id": "EUR_GRCS001", "catalog_name": "SHARE", "dip_dir": null, "lower_seis_depth": "(14.0,,)", "name": null, "net_slip_rate": "(0.2,0.05,0.4)", "slip_type": "Normal", "upper_seis_depth": "(0.0,,)", "downthrown_side_id": null, "reference": null, "epistemic_quality": null, "accuracy": null, "activity_confidence": null, "fs_name": null, "last_movement": null, "downthrown_side_dir": null, "vert_sep_rate": null, "strike_slip_rate": null, "exposure_quality": null, "shortening_rate": null, "notes": null, "index_right": 79, "NAME_EN": "Greece" }, "geometry": { "type": "LineString", "coordinates": [ [ 22.388805, 39.699548 ], [ 22.364307, 39.699946 ], [ 22.254531, 39.708283 ], [ 22.228365, 39.71476 ], [ 22.161814, 39.722907 ] ] } },
{ "type": "Feature", "properties": { "average_dip": "(65.0,55,75)", "average_rake": "(-85,-100,-70)", "catalog_id": "EUR_GRCS002", "catalog_name": "SHARE", "dip_dir": null, "lower_seis_depth": "(12.5,,)", "name": null, "net_slip_rate": "(0.6,0.1,1.0)", "slip_type": "Normal", "upper_seis_depth": "(0.0,,)", "downthrown_side_id": null, "reference": null, "epistemic_quality": null, "accuracy": null, "activity_confidence": null, "fs_name": null, "last_movement": null, "downthrown_side_dir": null, "vert_sep_rate": null, "strike_slip_rate": null, "exposure_quality": null, "shortening_rate": null, "notes": null, "index_right": 79, "NAME_EN": "Greece" }, "geometry": { "type": "LineString", "coordinates": [ [ 22.108095, 39.875906 ], [ 22.146691, 39.888858 ], [ 22.166184, 39.893842 ], [ 22.185951, 39.896714 ], [ 22.20413, 39.896142 ], [ 22.219144, 39.891605 ], [ 22.247302, 39.879635 ], [ 22.259602, 39.871213 ], [ 22.267027, 39.864995 ], [ 22.286087, 39.84196 ], [ 22.306849, 39.83134 ], [ 22.371012, 39.813757 ], [ 22.400804, 39.803361 ], [ 22.414001, 39.795137 ], [ 22.423115, 39.786182 ], [ 22.435686, 39.768753 ], [ 22.443224, 39.761491 ], [ 22.452015, 39.753987 ], [ 22.461117, 39.749389 ], [ 22.500335, 39.739223 ], [ 22.549309, 39.73009 ], [ 22.572539, 39.723554 ] ] } },
{ "type": "Feature", "properties": { "average_dip": "(55.0,40,70)", "average_rake": "(-90,-100,-80)", "catalog_id": "EUR_GRCS004", "catalog_name": "SHARE", "dip_dir": null, "lower_seis_depth": "(13.0,,)", "name": null, "net_slip_rate": "(0.3,0.1,0.5)", "slip_type": "Normal", "upper_seis_depth": "(0.0,,)", "downthrown_side_id": null, "reference": null, "epistemic_quality": null, "accuracy": null, "activity_confidence": null, "fs_name": null, "last_movement": null, "downthrown_side_dir": null, "vert_sep_rate": null, "strike_slip_rate": null, "exposure_quality": null, "shortening_rate": null, "notes": null, "index_right": 79, "NAME_EN": "Greece" }, "geometry": { "type": "LineString", "coordinates": [ [ 22.671313, 39.630571 ], [ 22.619365, 39.631387 ], [ 22.580096, 39.635559 ], [ 22.534297, 39.636733 ], [ 22.472488, 39.627233 ], [ 22.448287, 39.62665 ], [ 22.37315, 39.637192 ], [ 22.213267, 39.667438 ] ] } },
{ "type": "Feature", "properties": { "average_dip": "(55.0,40,70)", "average_rake": "(-109,-128,-90)", "catalog_id": "EUR_GRCS010", "catalog_name": "SHARE", "dip_dir": null, "lower_seis_depth": "(12.5,,)", "name": null, "net_slip_rate": "(1.8,0.5,3.0)", "slip_type": "Normal", "upper_seis_depth": "(0.0,,)", "downthrown_side_id": null, "reference": null, "epistemic_quality": null, "accuracy": null, "activity_confidence": null, "fs_name": null, "last_movement": null, "downthrown_side_dir": null, "vert_sep_rate": null, "strike_slip_rate": null, "exposure_quality": null, "shortening_rate": null, "notes": null, "index_right": 79, "NAME_EN": "Greece" }, "geometry": { "type": "LineString", "coordinates": [ [ 23.199451, 39.306031 ], [ 23.178651, 39.309038 ], [ 23.158548, 39.308112 ], [ 23.135445, 39.303355 ], [ 23.08949, 39.297729 ], [ 23.000087, 39.29198 ], [ 22.932208, 39.289604 ], [ 22.891572, 39.290484 ], [ 22.668621, 39.266528 ], [ 22.639947, 39.26602 ] ] } },
{ "type": "Feature", "properties": { "average_dip": "(57.5,45,70)", "average_rake": "(-90,-100,-80)", "catalog_id": "EUR_GRCS015", "catalog_name": "SHARE", "dip_dir": null, "lower_seis_depth": "(14.5,,)", "name": null, "net_slip_rate": "(0.8,0.6,0.9)", "slip_type": "Normal", "upper_seis_depth": "(0.0,,)", "downthrown_side_id": null, "reference": null, "epistemic_quality": null, "accuracy": null, "activity_confidence": null, "fs_name": null, "last_movement": null, "downthrown_side_dir": null, "vert_sep_rate": null, "strike_slip_rate": null, "exposure_quality": null, "shortening_rate": null, "notes": null, "index_right": 79, "NAME_EN": "Greece" }, "geometry": { "type": "LineString", "coordinates": [ [ 22.234037, 39.411142 ], [ 22.286659, 39.40094 ], [ 22.376783, 39.371839 ], [ 22.407699, 39.363205 ], [ 22.440751, 39.357228 ], [ 22.508619, 39.35174 ], [ 22.575555, 39.356012 ], [ 22.639106, 39.353572 ], [ 22.806177, 39.342335 ] ] } },
{ "type": "Feature", "properties": { "average_dip": "(50.0,40,60)", "average_rake": "(-85,-90,-80)", "catalog_id": "EUR_GRCS020", "catalog_name": "SHARE", "dip_dir": null, "lower_seis_depth": "(17.5,,)", "name": null, "net_slip_rate": "(0.4,0.3,0.6)", "slip_type": "Normal", "upper_seis_depth": "(0.0,,)", "downthrown_side_id": null, "reference": null, "epistemic_quality": null, "accuracy": null, "activity_confidence": null, "fs_name": null, "last_movement": null, "downthrown_side_dir": null, "vert_sep_rate": null, "strike_slip_rate": null, "exposure_quality": null, "shortening_rate": null, "notes": null, "index_right": 79, "NAME_EN": "Greece" }, "geometry": { "type": "LineString", "coordinates": [ [ 22.420808, 39.142505 ], [ 22.269937, 39.149709 ], [ 22.234123, 39.150047 ], [ 22.206574, 39.153281 ], [ 22.132074, 39.176575 ], [ 22.101882, 39.182777 ], [ 22.000544, 39.210454 ], [ 21.946433, 39.231695 ], [ 21.892208, 39.25711 ] ] } },
{ "type": "Feature", "properties": { "average_dip": "(57.5,40,75)", "average_rake": "(-90,-100,-80)", "catalog_id": "EUR_GRCS025", "catalog_name": "SHARE", "dip_dir": null, "lower_seis_depth": "(13.5,,)", "name": null, "net_slip_rate": "(0.4,0.3,0.6)", "slip_type": "Normal", "upper_seis_depth": "(0.0,,)", "downthrown_side_id": null, "reference": null, "epistemic_quality": null, "accuracy": null, "activity_confidence": null, "fs_name": null, "last_movement": null, "downthrown_side_dir": null, "vert_sep_rate": null, "strike_slip_rate": null, "exposure_quality": null, "shortening_rate": null, "notes": null, "index_right": 79, "NAME_EN": "Greece" }, "geometry": { "type": "LineString", "coordinates": [ [ 21.962698, 39.416645 ], [ 21.857068, 39.41046 ], [ 21.779934, 39.41415 ], [ 21.696759, 39.422393 ], [ 21.642895, 39.424086 ] ] } },
{ "type": "Feature", "properties": { "average_dip": "(55.0,40,70)", "average_rake": "(-90,-100,-80)", "catalog_id": "EUR_GRCS040", "catalog_name": "SHARE", "dip_dir": null, "lower_seis_depth": "(14.0,,)", "name": null, "net_slip_rate": "(0.7,0.4,0.9)", "slip_type": "Normal", "upper_seis_depth": "(0.0,,)", "downthrown_side_id": null, "reference": null, "epistemic_quality": null, "accuracy": null, "activity_confidence": null, "fs_name": null, "last_movement": null, "downthrown_side_dir": null, "vert_sep_rate": null, "strike_slip_rate": null, "exposure_quality": null, "shortening_rate": null, "notes": null, "index_right": 79, "NAME_EN": "Greece" }, "geometry": { "type": "LineString", "coordinates": [ [ 22.85639, 39.83079 ], [ 22.791181, 39.851867 ], [ 22.733669, 39.867775 ], [ 22.646244, 39.89052 ], [ 22.570082, 39.905192 ], [ 22.5452, 39.912961 ], [ 22.524881, 39.922024 ], [ 22.473459, 39.927527 ], [ 22.446089, 39.934001 ], [ 22.429502, 39.943064 ] ] } },
{ "type": "Feature", "properties": { "average_dip": "(50.0,30,70)", "average_rake": "(-90,-100,-80)", "catalog_id": "EUR_GRCS048", "catalog_name": "SHARE", "dip_dir": null, "lower_seis_depth": "(15.0,,)", "name": null, "net_slip_rate": "(0.4,0.3,0.6)", "slip_type": "Normal", "upper_seis_depth": "(0.0,,)", "downthrown_side_id": null, "reference": null, "epistemic_quality": null, "accuracy": null, "activity_confidence": null, "fs_name": null, "last_movement": null, "downthrown_side_dir": null, "vert_sep_rate": null, "strike_slip_rate": null, "exposure_quality": null, "shortening_rate": null, "notes": null, "index_right": 79, "NAME_EN": "Greece" }, "geometry": { "type": "LineString", "coordinates": [ [ 21.861262, 39.985211 ], [ 21.845801, 39.992979 ], [ 21.832814, 39.996862 ], [ 21.820445, 39.997833 ], [ 21.801274, 39.99492 ], [ 21.778392, 39.990066 ], [ 21.74376, 39.970163 ], [ 21.712839, 39.959968 ], [ 21.689957, 39.958027 ] ] } },
{ "type": "Feature", "properties": { "average_dip": "(60.0,40,80)", "average_rake": "(-95,-110,-80)", "catalog_id": "EUR_GRCS050", "catalog_name": "SHARE", "dip_dir": null, "lower_seis_depth": "(17.0,,)", "name": null, "net_slip_rate": "(1.1,0.3,2.0)", "slip_type": "Normal", "upper_seis_depth": "(0.0,,)", "downthrown_side_id": null, "reference": null, "epistemic_quality": null, "accuracy": null, "activity_confidence": null, "fs_name": null, "last_movement": null, "downthrown_side_dir": null, "vert_sep_rate": null, "strike_slip_rate": null, "exposure_quality": null, "shortening_rate": null, "notes": null, "index_right": 79, "NAME_EN": "Greece" }, "geometry": { "type": "LineString", "coordinates": [ [ 21.512826, 39.97953 ], [ 21.617248, 40.009033 ], [ 21.676352, 40.027533 ], [ 21.736014, 40.04705 ], [ 21.785987, 40.065678 ], [ 21.850669, 40.098265 ], [ 21.885032, 40.121191 ], [ 21.917802, 40.140307 ], [ 21.979393, 40.162068 ], [ 22.009722, 40.183044 ], [ 22.10899, 40.258587 ], [ 22.140641, 40.303788 ], [ 22.154281, 40.3302 ], [ 22.172469, 40.359467 ], [ 22.196113, 40.386593 ], [ 22.21521, 40.416574 ], [ 22.233398, 40.450124 ], [ 22.264317, 40.488671 ] ] } },
{ "type": "Feature", "properties": { "average_dip": "(60.0,40,80)", "average_rake": "(-90,-100,-80)", "catalog_id": "EUR_GRCS058", "catalog_name": "SHARE", "dip_dir": null, "lower_seis_depth": "(15.0,,)", "name": null, "net_slip_rate": "(0.3,0.1,0.5)", "slip_type": "Normal", "upper_seis_depth": "(0.0,,)", "downthrown_side_id": null, "reference": null, "epistemic_quality": null, "accuracy": null, "activity_confidence": null, "fs_name": null, "last_movement": null, "downthrown_side_dir": null, "vert_sep_rate": null, "strike_slip_rate": null, "exposure_quality": null, "shortening_rate": null, "notes": null, "index_right": 79, "NAME_EN": "Greece" }, "geometry": { "type": "LineString", "coordinates": [ [ 22.546914, 40.507539 ], [ 22.466188, 40.493536 ], [ 22.387455, 40.484201 ], [ 22.335631, 40.482645 ], [ 22.283807, 40.484979 ] ] } },
{ "type": "Feature", "properties": { "average_dip": "(72.5,60,85)", "average_rake": "(-100,-130,-70)", "catalog_id": "EUR_GRCS060", "catalog_name": "SHARE", "dip_dir": null, "lower_seis_depth": "(12.0,,)", "name": null, "net_slip_rate": "(1.0,1.0,1.0)", "slip_type": "Normal", "upper_seis_depth": "(0.0,,)", "downthrown_side_id": null, "reference": null, "epistemic_quality": null, "accuracy": null, "activity_confidence": null, "fs_name": null, "last_movement": null, "downthrown_side_dir": null, "vert_sep_rate": null, "strike_slip_rate": null, "exposure_quality": null, "shortening_rate": null, "notes": null, "index_right": 79, "NAME_EN": "Greece" }, "geometry": { "type": "LineString", "coordinates": [ [ 21.906724, 40.955337 ], [ 21.955165, 40.98082 ], [ 21.96234, 40.986713 ], [ 21.973038, 41.006414 ], [ 21.978747, 41.012242 ], [ 21.99807, 41.022525 ], [ 22.031008, 41.029381 ], [ 22.04335, 41.035023 ], [ 22.097875, 41.049421 ], [ 22.144766, 41.056278 ], [ 22.155831, 41.060504 ], [ 22.162442, 41.069194 ], [ 22.168624, 41.091027 ], [ 22.174522, 41.094679 ], [ 22.183374, 41.099457 ], [ 22.303291, 41.141818 ] ] } },
{ "type": "Feature", "properties": { "average_dip": "(57.5,45,70)", "average_rake": "(-105,-115,-95)", "catalog_id": "EUR_GRCS068", "catalog_name": "SHARE", "dip_dir": null, "lower_seis_depth": "(16.0,,)", "name": null, "net_slip_rate": "(0.3,0.2,0.4)", "slip_type": "Normal", "upper_seis_depth": "(0.0,,)", "downthrown_side_id": null, "reference": null, "epistemic_quality": null, "accuracy": null, "activity_confidence": null, "fs_name": null, "last_movement": null, "downthrown_side_dir": null, "vert_sep_rate": null, "strike_slip_rate": null, "exposure_quality": null, "shortening_rate": null, "notes": null, "index_right": 79, "NAME_EN": "Greece" }, "geometry": { "type": "LineString", "coordinates": [ [ 22.141769, 40.812197 ], [ 22.238354, 40.854647 ], [ 22.274828, 40.857425 ], [ 22.318418, 40.850481 ], [ 22.362244, 40.839998 ] ] } },
{ "type": "Feature", "properties": { "average_dip": "(60.0,50,70)", "average_rake": "(-100,-115,-85)", "catalog_id": "EUR_GRCS069", "catalog_name": "SHARE", "dip_dir": null, "lower_seis_depth": "(15.0,,)", "name": null, "net_slip_rate": "(0.3,0.2,0.4)", "slip_type": "Normal", "upper_seis_depth": "(0.0,,)", "downthrown_side_id": null, "reference": null, "epistemic_quality": null, "accuracy": null, "activity_confidence": null, "fs_name": null, "last_movement": null, "downthrown_side_dir": null, "vert_sep_rate": null, "strike_slip_rate": null, "exposure_quality": null, "shortening_rate": null, "notes": null, "index_right": 79, "NAME_EN": "Greece" }, "geometry": { "type": "LineString", "coordinates": [ [ 22.537261, 40.994044 ], [ 22.503413, 40.985187 ], [ 22.469565, 40.970131 ], [ 22.431204, 40.949761 ], [ 22.387202, 40.923192 ], [ 22.368021, 40.908136 ] ] } },
{ "type": "Feature", "properties": { "average_dip": "(57.5,45,70)", "average_rake": "(-100,-110,-90)", "catalog_id": "EUR_GRCS070", "catalog_name": "SHARE", "dip_dir": null, "lower_seis_depth": "(13.0,,)", "name": null, "net_slip_rate": "(0.2,0.1,0.3)", "slip_type": "Normal", "upper_seis_depth": "(0.0,,)", "downthrown_side_id": null, "reference": null, "epistemic_quality": null, "accuracy": null, "activity_confidence": null, "fs_name": null, "last_movement": null, "downthrown_side_dir": null, "vert_sep_rate": null, "strike_slip_rate": null, "exposure_quality": null, "shortening_rate": null, "notes": null, "index_right": 79, "NAME_EN": "Greece" }, "geometry": { "type": "LineString", "coordinates": [ [ 21.446921, 40.611147 ], [ 21.63639, 40.706862 ], [ 21.655799, 40.719042 ], [ 21.694502, 40.755435 ], [ 21.730402, 40.796048 ], [ 21.762788, 40.819625 ], [ 21.785973, 40.832513 ] ] } },
{ "type": "Feature", "properties": { "average_dip": "(57.5,50,65)", "average_rake": "(-100,-110,-90)", "catalog_id": "EUR_GRCS072", "catalog_name": "SHARE", "dip_dir": null, "lower_seis_depth": "(11.5,,)", "name": null, "net_slip_rate": "(0.2,0.1,0.3)", "slip_type": "Normal", "upper_seis_depth": "(0.0,,)", "downthrown_side_id": null, "reference": null, "epistemic_quality": null, "accuracy": null, "activity_confidence": null, "fs_name": null, "last_movement": null, "downthrown_side_dir": null, "vert_sep_rate": null, "strike_slip_rate": null, "exposure_quality": null, "shortening_rate": null, "notes": null, "index_right": 79, "NAME_EN": "Greece" }, "geometry": { "type": "LineString", "coordinates": [ [ 21.807352, 40.832803 ], [ 21.790054, 40.808575 ], [ 21.772594, 40.777406 ], [ 21.762005, 40.756711 ], [ 21.751012, 40.729959 ], [ 21.738784, 40.709659 ], [ 21.724972, 40.695402 ], [ 21.697308, 40.671842 ], [ 21.651427, 40.644656 ] ] } },
{ "type": "Feature", "properties": { "average_dip": "(62.5,45,80)", "average_rake": "(-100,-110,-90)", "catalog_id": "EUR_GRCS077", "catalog_name": "SHARE", "dip_dir": null, "lower_seis_depth": "(14.0,,)", "name": null, "net_slip_rate": "(0.2,0.1,0.3)", "slip_type": "Normal", "upper_seis_depth": "(0.0,,)", "downthrown_side_id": null, "reference": null, "epistemic_quality": null, "accuracy": null, "activity_confidence": null, "fs_name": null, "last_movement": null, "downthrown_side_dir": null, "vert_sep_rate": null, "strike_slip_rate": null, "exposure_quality": null, "shortening_rate": null, "notes": null, "index_right": 79, "NAME_EN": "Greece" }, "geometry": { "type": "LineString", "coordinates": [ [ 21.66026, 40.449113 ], [ 21.750436, 40.521809 ], [ 21.777428, 40.563253 ], [ 21.79109, 40.574312 ], [ 21.814004, 40.600275 ], [ 21.862049, 40.66374 ], [ 21.899006, 40.70932 ] ] } },
{ "type": "Feature", "properties": { "average_dip": "(60.0,40,80)", "average_rake": "(-90,-100,-80)", "catalog_id": "EUR_GRCS080", "catalog_name": "SHARE", "dip_dir": null, "lower_seis_depth": "(14.0,,)", "name": null, "net_slip_rate": "(0.2,0.1,0.3)", "slip_type": "Normal", "upper_seis_depth": "(0.0,,)", "downthrown_side_id": null, "reference": null, "epistemic_quality": null, "accuracy": null, "activity_confidence": null, "fs_name": null, "last_movement": null, "downthrown_side_dir": null, "vert_sep_rate": null, "strike_slip_rate": null, "exposure_quality": null, "shortening_rate": null, "notes": null, "index_right": 79, "NAME_EN": "Greece" }, "geometry": { "type": "LineString", "coordinates": [ [ 21.662445, 40.871628 ], [ 21.616578, 40.861764 ], [ 21.590691, 40.850088 ], [ 21.563691, 40.83473 ], [ 21.533808, 40.825562 ], [ 21.493178, 40.816682 ], [ 21.464468, 40.802216 ] ] } },
{ "type": "Feature", "properties": { "average_dip": "(57.5,40,75)", "average_rake": "(-75,-90,-60)", "catalog_id": "EUR_GRCS090", "catalog_name": "SHARE", "dip_dir": null, "lower_seis_depth": "(14.0,,)", "name": null, "net_slip_rate": "(0.2,0.1,0.4)", "slip_type": "Normal", "upper_seis_depth": "(0.0,,)", "downthrown_side_id": null, "reference": null, "epistemic_quality": null, "accuracy": null, "activity_confidence": null, "fs_name": null, "last_movement": null, "downthrown_side_dir": null, "vert_sep_rate": null, "strike_slip_rate": null, "exposure_quality": null, "shortening_rate": null, "notes": null, "index_right": 79, "NAME_EN": "Greece" }, "geometry": { "type": "LineString", "coordinates": [ [ 21.210823, 40.522085 ], [ 21.192963, 40.523606 ], [ 21.179325, 40.528168 ], [ 21.15562, 40.530196 ], [ 21.060475, 40.517522 ] ] } },
{ "type": "Feature", "properties": { "average_dip": "(55.0,30,80)", "average_rake": "(-77,-110,-45)", "catalog_id": "EUR_GRCS100", "catalog_name": "SHARE", "dip_dir": null, "lower_seis_depth": "(17.0,,)", "name": null, "net_slip_rate": "(0.4,0.4,0.4)", "slip_type": "Normal", "upper_seis_depth": "(0.0,,)", "downthrown_side_id": null, "reference": null, "epistemic_quality": null, "accuracy": null, "activity_confidence": null, "fs_name": null, "last_movement": null, "downthrown_side_dir": null, "vert_sep_rate": null, "strike_slip_rate": null, "exposure_quality": null, "shortening_rate": null, "notes": null, "index_right": 79, "NAME_EN": "Greece" }, "geometry": { "type": "LineString", "coordinates": [ [ 22.905435, 40.76726 ], [ 22.96268, 40.747534 ], [ 22.977927, 40.740309 ], [ 22.98971, 40.726138 ], [ 23.013841, 40.702462 ], [ 23.048458, 40.678216 ], [ 23.066936, 40.668577 ], [ 23.085972, 40.661009 ], [ 23.157277, 40.642576 ], [ 23.175328, 40.633442 ], [ 23.192587, 40.627529 ], [ 23.220635, 40.623836 ], [ 23.24192, 40.625476 ], [ 23.267314, 40.628853 ], [ 23.284137, 40.633629 ], [ 23.305527, 40.644295 ], [ 23.321429, 40.648895 ], [ 23.34741, 40.651493 ], [ 23.371402, 40.650495 ], [ 23.395066, 40.645132 ], [ 23.458824, 40.61993 ], [ 23.4727, 40.617744 ], [ 23.492601, 40.617585 ], [ 23.523184, 40.620868 ], [ 23.552634, 40.621035 ], [ 23.579834, 40.616645 ], [ 23.634895, 40.603112 ] ] } },
{ "type": "Feature", "properties": { "average_dip": "(75.0,65,85)", "average_rake": "(-80,-90,-70)", "catalog_id": "EUR_GRCS110", "catalog_name": "SHARE", "dip_dir": null, "lower_seis_depth": "(17.0,,)", "name": null, "net_slip_rate": "(0.7,0.3,1.1)", "slip_type": "Normal", "upper_seis_depth": "(0.0,,)", "downthrown_side_id": null, "reference": null, "epistemic_quality": null, "accuracy": null, "activity_confidence": null, "fs_name": null, "last_movement": null, "downthrown_side_dir": null, "vert_sep_rate": null, "strike_slip_rate": null, "exposure_quality": null, "shortening_rate": null, "notes": null, "index_right": 79, "NAME_EN": "Greece" }, "geometry": { "type": "LineString", "coordinates": [ [ 23.633392, 40.586665 ], [ 23.669676, 40.56477 ], [ 23.709506, 40.545059 ], [ 23.737559, 40.536394 ], [ 23.756692, 40.533023 ], [ 23.819878, 40.523328 ], [ 23.853397, 40.520225 ], [ 24.048185, 40.520497 ] ] } },
{ "type": "Feature", "properties": { "average_dip": "(72.5,60,85)", "average_rake": "(-90,-100,-80)", "catalog_id": "EUR_GRCS120", "catalog_name": "SHARE", "dip_dir": null, "lower_seis_depth": "(15.0,,)", "name": null, "net_slip_rate": "(0.5,0.1,0.8)", "slip_type": "Normal", "upper_seis_depth": "(0.0,,)", "downthrown_side_id": null, "reference": null, "epistemic_quality": null, "accuracy": null, "activity_confidence": null, "fs_name": null, "last_movement": null, "downthrown_side_dir": null, "vert_sep_rate": null, "strike_slip_rate": null, "exposure_quality": null, "shortening_rate": null, "notes": null, "index_right": 79, "NAME_EN": "Greece" }, "geometry": { "type": "LineString", "coordinates": [ [ 23.053692, 40.806669 ], [ 23.10044, 40.808936 ], [ 23.128682, 40.811962 ], [ 23.204559, 40.81374 ], [ 23.342021, 40.820977 ], [ 23.382623, 40.826889 ], [ 23.388341, 40.825422 ], [ 23.403008, 40.813653 ], [ 23.410202, 40.809848 ], [ 23.417434, 40.807619 ], [ 23.427177, 40.807077 ], [ 23.444126, 40.809417 ], [ 23.482369, 40.823436 ], [ 23.501122, 40.826403 ], [ 23.526467, 40.827536 ] ] } },
{ "type": "Feature", "properties": { "average_dip": "(57.5,45,70)", "average_rake": "(-95,-110,-80)", "catalog_id": "EUR_GRCS130", "catalog_name": "SHARE", "dip_dir": null, "lower_seis_depth": "(15.0,,)", "name": null, "net_slip_rate": "(0.3,0.2,0.4)", "slip_type": "Normal", "upper_seis_depth": "(0.0,,)", "downthrown_side_id": null, "reference": null, "epistemic_quality": null, "accuracy": null, "activity_confidence": null, "fs_name": null, "last_movement": null, "downthrown_side_dir": null, "vert_sep_rate": null, "strike_slip_rate": null, "exposure_quality": null, "shortening_rate": null, "notes": null, "index_right": 79, "NAME_EN": "Greece" }, "geometry": { "type": "LineString", "coordinates": [ [ 22.722052, 41.249719 ], [ 22.742469, 41.262847 ], [ 22.813819, 41.299261 ], [ 22.852987, 41.309036 ], [ 22.934514, 41.306943 ], [ 22.975529, 41.300072 ], [ 23.006202, 41.291072 ], [ 23.037786, 41.284516 ], [ 23.076671, 41.278836 ], [ 23.222634, 41.277158 ], [ 23.249433, 41.28067 ], [ 23.321512, 41.278969 ], [ 23.402454, 41.282953 ] ] } },
{ "type": "Feature", "properties": { "average_dip": "(52.5,40,65)", "average_rake": "(-87,-95,-80)", "catalog_id": "EUR_GRCS140", "catalog_name": "SHARE", "dip_dir": null, "lower_seis_depth": "(15.0,,)", "name": null, "net_slip_rate": "(0.3,0.2,0.4)", "slip_type": "Normal", "upper_seis_depth": "(0.0,,)", "downthrown_side_id": null, "reference": null, "epistemic_quality": null, "accuracy": null, "activity_confidence": null, "fs_name": null, "last_movement": null, "downthrown_side_dir": null, "vert_sep_rate": null, "strike_slip_rate": null, "exposure_quality": null, "shortening_rate": null, "notes": null, "index_right": 79, "NAME_EN": "Greece" }, "geometry": { "type": "LineString", "coordinates": [ [ 23.791896, 41.215172 ], [ 23.862714, 41.220703 ], [ 23.883273, 41.220941 ], [ 23.905673, 41.217905 ], [ 23.976907, 41.202001 ], [ 24.101655, 41.192471 ], [ 24.121797, 41.188645 ], [ 24.162581, 41.173845 ], [ 24.188082, 41.168917 ], [ 24.220201, 41.166038 ], [ 24.300768, 41.168531 ], [ 24.35611, 41.166694 ] ] } },
{ "type": "Feature", "properties": { "average_dip": "(65.0,50,80)", "average_rake": "(-90,-100,-80)", "catalog_id": "EUR_GRCS145", "catalog_name": "SHARE", "dip_dir": null, "lower_seis_depth": "(16.0,,)", "name": null, "net_slip_rate": "(0.1,0.05,0.1)", "slip_type": "Normal", "upper_seis_depth": "(0.0,,)", "downthrown_side_id": null, "reference": null, "epistemic_quality": null, "accuracy": null, "activity_confidence": null, "fs_name": null, "last_movement": null, "downthrown_side_dir": null, "vert_sep_rate": null, "strike_slip_rate": null, "exposure_quality": null, "shortening_rate": null, "notes": null, "index_right": 79, "NAME_EN": "Greece" }, "geometry": { "type": "LineString", "coordinates": [ [ 23.809907, 41.000948 ], [ 23.775417, 41.03715 ], [ 23.754162, 41.053284 ], [ 23.748949, 41.062413 ], [ 23.746944, 41.07288 ], [ 23.740126, 41.080436 ], [ 23.720543, 41.090239 ], [ 23.682892, 41.104981 ], [ 23.648969, 41.106666 ], [ 23.628839, 41.105824 ], [ 23.601999, 41.103858 ], [ 23.533408, 41.094592 ], [ 23.521863, 41.094436 ], [ 23.508558, 41.096804 ] ] } },
{ "type": "Feature", "properties": { "average_dip": "(55.0,40,70)", "average_rake": "(-105,-120,-90)", "catalog_id": "EUR_GRCS155", "catalog_name": "SHARE", "dip_dir": null, "lower_seis_depth": "(15.0,,)", "name": null, "net_slip_rate": "(0.3,0.3,0.4)", "slip_type": "Normal", "upper_seis_depth": "(0.0,,)", "downthrown_side_id": null, "reference": null, "epistemic_quality": null, "accuracy": null, "activity_confidence": null, "fs_name": null, "last_movement": null, "downthrown_side_dir": null, "vert_sep_rate": null, "strike_slip_rate": null, "exposure_quality": null, "shortening_rate": null, "notes": null, "index_right": 79, "NAME_EN": "Greece" }, "geometry": { "type": "LineString", "coordinates": [ [ 24.03129, 40.70947 ], [ 24.093733, 40.719983 ], [ 24.14883, 40.737185 ], [ 24.199029, 40.769679 ], [ 24.27878, 40.808458 ], [ 24.342438, 40.835872 ] ] } },
{ "type": "Feature", "properties": { "average_dip": "(52.5,35,70)", "average_rake": "(-90,-100,-80)", "catalog_id": "EUR_GRCS240", "catalog_name": "SHARE", "dip_dir": null, "lower_seis_depth": "(16.0,,)", "name": null, "net_slip_rate": "(0.2,0.1,0.4)", "slip_type": "Normal", "upper_seis_depth": "(0.0,,)", "downthrown_side_id": null, "reference": null, "epistemic_quality": null, "accuracy": null, "activity_confidence": null, "fs_name": null, "last_movement": null, "downthrown_side_dir": null, "vert_sep_rate": null, "strike_slip_rate": null, "exposure_quality": null, "shortening_rate": null, "notes": null, "index_right": 79, "NAME_EN": "Greece" }, "geometry": { "type": "LineString", "coordinates": [ [ 22.949235, 40.597824 ], [ 22.982948, 40.601709 ], [ 23.002551, 40.601709 ], [ 23.047147, 40.597141 ], [ 23.074972, 40.592991 ], [ 23.107186, 40.585979 ], [ 23.181344, 40.563549 ] ] } },
{ "type": "Feature", "properties": { "average_dip": "(57.5,35,80)", "average_rake": "(-75,-90,-60)", "catalog_id": "EUR_GRCS245", "catalog_name": "SHARE", "dip_dir": null, "lower_seis_depth": "(16.0,,)", "name": null, "net_slip_rate": "(0.2,0.1,0.4)", "slip_type": "Normal", "upper_seis_depth": "(0.0,,)", "downthrown_side_id": null, "reference": null, "epistemic_quality": null, "accuracy": null, "activity_confidence": null, "fs_name": null, "last_movement": null, "downthrown_side_dir": null, "vert_sep_rate": null, "strike_slip_rate": null, "exposure_quality": null, "shortening_rate": null, "notes": null, "index_right": 79, "NAME_EN": "Greece" }, "geometry": { "type": "LineString", "coordinates": [ [ 22.866833, 40.723967 ], [ 22.88534, 40.708832 ], [ 22.909136, 40.692666 ], [ 22.937672, 40.67832 ], [ 22.965982, 40.667556 ], [ 23.018367, 40.641554 ], [ 23.078792, 40.618713 ] ] } },
{ "type": "Feature", "properties": { "average_dip": "(58.5,30,87)", "average_rake": "(-85,-100,-70)", "catalog_id": "EUR_GRCS250", "catalog_name": "SHARE", "dip_dir": null, "lower_seis_depth": "(20.0,,)", "name": null, "net_slip_rate": "(0.3,0.1,0.5)", "slip_type": "Normal", "upper_seis_depth": "(0.0,,)", "downthrown_side_id": null, "reference": null, "epistemic_quality": null, "accuracy": null, "activity_confidence": null, "fs_name": null, "last_movement": null, "downthrown_side_dir": null, "vert_sep_rate": null, "strike_slip_rate": null, "exposure_quality": null, "shortening_rate": null, "notes": null, "index_right": 79, "NAME_EN": "Greece" }, "geometry": { "type": "LineString", "coordinates": [ [ 22.760172, 40.505748 ], [ 22.834443, 40.507171 ], [ 22.849897, 40.50608 ], [ 22.870203, 40.498988 ], [ 22.891227, 40.499261 ], [ 22.916025, 40.501988 ], [ 22.974375, 40.498511 ], [ 23.021311, 40.491035 ], [ 23.088533, 40.474031 ], [ 23.124224, 40.469317 ], [ 23.147286, 40.464602 ], [ 23.166087, 40.460288 ], [ 23.197391, 40.448857 ], [ 23.219768, 40.444029 ] ] } },
{ "type": "Feature", "properties": { "average_dip": "(72.5,60,85)", "average_rake": "(-47,-60,-35)", "catalog_id": "EUR_GRCS260", "catalog_name": "SHARE", "dip_dir": null, "lower_seis_depth": "(16.0,,)", "name": null, "net_slip_rate": "(0.6,0.3,0.8)", "slip_type": "Sinistral-Normal", "upper_seis_depth": "(0.0,,)", "downthrown_side_id": null, "reference": null, "epistemic_quality": null, "accuracy": null, "activity_confidence": null, "fs_name": null, "last_movement": null, "downthrown_side_dir": null, "vert_sep_rate": null, "strike_slip_rate": null, "exposure_quality": null, "shortening_rate": null, "notes": null, "index_right": 79, "NAME_EN": "Greece" }, "geometry": { "type": "LineString", "coordinates": [ [ 23.962634, 40.341147 ], [ 23.842485, 40.371716 ], [ 23.831306, 40.376515 ], [ 23.794414, 40.397458 ], [ 23.731633, 40.421611 ], [ 23.699425, 40.43686 ], [ 23.679361, 40.4484 ], [ 23.649265, 40.471479 ] ] } },
{ "type": "Feature", "properties": { "average_dip": "(65.0,50,80)", "average_rake": "(-100,-120,-80)", "catalog_id": "EUR_GRCS265", "catalog_name": "SHARE", "dip_dir": null, "lower_seis_depth": "(15.5,,)", "name": null, "net_slip_rate": "(0.7,0.5,0.8)", "slip_type": "Normal", "upper_seis_depth": "(0.0,,)", "downthrown_side_id": null, "reference": null, "epistemic_quality": null, "accuracy": null, "activity_confidence": null, "fs_name": null, "last_movement": null, "downthrown_side_dir": null, "vert_sep_rate": null, "strike_slip_rate": null, "exposure_quality": null, "shortening_rate": null, "notes": null, "index_right": 79, "NAME_EN": "Greece" }, "geometry": { "type": "LineString", "coordinates": [ [ 23.6975, 40.198386 ], [ 24.024442, 40.141355 ] ] } },
{ "type": "Feature", "properties": { "average_dip": "(60.0,45,75)", "average_rake": "(-60,-80,-40)", "catalog_id": "EUR_GRCS270", "catalog_name": "SHARE", "dip_dir": null, "lower_seis_depth": "(16.0,,)", "name": null, "net_slip_rate": "(0.6,0.6,0.7)", "slip_type": "Sinistral-Normal", "upper_seis_depth": "(0.0,,)", "downthrown_side_id": null, "reference": null, "epistemic_quality": null, "accuracy": null, "activity_confidence": null, "fs_name": null, "last_movement": null, "downthrown_side_dir": null, "vert_sep_rate": null, "strike_slip_rate": null, "exposure_quality": null, "shortening_rate": null, "notes": null, "index_right": 79, "NAME_EN": "Greece" }, "geometry": { "type": "LineString", "coordinates": [ [ 23.574098, 40.388899 ], [ 23.660884, 40.37466 ], [ 23.685759, 40.369051 ], [ 23.735508, 40.354381 ], [ 23.785258, 40.335828 ], [ 23.940588, 40.300878 ], [ 23.992429, 40.292363 ], [ 24.132884, 40.280953 ], [ 24.217295, 40.281395 ], [ 24.257441, 40.285992 ] ] } },
{ "type": "Feature", "properties": { "average_dip": "(60.0,45,75)", "average_rake": "(-95,-110,-80)", "catalog_id": "EUR_GRCS300", "catalog_name": "SHARE", "dip_dir": null, "lower_seis_depth": "(14.0,,)", "name": null, "net_slip_rate": "(0.2,0.1,0.4)", "slip_type": "Normal", "upper_seis_depth": "(0.0,,)", "downthrown_side_id": null, "reference": null, "epistemic_quality": null, "accuracy": null, "activity_confidence": null, "fs_name": null, "last_movement": null, "downthrown_side_dir": null, "vert_sep_rate": null, "strike_slip_rate": null, "exposure_quality": null, "shortening_rate": null, "notes": null, "index_right": 79, "NAME_EN": "Greece" }, "geometry": { "type": "LineString", "coordinates": [ [ 20.561156, 39.929528 ], [ 20.664378, 39.988466 ], [ 20.692184, 40.011013 ], [ 20.725437, 40.03017 ], [ 20.761742, 40.046652 ], [ 20.783664, 40.062924 ] ] } },
{ "type": "Feature", "properties": { "average_dip": "(85.0,80,90)", "average_rake": "(-10,-30,10)", "catalog_id": "EUR_GRCS310", "catalog_name": "SHARE", "dip_dir": null, "lower_seis_depth": "(16.0,,)", "name": null, "net_slip_rate": "(0.2,0.1,0.3)", "slip_type": "Sinistral", "upper_seis_depth": "(0.0,,)", "downthrown_side_id": null, "reference": null, "epistemic_quality": null, "accuracy": null, "activity_confidence": null, "fs_name": null, "last_movement": null, "downthrown_side_dir": null, "vert_sep_rate": null, "strike_slip_rate": null, "exposure_quality": null, "shortening_rate": null, "notes": null, "index_right": 79, "NAME_EN": "Greece" }, "geometry": { "type": "LineString", "coordinates": [ [ 20.43492, 39.491748 ], [ 20.469233, 39.498725 ], [ 20.554069, 39.507155 ], [ 20.597831, 39.513281 ], [ 20.633374, 39.511474 ], [ 20.667054, 39.501684 ], [ 20.683956, 39.501381 ], [ 20.80771, 39.51236 ], [ 20.840281, 39.518657 ], [ 20.853062, 39.525792 ], [ 20.871777, 39.541081 ] ] } },
{ "type": "Feature", "properties": { "average_dip": "(57.5,40,75)", "average_rake": "(-90,-100,-80)", "catalog_id": "EUR_GRCS330", "catalog_name": "SHARE", "dip_dir": null, "lower_seis_depth": "(12.0,,)", "name": null, "net_slip_rate": "(0.5,0.4,0.6)", "slip_type": "Normal", "upper_seis_depth": "(0.0,,)", "downthrown_side_id": null, "reference": null, "epistemic_quality": null, "accuracy": null, "activity_confidence": null, "fs_name": null, "last_movement": null, "downthrown_side_dir": null, "vert_sep_rate": null, "strike_slip_rate": null, "exposure_quality": null, "shortening_rate": null, "notes": null, "index_right": 79, "NAME_EN": "Greece" }, "geometry": { "type": "LineString", "coordinates": [ [ 21.021546, 39.178116 ], [ 20.947578, 39.168636 ], [ 20.896254, 39.167452 ], [ 20.834362, 39.168636 ], [ 20.796624, 39.173376 ], [ 20.721147, 39.173376 ] ] } },
{ "type": "Feature", "properties": { "average_dip": "(70.0,55,85)", "average_rake": "(-22,-40,-5)", "catalog_id": "EUR_GRCS350", "catalog_name": "SHARE", "dip_dir": null, "lower_seis_depth": "(15.0,,)", "name": null, "net_slip_rate": "(0.6,0.3,0.9)", "slip_type": "Sinistral", "upper_seis_depth": "(0.0,,)", "downthrown_side_id": null, "reference": null, "epistemic_quality": null, "accuracy": null, "activity_confidence": null, "fs_name": null, "last_movement": null, "downthrown_side_dir": null, "vert_sep_rate": null, "strike_slip_rate": null, "exposure_quality": null, "shortening_rate": null, "notes": null, "index_right": 79, "NAME_EN": "Greece" }, "geometry": { "type": "LineString", "coordinates": [ [ 20.982298, 39.061992 ], [ 21.047208, 38.910321 ], [ 21.07287, 38.865293 ], [ 21.087964, 38.84278 ], [ 21.131742, 38.787088 ], [ 21.187594, 38.729026 ], [ 21.20269, 38.710067 ], [ 21.211746, 38.680444 ], [ 21.211746, 38.649636 ], [ 21.219294, 38.629492 ], [ 21.249484, 38.56906 ] ] } },
{ "type": "Feature", "properties": { "average_dip": "(60.0,45,75)", "average_rake": "(-85,-100,-70)", "catalog_id": "EUR_GRCS355", "catalog_name": "SHARE", "dip_dir": null, "lower_seis_depth": "(15.0,,)", "name": null, "net_slip_rate": "(1.3,0.4,2.2)", "slip_type": "Normal", "upper_seis_depth": "(0.0,,)", "downthrown_side_id": null, "reference": null, "epistemic_quality": null, "accuracy": null, "activity_confidence": null, "fs_name": null, "last_movement": null, "downthrown_side_dir": null, "vert_sep_rate": null, "strike_slip_rate": null, "exposure_quality": null, "shortening_rate": null, "notes": null, "index_right": 79, "NAME_EN": "Greece" }, "geometry": { "type": "LineString", "coordinates": [ [ 21.243935, 38.593919 ], [ 21.288864, 38.583843 ], [ 21.317747, 38.574606 ], [ 21.34449, 38.56453 ], [ 21.383, 38.541858 ], [ 21.410813, 38.53598 ], [ 21.452533, 38.528423 ], [ 21.488903, 38.525064 ], [ 21.511368, 38.530102 ], [ 21.528483, 38.530102 ], [ 21.598015, 38.521705 ] ] } },
{ "type": "Feature", "properties": { "average_dip": "(70.0,60,80)", "average_rake": "(-45,-60,-30)", "catalog_id": "EUR_GRCS357", "catalog_name": "SHARE", "dip_dir": null, "lower_seis_depth": "(14.0,,)", "name": null, "net_slip_rate": "(0.6,0.1,1.0)", "slip_type": "Sinistral-Normal", "upper_seis_depth": "(0.0,,)", "downthrown_side_id": null, "reference": null, "epistemic_quality": null, "accuracy": null, "activity_confidence": null, "fs_name": null, "last_movement": null, "downthrown_side_dir": null, "vert_sep_rate": null, "strike_slip_rate": null, "exposure_quality": null, "shortening_rate": null, "notes": null, "index_right": 79, "NAME_EN": "Greece" }, "geometry": { "type": "LineString", "coordinates": [ [ 21.806534, 38.386806 ], [ 21.746316, 38.428167 ], [ 21.703662, 38.453771 ], [ 21.648462, 38.477405 ], [ 21.6171, 38.498085 ], [ 21.599536, 38.520735 ] ] } },
{ "type": "Feature", "properties": { "average_dip": "(75.0,65,85)", "average_rake": "(-135,-170,-100)", "catalog_id": "EUR_GRCS390", "catalog_name": "SHARE", "dip_dir": null, "lower_seis_depth": "(12.0,,)", "name": null, "net_slip_rate": "(0.6,0.1,1.0)", "slip_type": "Dextral-Normal", "upper_seis_depth": "(0.0,,)", "downthrown_side_id": null, "reference": null, "epistemic_quality": null, "accuracy": null, "activity_confidence": null, "fs_name": null, "last_movement": null, "downthrown_side_dir": null, "vert_sep_rate": null, "strike_slip_rate": null, "exposure_quality": null, "shortening_rate": null, "notes": null, "index_right": 79, "NAME_EN": "Greece" }, "geometry": { "type": "LineString", "coordinates": [ [ 19.646994, 39.698683 ], [ 19.71654, 39.709443 ], [ 19.730845, 39.712915 ], [ 19.757872, 39.722676 ], [ 19.903566, 39.727872 ], [ 19.917195, 39.729878 ], [ 19.931443, 39.735325 ], [ 19.954204, 39.74095 ], [ 20.068962, 39.753301 ] ] } },
{ "type": "Feature", "properties": { "average_dip": "(55.0,40,70)", "average_rake": "(-90,-100,-80)", "catalog_id": "EUR_GRCS400", "catalog_name": "SHARE", "dip_dir": null, "lower_seis_depth": "(13.5,,)", "name": null, "net_slip_rate": "(0.7,0.5,0.8)", "slip_type": "Normal", "upper_seis_depth": "(0.0,,)", "downthrown_side_id": null, "reference": null, "epistemic_quality": null, "accuracy": null, "activity_confidence": null, "fs_name": null, "last_movement": null, "downthrown_side_dir": null, "vert_sep_rate": null, "strike_slip_rate": null, "exposure_quality": null, "shortening_rate": null, "notes": null, "index_right": 79, "NAME_EN": "Greece" }, "geometry": { "type": "LineString", "coordinates": [ [ 21.980609, 38.91448 ], [ 22.046966, 38.909252 ], [ 22.082885, 38.910678 ], [ 22.125344, 38.906405 ], [ 22.219603, 38.880417 ], [ 22.292915, 38.873613 ], [ 22.414365, 38.85077 ] ] } },
{ "type": "Feature", "properties": { "average_dip": "(57.5,45,70)", "average_rake": "(-90,-100,-80)", "catalog_id": "EUR_GRCS405", "catalog_name": "SHARE", "dip_dir": null, "lower_seis_depth": "(13.0,,)", "name": null, "net_slip_rate": "(0.9,0.7,1.2)", "slip_type": "Normal", "upper_seis_depth": "(0.0,,)", "downthrown_side_id": null, "reference": null, "epistemic_quality": null, "accuracy": null, "activity_confidence": null, "fs_name": null, "last_movement": null, "downthrown_side_dir": null, "vert_sep_rate": null, "strike_slip_rate": null, "exposure_quality": null, "shortening_rate": null, "notes": null, "index_right": 79, "NAME_EN": "Greece" }, "geometry": { "type": "LineString", "coordinates": [ [ 22.394982, 38.828343 ], [ 22.464638, 38.811268 ], [ 22.508965, 38.80318 ], [ 22.530841, 38.800034 ], [ 22.605221, 38.799958 ], [ 22.686842, 38.787819 ], [ 22.711084, 38.780887 ], [ 22.736109, 38.777149 ], [ 22.755938, 38.775722 ], [ 22.790694, 38.770374 ], [ 22.803076, 38.770972 ], [ 22.859772, 38.758382 ], [ 22.931028, 38.74713 ], [ 22.960271, 38.743593 ], [ 23.008049, 38.741986 ], [ 23.046766, 38.743593 ] ] } },
{ "type": "Feature", "properties": { "average_dip": "(62.5,45,80)", "average_rake": "(-85,-100,-70)", "catalog_id": "EUR_GRCS410", "catalog_name": "SHARE", "dip_dir": null, "lower_seis_depth": "(12.5,,)", "name": null, "net_slip_rate": "(1.0,0.4,1.6)", "slip_type": "Normal", "upper_seis_depth": "(0.0,,)", "downthrown_side_id": null, "reference": null, "epistemic_quality": null, "accuracy": null, "activity_confidence": null, "fs_name": null, "last_movement": null, "downthrown_side_dir": null, "vert_sep_rate": null, "strike_slip_rate": null, "exposure_quality": null, "shortening_rate": null, "notes": null, "index_right": 79, "NAME_EN": "Greece" }, "geometry": { "type": "LineString", "coordinates": [ [ 23.441673, 38.498789 ], [ 23.334355, 38.521083 ], [ 23.273772, 38.547429 ], [ 23.212994, 38.582321 ], [ 23.180482, 38.598308 ], [ 23.158524, 38.607316 ], [ 23.095798, 38.625437 ], [ 23.064626, 38.637316 ], [ 23.000134, 38.652738 ], [ 22.904702, 38.680381 ], [ 22.866262, 38.687962 ], [ 22.829619, 38.69022 ], [ 22.78285, 38.704145 ], [ 22.738011, 38.71393 ], [ 22.729814, 38.718823 ], [ 22.710046, 38.726726 ], [ 22.69076, 38.732747 ], [ 22.670992, 38.735758 ], [ 22.635795, 38.737264 ], [ 22.60542, 38.747801 ], [ 22.580349, 38.751565 ], [ 22.531079, 38.754511 ], [ 22.491764, 38.75942 ] ] } },
{ "type": "Feature", "properties": { "average_dip": "(55.0,40,70)", "average_rake": "(-85,-100,-70)", "catalog_id": "EUR_GRCS415", "catalog_name": "SHARE", "dip_dir": null, "lower_seis_depth": "(13.0,,)", "name": null, "net_slip_rate": "(0.5,0.4,0.6)", "slip_type": "Normal", "upper_seis_depth": "(0.0,,)", "downthrown_side_id": null, "reference": null, "epistemic_quality": null, "accuracy": null, "activity_confidence": null, "fs_name": null, "last_movement": null, "downthrown_side_dir": null, "vert_sep_rate": null, "strike_slip_rate": null, "exposure_quality": null, "shortening_rate": null, "notes": null, "index_right": 79, "NAME_EN": "Greece" }, "geometry": { "type": "LineString", "coordinates": [ [ 23.954717, 38.282076 ], [ 23.905598, 38.296372 ], [ 23.763237, 38.326915 ], [ 23.702312, 38.342243 ], [ 23.664729, 38.354291 ], [ 23.627146, 38.371578 ], [ 23.604999, 38.384151 ], [ 23.578826, 38.402486 ] ] } },
{ "type": "Feature", "properties": { "average_dip": "(57.5,45,70)", "average_rake": "(-85,-100,-70)", "catalog_id": "EUR_GRCS418", "catalog_name": "SHARE", "dip_dir": null, "lower_seis_depth": "(13.0,,)", "name": null, "net_slip_rate": "(0.4,0.3,0.6)", "slip_type": "Normal", "upper_seis_depth": "(0.0,,)", "downthrown_side_id": null, "reference": null, "epistemic_quality": null, "accuracy": null, "activity_confidence": null, "fs_name": null, "last_movement": null, "downthrown_side_dir": null, "vert_sep_rate": null, "strike_slip_rate": null, "exposure_quality": null, "shortening_rate": null, "notes": null, "index_right": 79, "NAME_EN": "Greece" }, "geometry": { "type": "LineString", "coordinates": [ [ 23.585537, 38.317098 ], [ 23.544599, 38.330194 ], [ 23.496278, 38.338052 ], [ 23.457353, 38.342243 ], [ 23.390912, 38.34591 ] ] } },
{ "type": "Feature", "properties": { "average_dip": "(60.0,50,70)", "average_rake": "(-90,-100,-80)", "catalog_id": "EUR_GRCS420", "catalog_name": "SHARE", "dip_dir": null, "lower_seis_depth": "(13.5,,)", "name": null, "net_slip_rate": "(0.4,0.3,0.6)", "slip_type": "Normal", "upper_seis_depth": "(0.0,,)", "downthrown_side_id": null, "reference": null, "epistemic_quality": null, "accuracy": null, "activity_confidence": null, "fs_name": null, "last_movement": null, "downthrown_side_dir": null, "vert_sep_rate": null, "strike_slip_rate": null, "exposure_quality": null, "shortening_rate": null, "notes": null, "index_right": 79, "NAME_EN": "Greece" }, "geometry": { "type": "LineString", "coordinates": [ [ 23.72828, 38.24096 ], [ 23.633256, 38.26202 ], [ 23.568088, 38.273619 ], [ 23.518425, 38.27781 ], [ 23.477822, 38.270476 ], [ 23.444266, 38.260261 ], [ 23.379168, 38.230925 ] ] } },
{ "type": "Feature", "properties": { "average_dip": "(55.0,40,70)", "average_rake": "(-90,-100,-80)", "catalog_id": "EUR_GRCS425", "catalog_name": "SHARE", "dip_dir": null, "lower_seis_depth": "(12.5,,)", "name": null, "net_slip_rate": "(0.6,0.4,0.7)", "slip_type": "Normal", "upper_seis_depth": "(0.0,,)", "downthrown_side_id": null, "reference": null, "epistemic_quality": null, "accuracy": null, "activity_confidence": null, "fs_name": null, "last_movement": null, "downthrown_side_dir": null, "vert_sep_rate": null, "strike_slip_rate": null, "exposure_quality": null, "shortening_rate": null, "notes": null, "index_right": 79, "NAME_EN": "Greece" }, "geometry": { "type": "LineString", "coordinates": [ [ 22.682583, 38.304776 ], [ 22.727132, 38.298838 ], [ 22.763077, 38.29169 ], [ 22.862906, 38.27935 ], [ 22.940192, 38.261983 ], [ 22.96654, 38.258784 ], [ 22.995815, 38.259241 ], [ 23.035629, 38.268381 ], [ 23.073101, 38.286205 ], [ 23.108817, 38.298545 ], [ 23.130481, 38.301744 ], [ 23.181419, 38.299459 ], [ 23.21128, 38.301287 ], [ 23.238213, 38.305857 ], [ 23.268659, 38.31774 ], [ 23.286225, 38.321853 ] ] } },
{ "type": "Feature", "properties": { "average_dip": "(57.5,45,70)", "average_rake": "(-90,-100,-80)", "catalog_id": "EUR_GRCS430", "catalog_name": "SHARE", "dip_dir": null, "lower_seis_depth": "(12.5,,)", "name": null, "net_slip_rate": "(0.8,0.5,1.0)", "slip_type": "Normal", "upper_seis_depth": "(0.0,,)", "downthrown_side_id": null, "reference": null, "epistemic_quality": null, "accuracy": null, "activity_confidence": null, "fs_name": null, "last_movement": null, "downthrown_side_dir": null, "vert_sep_rate": null, "strike_slip_rate": null, "exposure_quality": null, "shortening_rate": null, "notes": null, "index_right": 79, "NAME_EN": "Greece" }, "geometry": { "type": "LineString", "coordinates": [ [ 22.698234, 38.523002 ], [ 22.610801, 38.494406 ], [ 22.55185, 38.485047 ], [ 22.523368, 38.482967 ], [ 22.500847, 38.484007 ], [ 22.481639, 38.487126 ], [ 22.40944, 38.510004 ] ] } },
{ "type": "Feature", "properties": { "average_dip": "(60.0,45,75)", "average_rake": "(-90,-100,-80)", "catalog_id": "EUR_GRCS432", "catalog_name": "SHARE", "dip_dir": null, "lower_seis_depth": "(13.0,,)", "name": null, "net_slip_rate": "(0.8,0.5,1.1)", "slip_type": "Normal", "upper_seis_depth": "(0.0,,)", "downthrown_side_id": null, "reference": null, "epistemic_quality": null, "accuracy": null, "activity_confidence": null, "fs_name": null, "last_movement": null, "downthrown_side_dir": null, "vert_sep_rate": null, "strike_slip_rate": null, "exposure_quality": null, "shortening_rate": null, "notes": null, "index_right": 79, "NAME_EN": "Greece" }, "geometry": { "type": "LineString", "coordinates": [ [ 22.413778, 38.650834 ], [ 22.367515, 38.666147 ], [ 22.342991, 38.67096 ], [ 22.30286, 38.673585 ], [ 22.276105, 38.680148 ], [ 22.260499, 38.682336 ], [ 22.241548, 38.689336 ], [ 22.215351, 38.695899 ] ] } },
{ "type": "Feature", "properties": { "average_dip": "(62.5,45,80)", "average_rake": "(-90,-100,-80)", "catalog_id": "EUR_GRCS433", "catalog_name": "SHARE", "dip_dir": null, "lower_seis_depth": "(13.0,,)", "name": null, "net_slip_rate": "(0.8,0.5,1.1)", "slip_type": "Normal", "upper_seis_depth": "(0.0,,)", "downthrown_side_id": null, "reference": null, "epistemic_quality": null, "accuracy": null, "activity_confidence": null, "fs_name": null, "last_movement": null, "downthrown_side_dir": null, "vert_sep_rate": null, "strike_slip_rate": null, "exposure_quality": null, "shortening_rate": null, "notes": null, "index_right": 79, "NAME_EN": "Greece" }, "geometry": { "type": "LineString", "coordinates": [ [ 22.513429, 38.625985 ], [ 22.481221, 38.649521 ], [ 22.458368, 38.66921 ], [ 22.417679, 38.686711 ] ] } },
{ "type": "Feature", "properties": { "average_dip": "(62.5,45,80)", "average_rake": "(-75,-90,-60)", "catalog_id": "EUR_GRCS434", "catalog_name": "SHARE", "dip_dir": null, "lower_seis_depth": "(13.0,,)", "name": null, "net_slip_rate": "(0.7,0.4,0.9)", "slip_type": "Normal", "upper_seis_depth": "(0.0,,)", "downthrown_side_id": null, "reference": null, "epistemic_quality": null, "accuracy": null, "activity_confidence": null, "fs_name": null, "last_movement": null, "downthrown_side_dir": null, "vert_sep_rate": null, "strike_slip_rate": null, "exposure_quality": null, "shortening_rate": null, "notes": null, "index_right": 79, "NAME_EN": "Greece" }, "geometry": { "type": "LineString", "coordinates": [ [ 22.737286, 38.563578 ], [ 22.71879, 38.56655 ], [ 22.679621, 38.580563 ], [ 22.629028, 38.615383 ], [ 22.609988, 38.624725 ], [ 22.596388, 38.637464 ], [ 22.569187, 38.656997 ], [ 22.547427, 38.668462 ] ] } },
{ "type": "Feature", "properties": { "average_dip": "(65.0,50,80)", "average_rake": "(-95,-100,-90)", "catalog_id": "EUR_GRCS436", "catalog_name": "SHARE", "dip_dir": null, "lower_seis_depth": "(11.0,,)", "name": null, "net_slip_rate": "(0.6,0.1,1.0)", "slip_type": "Normal", "upper_seis_depth": "(0.0,,)", "downthrown_side_id": null, "reference": null, "epistemic_quality": null, "accuracy": null, "activity_confidence": null, "fs_name": null, "last_movement": null, "downthrown_side_dir": null, "vert_sep_rate": null, "strike_slip_rate": null, "exposure_quality": null, "shortening_rate": null, "notes": null, "index_right": 79, "NAME_EN": "Greece" }, "geometry": { "type": "LineString", "coordinates": [ [ 22.297054, 38.400062 ], [ 22.247439, 38.398965 ], [ 22.228572, 38.40061 ], [ 22.208307, 38.411032 ], [ 22.192235, 38.414323 ], [ 22.153102, 38.417066 ] ] } },
{ "type": "Feature", "properties": { "average_dip": "(65.0,50,80)", "average_rake": "(-95,-100,-90)", "catalog_id": "EUR_GRCS437", "catalog_name": "SHARE", "dip_dir": null, "lower_seis_depth": "(10.5,,)", "name": null, "net_slip_rate": "(0.6,0.1,1.0)", "slip_type": "Normal", "upper_seis_depth": "(0.0,,)", "downthrown_side_id": null, "reference": null, "epistemic_quality": null, "accuracy": null, "activity_confidence": null, "fs_name": null, "last_movement": null, "downthrown_side_dir": null, "vert_sep_rate": null, "strike_slip_rate": null, "exposure_quality": null, "shortening_rate": null, "notes": null, "index_right": 79, "NAME_EN": "Greece" }, "geometry": { "type": "LineString", "coordinates": [ [ 22.429825, 38.468628 ], [ 22.411656, 38.468628 ], [ 22.291463, 38.446687 ] ] } },
{ "type": "Feature", "properties": { "average_dip": "(65.0,50,80)", "average_rake": "(-85,-100,-70)", "catalog_id": "EUR_GRCS438", "catalog_name": "SHARE", "dip_dir": null, "lower_seis_depth": "(10.0,,)", "name": null, "net_slip_rate": "(1.2,0.5,2.0)", "slip_type": "Normal", "upper_seis_depth": "(0.0,,)", "downthrown_side_id": null, "reference": null, "epistemic_quality": null, "accuracy": null, "activity_confidence": null, "fs_name": null, "last_movement": null, "downthrown_side_dir": null, "vert_sep_rate": null, "strike_slip_rate": null, "exposure_quality": null, "shortening_rate": null, "notes": null, "index_right": 79, "NAME_EN": "Greece" }, "geometry": { "type": "LineString", "coordinates": [ [ 22.44945, 38.428572 ], [ 22.471746, 38.398821 ], [ 22.49404, 38.376944 ], [ 22.511876, 38.362069 ], [ 22.552008, 38.338442 ], [ 22.5665, 38.334067 ], [ 22.61332, 38.327942 ] ] } },
{ "type": "Feature", "properties": { "average_dip": "(65.0,50,80)", "average_rake": "(-107,-130,-85)", "catalog_id": "EUR_GRCS440", "catalog_name": "SHARE", "dip_dir": null, "lower_seis_depth": "(11.0,,)", "name": null, "net_slip_rate": "(0.6,0.1,1.0)", "slip_type": "Normal", "upper_seis_depth": "(0.0,,)", "downthrown_side_id": null, "reference": null, "epistemic_quality": null, "accuracy": null, "activity_confidence": null, "fs_name": null, "last_movement": null, "downthrown_side_dir": null, "vert_sep_rate": null, "strike_slip_rate": null, "exposure_quality": null, "shortening_rate": null, "notes": null, "index_right": 79, "NAME_EN": "Greece" }, "geometry": { "type": "LineString", "coordinates": [ [ 22.719222, 38.466199 ], [ 22.694697, 38.441698 ], [ 22.674632, 38.413696 ], [ 22.618894, 38.367319 ], [ 22.595484, 38.345443 ] ] } },
{ "type": "Feature", "properties": { "average_dip": "(65.0,50,80)", "average_rake": "(-90,-100,-80)", "catalog_id": "EUR_GRCS441", "catalog_name": "SHARE", "dip_dir": null, "lower_seis_depth": "(10.0,,)", "name": null, "net_slip_rate": "(0.6,0.1,1.0)", "slip_type": "Normal", "upper_seis_depth": "(0.0,,)", "downthrown_side_id": null, "reference": null, "epistemic_quality": null, "accuracy": null, "activity_confidence": null, "fs_name": null, "last_movement": null, "downthrown_side_dir": null, "vert_sep_rate": null, "strike_slip_rate": null, "exposure_quality": null, "shortening_rate": null, "notes": null, "index_right": 79, "NAME_EN": "Greece" }, "geometry": { "type": "LineString", "coordinates": [ [ 21.888171, 38.442136 ], [ 21.907679, 38.449573 ], [ 21.945023, 38.457886 ], [ 21.977909, 38.455261 ], [ 22.006335, 38.447823 ], [ 22.08604, 38.408884 ] ] } },
{ "type": "Feature", "properties": { "average_dip": "(65.0,50,80)", "average_rake": "(-90,-100,-80)", "catalog_id": "EUR_GRCS442", "catalog_name": "SHARE", "dip_dir": null, "lower_seis_depth": "(10.0,,)", "name": null, "net_slip_rate": "(0.6,0.1,1.0)", "slip_type": "Normal", "upper_seis_depth": "(0.0,,)", "downthrown_side_id": null, "reference": null, "epistemic_quality": null, "accuracy": null, "activity_confidence": null, "fs_name": null, "last_movement": null, "downthrown_side_dir": null, "vert_sep_rate": null, "strike_slip_rate": null, "exposure_quality": null, "shortening_rate": null, "notes": null, "index_right": 79, "NAME_EN": "Greece" }, "geometry": { "type": "LineString", "coordinates": [ [ 21.888171, 38.411509 ], [ 21.948368, 38.405821 ], [ 22.02863, 38.393133 ], [ 22.091614, 38.390508 ], [ 22.139548, 38.381757 ], [ 22.19027, 38.376945 ] ] } },
{ "type": "Feature", "properties": { "average_dip": "(67.5,50,85)", "average_rake": "(-95,-100,-90)", "catalog_id": "EUR_GRCS443", "catalog_name": "SHARE", "dip_dir": null, "lower_seis_depth": "(9.5,,)", "name": null, "net_slip_rate": "(0.6,0.1,1.0)", "slip_type": "Normal", "upper_seis_depth": "(0.0,,)", "downthrown_side_id": null, "reference": null, "epistemic_quality": null, "accuracy": null, "activity_confidence": null, "fs_name": null, "last_movement": null, "downthrown_side_dir": null, "vert_sep_rate": null, "strike_slip_rate": null, "exposure_quality": null, "shortening_rate": null, "notes": null, "index_right": 79, "NAME_EN": "Greece" }, "geometry": { "type": "LineString", "coordinates": [ [ 22.045488, 38.351713 ], [ 22.08462, 38.351713 ], [ 22.109777, 38.349517 ], [ 22.169873, 38.340733 ], [ 22.229969, 38.337439 ] ] } },
{ "type": "Feature", "properties": { "average_dip": "(62.5,45,80)", "average_rake": "(-80,-90,-70)", "catalog_id": "EUR_GRCS450", "catalog_name": "SHARE", "dip_dir": null, "lower_seis_depth": "(12.0,,)", "name": null, "net_slip_rate": "None", "slip_type": "Normal", "upper_seis_depth": "(0.0,,)", "downthrown_side_id": null, "reference": null, "epistemic_quality": null, "accuracy": null, "activity_confidence": null, "fs_name": null, "last_movement": null, "downthrown_side_dir": null, "vert_sep_rate": null, "strike_slip_rate": null, "exposure_quality": null, "shortening_rate": null, "notes": null, "index_right": 79, "NAME_EN": "Greece" }, "geometry": { "type": "LineString", "coordinates": [ [ 23.749558, 38.080418 ], [ 23.690886, 38.110176 ], [ 23.605136, 38.164734 ] ] } },
{ "type": "Feature", "properties": { "average_dip": "(60.0,45,75)", "average_rake": "(-90,-100,-80)", "catalog_id": "EUR_GRCS453", "catalog_name": "SHARE", "dip_dir": null, "lower_seis_depth": "(13.0,,)", "name": null, "net_slip_rate": "(0.6,0.2,1.0)", "slip_type": "Normal", "upper_seis_depth": "(0.0,,)", "downthrown_side_id": null, "reference": null, "epistemic_quality": null, "accuracy": null, "activity_confidence": null, "fs_name": null, "last_movement": null, "downthrown_side_dir": null, "vert_sep_rate": null, "strike_slip_rate": null, "exposure_quality": null, "shortening_rate": null, "notes": null, "index_right": 79, "NAME_EN": "Greece" }, "geometry": { "type": "LineString", "coordinates": [ [ 23.179095, 37.992273 ], [ 23.209299, 37.985772 ], [ 23.230735, 37.976212 ], [ 23.240478, 37.974682 ], [ 23.273118, 37.975829 ], [ 23.305271, 37.969711 ], [ 23.363244, 37.970858 ], [ 23.429012, 37.965887 ] ] } },
{ "type": "Feature", "properties": { "average_dip": "(62.5,45,80)", "average_rake": "(-100,-110,-90)", "catalog_id": "EUR_GRCS470", "catalog_name": "SHARE", "dip_dir": null, "lower_seis_depth": "(11.5,,)", "name": null, "net_slip_rate": "(0.7,0.5,0.8)", "slip_type": "Normal", "upper_seis_depth": "(0.0,,)", "downthrown_side_id": null, "reference": null, "epistemic_quality": null, "accuracy": null, "activity_confidence": null, "fs_name": null, "last_movement": null, "downthrown_side_dir": null, "vert_sep_rate": null, "strike_slip_rate": null, "exposure_quality": null, "shortening_rate": null, "notes": null, "index_right": 79, "NAME_EN": "Greece" }, "geometry": { "type": "LineString", "coordinates": [ [ 22.817177, 38.852427 ], [ 22.905573, 38.888368 ], [ 23.000603, 38.913297 ], [ 23.027943, 38.930421 ], [ 23.057486, 38.94523 ], [ 23.084888, 38.966939 ], [ 23.101951, 38.982946 ], [ 23.135277, 39.005187 ], [ 23.151536, 39.011422 ], [ 23.213518, 39.022564 ], [ 23.254134, 39.032086 ], [ 23.305147, 39.047847 ], [ 23.351082, 39.068794 ], [ 23.428142, 39.099832 ] ] } },
{ "type": "Feature", "properties": { "average_dip": "(67.5,55,80)", "average_rake": "(-85,-100,-70)", "catalog_id": "EUR_GRCS473", "catalog_name": "SHARE", "dip_dir": null, "lower_seis_depth": "(12.5,,)", "name": null, "net_slip_rate": "(0.6,0.5,0.7)", "slip_type": "Normal", "upper_seis_depth": "(0.0,,)", "downthrown_side_id": null, "reference": null, "epistemic_quality": null, "accuracy": null, "activity_confidence": null, "fs_name": null, "last_movement": null, "downthrown_side_dir": null, "vert_sep_rate": null, "strike_slip_rate": null, "exposure_quality": null, "shortening_rate": null, "notes": null, "index_right": 79, "NAME_EN": "Greece" }, "geometry": { "type": "LineString", "coordinates": [ [ 23.494466, 38.631873 ], [ 23.469355, 38.645334 ], [ 23.431892, 38.673277 ], [ 23.404419, 38.690822 ], [ 23.379443, 38.703169 ], [ 23.330324, 38.743459 ], [ 23.29286, 38.762954 ], [ 23.249569, 38.796746 ], [ 23.205445, 38.825988 ], [ 23.173809, 38.838335 ], [ 23.132183, 38.851982 ] ] } },
{ "type": "Feature", "properties": { "average_dip": "(40.0,20,60)", "average_rake": "(-90,-100,-80)", "catalog_id": "EUR_GRCS500", "catalog_name": "SHARE", "dip_dir": null, "lower_seis_depth": "(11.5,,)", "name": null, "net_slip_rate": "(2.6,0.3,5.0)", "slip_type": "Normal", "upper_seis_depth": "(0.0,,)", "downthrown_side_id": null, "reference": null, "epistemic_quality": null, "accuracy": null, "activity_confidence": null, "fs_name": null, "last_movement": null, "downthrown_side_dir": null, "vert_sep_rate": null, "strike_slip_rate": null, "exposure_quality": null, "shortening_rate": null, "notes": null, "index_right": 79, "NAME_EN": "Greece" }, "geometry": { "type": "LineString", "coordinates": [ [ 21.914349, 38.270413 ], [ 21.927393, 38.261905 ], [ 21.962703, 38.246402 ], [ 22.085187, 38.195584 ], [ 22.110566, 38.189555 ], [ 22.14698, 38.181803 ], [ 22.240773, 38.174052 ], [ 22.359347, 38.16999 ] ] } },
{ "type": "Feature", "properties": { "average_dip": "(55.0,35,75)", "average_rake": "(-95,-105,-85)", "catalog_id": "EUR_GRCS505", "catalog_name": "SHARE", "dip_dir": null, "lower_seis_depth": "(12.0,,)", "name": null, "net_slip_rate": "(3.0,1.0,5.0)", "slip_type": "Normal", "upper_seis_depth": "(0.0,,)", "downthrown_side_id": null, "reference": null, "epistemic_quality": null, "accuracy": null, "activity_confidence": null, "fs_name": null, "last_movement": null, "downthrown_side_dir": null, "vert_sep_rate": null, "strike_slip_rate": null, "exposure_quality": null, "shortening_rate": null, "notes": null, "index_right": 79, "NAME_EN": "Greece" }, "geometry": { "type": "LineString", "coordinates": [ [ 21.759632, 38.319266 ], [ 21.78893, 38.318977 ], [ 21.820168, 38.322062 ], [ 21.894462, 38.323488 ], [ 21.938213, 38.327391 ], [ 21.995885, 38.328952 ] ] } },
{ "type": "Feature", "properties": { "average_dip": "(47.5,30,65)", "average_rake": "(-87,-100,-75)", "catalog_id": "EUR_GRCS510", "catalog_name": "SHARE", "dip_dir": null, "lower_seis_depth": "(12.0,,)", "name": null, "net_slip_rate": "(11.5,9.0,14.0)", "slip_type": "Normal", "upper_seis_depth": "(0.0,,)", "downthrown_side_id": null, "reference": null, "epistemic_quality": null, "accuracy": null, "activity_confidence": null, "fs_name": null, "last_movement": null, "downthrown_side_dir": null, "vert_sep_rate": null, "strike_slip_rate": null, "exposure_quality": null, "shortening_rate": null, "notes": null, "index_right": 79, "NAME_EN": "Greece" }, "geometry": { "type": "LineString", "coordinates": [ [ 22.786911, 38.043071 ], [ 22.739667, 38.049846 ], [ 22.699433, 38.058824 ], [ 22.596869, 38.095181 ], [ 22.548001, 38.116104 ], [ 22.503575, 38.131548 ], [ 22.47565, 38.137028 ], [ 22.3722, 38.146494 ] ] } },
{ "type": "Feature", "properties": { "average_dip": "(57.5,40,75)", "average_rake": "(-97,-105,-90)", "catalog_id": "EUR_GRCS518", "catalog_name": "SHARE", "dip_dir": null, "lower_seis_depth": "(13.0,,)", "name": null, "net_slip_rate": "(3.0,1.0,5.0)", "slip_type": "Normal", "upper_seis_depth": "(0.0,,)", "downthrown_side_id": null, "reference": null, "epistemic_quality": null, "accuracy": null, "activity_confidence": null, "fs_name": null, "last_movement": null, "downthrown_side_dir": null, "vert_sep_rate": null, "strike_slip_rate": null, "exposure_quality": null, "shortening_rate": null, "notes": null, "index_right": 79, "NAME_EN": "Greece" }, "geometry": { "type": "LineString", "coordinates": [ [ 23.279358, 38.103352 ], [ 23.219887, 38.095478 ], [ 23.199108, 38.087041 ], [ 23.15755, 38.065668 ], [ 23.113842, 38.048233 ], [ 23.079449, 38.039796 ], [ 23.060104, 38.030797 ], [ 22.981287, 38.013924 ], [ 22.96409, 38.014486 ], [ 22.939012, 38.019548 ], [ 22.881245, 38.024294 ], [ 22.844432, 38.022923 ] ] } },
{ "type": "Feature", "properties": { "average_dip": "(60.0,45,75)", "average_rake": "(-90,-100,-80)", "catalog_id": "EUR_GRCS520", "catalog_name": "SHARE", "dip_dir": null, "lower_seis_depth": "(13.5,,)", "name": null, "net_slip_rate": "(0.2,0.2,0.3)", "slip_type": "Normal", "upper_seis_depth": "(0.0,,)", "downthrown_side_id": null, "reference": null, "epistemic_quality": null, "accuracy": null, "activity_confidence": null, "fs_name": null, "last_movement": null, "downthrown_side_dir": null, "vert_sep_rate": null, "strike_slip_rate": null, "exposure_quality": null, "shortening_rate": null, "notes": null, "index_right": 79, "NAME_EN": "Greece" }, "geometry": { "type": "LineString", "coordinates": [ [ 22.763848, 38.20897 ], [ 22.801583, 38.206774 ], [ 22.828137, 38.201284 ], [ 22.85293, 38.188955 ], [ 22.887855, 38.179816 ], [ 22.928458, 38.173309 ], [ 23.014874, 38.171743 ], [ 23.05343, 38.175396 ], [ 23.073372, 38.180614 ], [ 23.093058, 38.192538 ], [ 23.110421, 38.214053 ], [ 23.120508, 38.222961 ], [ 23.13984, 38.233848 ], [ 23.150768, 38.237806 ], [ 23.172622, 38.238796 ], [ 23.190273, 38.231208 ], [ 23.2012, 38.228899 ], [ 23.233562, 38.229889 ], [ 23.265923, 38.235167 ] ] } },
{ "type": "Feature", "properties": { "average_dip": "(60.0,45,75)", "average_rake": "(-90,-100,-80)", "catalog_id": "EUR_GRCS522", "catalog_name": "SHARE", "dip_dir": null, "lower_seis_depth": "(12.5,,)", "name": null, "net_slip_rate": "(0.3,0.1,0.5)", "slip_type": "Normal", "upper_seis_depth": "(0.0,,)", "downthrown_side_id": null, "reference": null, "epistemic_quality": null, "accuracy": null, "activity_confidence": null, "fs_name": null, "last_movement": null, "downthrown_side_dir": null, "vert_sep_rate": null, "strike_slip_rate": null, "exposure_quality": null, "shortening_rate": null, "notes": null, "index_right": 79, "NAME_EN": "Greece" }, "geometry": { "type": "LineString", "coordinates": [ [ 23.04719, 37.982774 ], [ 23.017942, 37.983296 ], [ 22.976728, 37.989557 ], [ 22.960109, 37.994253 ], [ 22.917565, 38.013038 ], [ 22.884993, 38.020865 ] ] } },
{ "type": "Feature", "properties": { "average_dip": "(50.0,35,65)", "average_rake": "(-90,-100,-80)", "catalog_id": "EUR_GRCS524", "catalog_name": "SHARE", "dip_dir": null, "lower_seis_depth": "(10.0,,)", "name": null, "net_slip_rate": "(1.2,0.5,2.0)", "slip_type": "Normal", "upper_seis_depth": "(0.0,,)", "downthrown_side_id": null, "reference": null, "epistemic_quality": null, "accuracy": null, "activity_confidence": null, "fs_name": null, "last_movement": null, "downthrown_side_dir": null, "vert_sep_rate": null, "strike_slip_rate": null, "exposure_quality": null, "shortening_rate": null, "notes": null, "index_right": 79, "NAME_EN": "Greece" }, "geometry": { "type": "LineString", "coordinates": [ [ 22.013882, 38.150176 ], [ 22.033597, 38.143871 ], [ 22.067186, 38.13642 ], [ 22.08179, 38.130115 ], [ 22.094203, 38.121517 ], [ 22.113188, 38.114066 ], [ 22.131443, 38.110627 ], [ 22.15992, 38.102603 ], [ 22.190588, 38.089993 ], [ 22.220526, 38.083115 ], [ 22.247543, 38.079103 ] ] } },
{ "type": "Feature", "properties": { "average_dip": "(60.0,45,75)", "average_rake": "(-95,-100,-90)", "catalog_id": "EUR_GRCS540", "catalog_name": "SHARE", "dip_dir": null, "lower_seis_depth": "(13.0,,)", "name": null, "net_slip_rate": "(0.6,0.1,1.0)", "slip_type": "Normal", "upper_seis_depth": "(0.0,,)", "downthrown_side_id": null, "reference": null, "epistemic_quality": null, "accuracy": null, "activity_confidence": null, "fs_name": null, "last_movement": null, "downthrown_side_dir": null, "vert_sep_rate": null, "strike_slip_rate": null, "exposure_quality": null, "shortening_rate": null, "notes": null, "index_right": 79, "NAME_EN": "Greece" }, "geometry": { "type": "LineString", "coordinates": [ [ 22.864419, 37.81884 ], [ 22.895513, 37.829395 ], [ 22.928288, 37.835332 ], [ 23.046781, 37.849184 ], [ 23.083757, 37.846546 ], [ 23.167794, 37.847205 ] ] } },
{ "type": "Feature", "properties": { "average_dip": "(57.5,45,70)", "average_rake": "(-90,-100,-80)", "catalog_id": "EUR_GRCS555", "catalog_name": "SHARE", "dip_dir": null, "lower_seis_depth": "(13.0,,)", "name": null, "net_slip_rate": "(0.8,0.5,1.0)", "slip_type": "Normal", "upper_seis_depth": "(0.0,,)", "downthrown_side_id": null, "reference": null, "epistemic_quality": null, "accuracy": null, "activity_confidence": null, "fs_name": null, "last_movement": null, "downthrown_side_dir": null, "vert_sep_rate": null, "strike_slip_rate": null, "exposure_quality": null, "shortening_rate": null, "notes": null, "index_right": 79, "NAME_EN": "Greece" }, "geometry": { "type": "LineString", "coordinates": [ [ 22.473465, 36.913783 ], [ 22.442349, 36.966406 ], [ 22.422223, 37.007052 ], [ 22.383862, 37.064325 ], [ 22.352702, 37.099891 ], [ 22.333706, 37.117078 ], [ 22.324102, 37.142604 ], [ 22.31215, 37.162854 ], [ 22.298455, 37.172171 ], [ 22.283618, 37.194092 ], [ 22.270744, 37.207488 ], [ 22.265507, 37.22245 ], [ 22.254815, 37.244893 ], [ 22.239105, 37.261247 ], [ 22.20332, 37.278818 ], [ 22.177136, 37.297086 ], [ 22.156406, 37.321269 ], [ 22.146587, 37.340754 ], [ 22.133277, 37.362153 ] ] } },
{ "type": "Feature", "properties": { "average_dip": "(57.5,45,70)", "average_rake": "(-90,-100,-80)", "catalog_id": "EUR_GRCS560", "catalog_name": "SHARE", "dip_dir": null, "lower_seis_depth": "(12.0,,)", "name": null, "net_slip_rate": "(0.6,0.1,1.0)", "slip_type": "Normal", "upper_seis_depth": "(0.0,,)", "downthrown_side_id": null, "reference": null, "epistemic_quality": null, "accuracy": null, "activity_confidence": null, "fs_name": null, "last_movement": null, "downthrown_side_dir": null, "vert_sep_rate": null, "strike_slip_rate": null, "exposure_quality": null, "shortening_rate": null, "notes": null, "index_right": 79, "NAME_EN": "Greece" }, "geometry": { "type": "LineString", "coordinates": [ [ 21.963199, 37.328809 ], [ 21.985151, 37.312713 ], [ 22.002446, 37.29506 ], [ 22.013754, 37.277406 ], [ 22.027058, 37.251445 ], [ 22.046349, 37.20056 ], [ 22.051005, 37.175118 ], [ 22.053001, 37.156945 ], [ 22.049675, 37.130465 ], [ 22.044353, 37.112292 ], [ 22.044353, 37.097754 ], [ 22.051671, 37.084254 ], [ 22.064309, 37.069196 ], [ 22.072957, 37.042716 ] ] } },
{ "type": "Feature", "properties": { "average_dip": "(60.0,50,70)", "average_rake": "(-80,-100,-60)", "catalog_id": "EUR_GRCS562", "catalog_name": "SHARE", "dip_dir": null, "lower_seis_depth": "(12.0,,)", "name": null, "net_slip_rate": "(0.6,0.1,1.0)", "slip_type": "Normal", "upper_seis_depth": "(0.0,,)", "downthrown_side_id": null, "reference": null, "epistemic_quality": null, "accuracy": null, "activity_confidence": null, "fs_name": null, "last_movement": null, "downthrown_side_dir": null, "vert_sep_rate": null, "strike_slip_rate": null, "exposure_quality": null, "shortening_rate": null, "notes": null, "index_right": 79, "NAME_EN": "Greece" }, "geometry": { "type": "LineString", "coordinates": [ [ 22.237866, 37.168151 ], [ 22.229572, 37.145608 ], [ 22.20733, 37.097515 ], [ 22.161337, 37.007341 ], [ 22.138718, 36.941213 ], [ 22.125146, 36.915062 ] ] } },
{ "type": "Feature", "properties": { "average_dip": "(60.0,50,70)", "average_rake": "(-90,-100,-80)", "catalog_id": "EUR_GRCS575", "catalog_name": "SHARE", "dip_dir": null, "lower_seis_depth": "(13.5,,)", "name": null, "net_slip_rate": "(0.6,0.1,1.0)", "slip_type": "Normal", "upper_seis_depth": "(0.0,,)", "downthrown_side_id": null, "reference": null, "epistemic_quality": null, "accuracy": null, "activity_confidence": null, "fs_name": null, "last_movement": null, "downthrown_side_dir": null, "vert_sep_rate": null, "strike_slip_rate": null, "exposure_quality": null, "shortening_rate": null, "notes": null, "index_right": 79, "NAME_EN": "Greece" }, "geometry": { "type": "LineString", "coordinates": [ [ 23.117579, 36.77281 ], [ 23.066723, 36.86014 ], [ 23.031755, 36.9325 ], [ 23.022219, 36.969928 ], [ 23.003147, 37.024821 ], [ 22.923679, 37.177026 ], [ 22.831499, 37.311764 ], [ 22.774283, 37.409076 ], [ 22.726603, 37.498901 ] ] } },
{ "type": "Feature", "properties": { "average_dip": "(70.0,60,80)", "average_rake": "(170,160,180)", "catalog_id": "EUR_GRCS602", "catalog_name": "SHARE", "dip_dir": null, "lower_seis_depth": "(20.0,,)", "name": null, "net_slip_rate": "(6.0,4.0,8.0)", "slip_type": "Dextral", "upper_seis_depth": "(3.0,,)", "downthrown_side_id": null, "reference": null, "epistemic_quality": null, "accuracy": null, "activity_confidence": null, "fs_name": null, "last_movement": null, "downthrown_side_dir": null, "vert_sep_rate": null, "strike_slip_rate": null, "exposure_quality": null, "shortening_rate": null, "notes": null, "index_right": 79, "NAME_EN": "Greece" }, "geometry": { "type": "LineString", "coordinates": [ [ 20.519696, 38.569469 ], [ 20.57395, 38.745031 ], [ 20.596177, 38.834234 ], [ 20.615921, 38.925847 ], [ 20.632363, 39.013283 ], [ 20.640766, 39.081377 ], [ 20.67202, 39.218709 ] ] } },
{ "type": "Feature", "properties": { "average_dip": "(80.0,70,90)", "average_rake": "(160,140,180)", "catalog_id": "EUR_GRCS605", "catalog_name": "SHARE", "dip_dir": null, "lower_seis_depth": "(25.0,,)", "name": null, "net_slip_rate": "(6.0,2.0,10.0)", "slip_type": "Dextral", "upper_seis_depth": "(5.0,,)", "downthrown_side_id": null, "reference": null, "epistemic_quality": null, "accuracy": null, "activity_confidence": null, "fs_name": null, "last_movement": null, "downthrown_side_dir": null, "vert_sep_rate": null, "strike_slip_rate": null, "exposure_quality": null, "shortening_rate": null, "notes": null, "index_right": 79, "NAME_EN": "Greece" }, "geometry": { "type": "LineString", "coordinates": [ [ 20.56119, 37.00826 ], [ 20.635559, 37.098792 ], [ 20.678761, 37.145579 ], [ 20.718544, 37.180925 ], [ 20.777116, 37.24989 ], [ 20.894, 37.382775 ], [ 20.981802, 37.464404 ], [ 21.078799, 37.566989 ], [ 21.140268, 37.618012 ], [ 21.22656, 37.699829 ], [ 21.310069, 37.78165 ], [ 21.382443, 37.859055 ], [ 21.586988, 38.113761 ], [ 21.640569, 38.170683 ], [ 21.734395, 38.285633 ] ] } },
{ "type": "Feature", "properties": { "average_dip": "(70.0,60,80)", "average_rake": "(-90,-100,-80)", "catalog_id": "EUR_GRCS700", "catalog_name": "SHARE", "dip_dir": null, "lower_seis_depth": "(11.0,,)", "name": null, "net_slip_rate": "(0.7,0.7,0.7)", "slip_type": "Normal", "upper_seis_depth": "(0.5,,)", "downthrown_side_id": null, "reference": null, "epistemic_quality": null, "accuracy": null, "activity_confidence": null, "fs_name": null, "last_movement": null, "downthrown_side_dir": null, "vert_sep_rate": null, "strike_slip_rate": null, "exposure_quality": null, "shortening_rate": null, "notes": null, "index_right": 79, "NAME_EN": "Greece" }, "geometry": { "type": "LineString", "coordinates": [ [ 23.594222, 35.621705 ], [ 23.594222, 35.608506 ], [ 23.586314, 35.565664 ], [ 23.587466, 35.541402 ], [ 23.595524, 35.512647 ], [ 23.589768, 35.487487 ], [ 23.576271, 35.441312 ], [ 23.556746, 35.41156 ], [ 23.529181, 35.385415 ] ] } },
{ "type": "Feature", "properties": { "average_dip": "(70.0,60,80)", "average_rake": "(-90,-100,-80)", "catalog_id": "EUR_GRCS705", "catalog_name": "SHARE", "dip_dir": null, "lower_seis_depth": "(11.0,,)", "name": null, "net_slip_rate": "(0.3,0.3,0.4)", "slip_type": "Normal", "upper_seis_depth": "(0.0,,)", "downthrown_side_id": null, "reference": null, "epistemic_quality": null, "accuracy": null, "activity_confidence": null, "fs_name": null, "last_movement": null, "downthrown_side_dir": null, "vert_sep_rate": null, "strike_slip_rate": null, "exposure_quality": null, "shortening_rate": null, "notes": null, "index_right": 79, "NAME_EN": "Greece" }, "geometry": { "type": "LineString", "coordinates": [ [ 23.731367, 35.702249 ], [ 23.729065, 35.685176 ], [ 23.730216, 35.660016 ], [ 23.734821, 35.642942 ], [ 23.737123, 35.624072 ], [ 23.747484, 35.602506 ], [ 23.754391, 35.579143 ], [ 23.750938, 35.566562 ], [ 23.755542, 35.541402 ], [ 23.749786, 35.532416 ], [ 23.740577, 35.511748 ], [ 23.739425, 35.482994 ], [ 23.735972, 35.469515 ] ] } },
{ "type": "Feature", "properties": { "average_dip": "(67.5,55,80)", "average_rake": "(-95,-110,-80)", "catalog_id": "EUR_GRCS715", "catalog_name": "SHARE", "dip_dir": null, "lower_seis_depth": "(10.5,,)", "name": null, "net_slip_rate": "(2.5,0.6,4.5)", "slip_type": "Normal", "upper_seis_depth": "(0.0,,)", "downthrown_side_id": null, "reference": null, "epistemic_quality": null, "accuracy": null, "activity_confidence": null, "fs_name": null, "last_movement": null, "downthrown_side_dir": null, "vert_sep_rate": null, "strike_slip_rate": null, "exposure_quality": null, "shortening_rate": null, "notes": null, "index_right": 79, "NAME_EN": "Greece" }, "geometry": { "type": "LineString", "coordinates": [ [ 23.548132, 35.223928 ], [ 23.62885, 35.216623 ], [ 23.694361, 35.213884 ], [ 23.744719, 35.2141 ], [ 23.808994, 35.219161 ], [ 23.878024, 35.21571 ], [ 23.948173, 35.203928 ], [ 24.028933, 35.192882 ], [ 24.096783, 35.191969 ], [ 24.1601, 35.208884 ], [ 24.209729, 35.206995 ], [ 24.279936, 35.206995 ], [ 24.313829, 35.210774 ], [ 24.334407, 35.216443 ], [ 24.359826, 35.216443 ], [ 24.411876, 35.206995 ], [ 24.457874, 35.195657 ], [ 24.469979, 35.185263 ], [ 24.494188, 35.171091 ], [ 24.522029, 35.156918 ], [ 24.557132, 35.141801 ] ] } },
{ "type": "Feature", "properties": { "average_dip": "(67.5,55,80)", "average_rake": "(-85,-100,-70)", "catalog_id": "EUR_GRCS720", "catalog_name": "SHARE", "dip_dir": null, "lower_seis_depth": "(10.5,,)", "name": null, "net_slip_rate": "(0.8,0.8,0.8)", "slip_type": "Normal", "upper_seis_depth": "(0.0,,)", "downthrown_side_id": null, "reference": null, "epistemic_quality": null, "accuracy": null, "activity_confidence": null, "fs_name": null, "last_movement": null, "downthrown_side_dir": null, "vert_sep_rate": null, "strike_slip_rate": null, "exposure_quality": null, "shortening_rate": null, "notes": null, "index_right": 79, "NAME_EN": "Greece" }, "geometry": { "type": "LineString", "coordinates": [ [ 24.52687, 35.214553 ], [ 24.548659, 35.201326 ], [ 24.560763, 35.189987 ], [ 24.609182, 35.169201 ], [ 24.651548, 35.151249 ], [ 24.685441, 35.146525 ] ] } },
{ "type": "Feature", "properties": { "average_dip": "(67.5,55,80)", "average_rake": "(-95,-110,-80)", "catalog_id": "EUR_GRCS722", "catalog_name": "SHARE", "dip_dir": null, "lower_seis_depth": "(10.5,,)", "name": null, "net_slip_rate": "(0.6,0.1,1.0)", "slip_type": "Normal", "upper_seis_depth": "(0.0,,)", "downthrown_side_id": null, "reference": null, "epistemic_quality": null, "accuracy": null, "activity_confidence": null, "fs_name": null, "last_movement": null, "downthrown_side_dir": null, "vert_sep_rate": null, "strike_slip_rate": null, "exposure_quality": null, "shortening_rate": null, "notes": null, "index_right": 79, "NAME_EN": "Greece" }, "geometry": { "type": "LineString", "coordinates": [ [ 24.572319, 35.086959 ], [ 24.672925, 35.089699 ], [ 24.71036, 35.093351 ], [ 24.734926, 35.09883 ], [ 24.766512, 35.110701 ], [ 24.788738, 35.117093 ], [ 24.84957, 35.118919 ] ] } },
{ "type": "Feature", "properties": { "average_dip": "(67.5,55,80)", "average_rake": "(-97,-110,-85)", "catalog_id": "EUR_GRCS740", "catalog_name": "SHARE", "dip_dir": null, "lower_seis_depth": "(11.0,,)", "name": null, "net_slip_rate": "(0.6,0.1,1.0)", "slip_type": "Normal", "upper_seis_depth": "(0.0,,)", "downthrown_side_id": null, "reference": null, "epistemic_quality": null, "accuracy": null, "activity_confidence": null, "fs_name": null, "last_movement": null, "downthrown_side_dir": null, "vert_sep_rate": null, "strike_slip_rate": null, "exposure_quality": null, "shortening_rate": null, "notes": null, "index_right": 79, "NAME_EN": "Greece" }, "geometry": { "type": "LineString", "coordinates": [ [ 25.048776, 35.341863 ], [ 25.045187, 35.327223 ], [ 25.026586, 35.29907 ], [ 25.021965, 35.282595 ], [ 25.008352, 35.260595 ], [ 25.003548, 35.242367 ], [ 24.999544, 35.22351 ], [ 24.998743, 35.202767 ], [ 25.002747, 35.170711 ], [ 25.00595, 35.157511 ], [ 25.003548, 35.145568 ], [ 24.992337, 35.12294 ] ] } },
{ "type": "Feature", "properties": { "average_dip": "(70.0,60,80)", "average_rake": "(-82,-90,-75)", "catalog_id": "EUR_GRCS743", "catalog_name": "SHARE", "dip_dir": null, "lower_seis_depth": "(11.0,,)", "name": null, "net_slip_rate": "(0.5,0.5,0.5)", "slip_type": "Normal", "upper_seis_depth": "(0.0,,)", "downthrown_side_id": null, "reference": null, "epistemic_quality": null, "accuracy": null, "activity_confidence": null, "fs_name": null, "last_movement": null, "downthrown_side_dir": null, "vert_sep_rate": null, "strike_slip_rate": null, "exposure_quality": null, "shortening_rate": null, "notes": null, "index_right": 79, "NAME_EN": "Greece" }, "geometry": { "type": "LineString", "coordinates": [ [ 25.512768, 35.236682 ], [ 25.487197, 35.237143 ], [ 25.449741, 35.229093 ], [ 25.394896, 35.199342 ], [ 25.380042, 35.185849 ], [ 25.367638, 35.170842 ], [ 25.341589, 35.135017 ], [ 25.336038, 35.124789 ] ] } },
{ "type": "Feature", "properties": { "average_dip": "(70.0,60,80)", "average_rake": "(-90,-95,-85)", "catalog_id": "EUR_GRCS745", "catalog_name": "SHARE", "dip_dir": null, "lower_seis_depth": "(11.0,,)", "name": null, "net_slip_rate": "(1.1,0.9,1.3)", "slip_type": "Normal", "upper_seis_depth": "(0.0,,)", "downthrown_side_id": null, "reference": null, "epistemic_quality": null, "accuracy": null, "activity_confidence": null, "fs_name": null, "last_movement": null, "downthrown_side_dir": null, "vert_sep_rate": null, "strike_slip_rate": null, "exposure_quality": null, "shortening_rate": null, "notes": null, "index_right": 79, "NAME_EN": "Greece" }, "geometry": { "type": "LineString", "coordinates": [ [ 25.894299, 35.195492 ], [ 25.889432, 35.177986 ], [ 25.87899, 35.158967 ], [ 25.872463, 35.13825 ], [ 25.864631, 35.125683 ], [ 25.858105, 35.109381 ], [ 25.83896, 35.090023 ], [ 25.834174, 35.077117 ], [ 25.825907, 35.063192 ], [ 25.819815, 35.045192 ], [ 25.813289, 35.040437 ], [ 25.781091, 35.003418 ] ] } },
{ "type": "Feature", "properties": { "average_dip": "(67.5,55,80)", "average_rake": "(-90,-100,-80)", "catalog_id": "EUR_GRCS752", "catalog_name": "SHARE", "dip_dir": null, "lower_seis_depth": "(11.0,,)", "name": null, "net_slip_rate": "(0.6,0.1,1.0)", "slip_type": "Normal", "upper_seis_depth": "(0.0,,)", "downthrown_side_id": null, "reference": null, "epistemic_quality": null, "accuracy": null, "activity_confidence": null, "fs_name": null, "last_movement": null, "downthrown_side_dir": null, "vert_sep_rate": null, "strike_slip_rate": null, "exposure_quality": null, "shortening_rate": null, "notes": null, "index_right": 79, "NAME_EN": "Greece" }, "geometry": { "type": "LineString", "coordinates": [ [ 26.117759, 35.122185 ], [ 26.118038, 35.115836 ], [ 26.111344, 35.09241 ], [ 26.104093, 35.077961 ], [ 26.096841, 35.070955 ], [ 26.085127, 35.065919 ], [ 26.05612, 35.060565 ], [ 26.046637, 35.056008 ], [ 26.014286, 35.03049 ] ] } },
{ "type": "Feature", "properties": { "average_dip": "(67.5,55,80)", "average_rake": "(-90,-100,-80)", "catalog_id": "EUR_GRCS755", "catalog_name": "SHARE", "dip_dir": null, "lower_seis_depth": "(11.0,,)", "name": null, "net_slip_rate": "(0.6,0.1,1.0)", "slip_type": "Normal", "upper_seis_depth": "(0.0,,)", "downthrown_side_id": null, "reference": null, "epistemic_quality": null, "accuracy": null, "activity_confidence": null, "fs_name": null, "last_movement": null, "downthrown_side_dir": null, "vert_sep_rate": null, "strike_slip_rate": null, "exposure_quality": null, "shortening_rate": null, "notes": null, "index_right": 79, "NAME_EN": "Greece" }, "geometry": { "type": "LineString", "coordinates": [ [ 26.115807, 35.202535 ], [ 26.103256, 35.170351 ], [ 26.090147, 35.151304 ], [ 26.083732, 35.134227 ] ] } },
{ "type": "Feature", "properties": { "average_dip": "(82.5,75,90)", "average_rake": "(5,-10,20)", "catalog_id": "EUR_GRCS835", "catalog_name": "SHARE", "dip_dir": null, "lower_seis_depth": "(30.0,,)", "name": null, "net_slip_rate": "(1.2,1.0,1.5)", "slip_type": "Sinistral", "upper_seis_depth": "(0.0,,)", "downthrown_side_id": null, "reference": null, "epistemic_quality": null, "accuracy": null, "activity_confidence": null, "fs_name": null, "last_movement": null, "downthrown_side_dir": null, "vert_sep_rate": null, "strike_slip_rate": null, "exposure_quality": null, "shortening_rate": null, "notes": null, "index_right": 79, "NAME_EN": "Greece" }, "geometry": { "type": "LineString", "coordinates": [ [ 24.142262, 39.256306 ], [ 24.205307, 39.204506 ], [ 24.30817, 39.115582 ], [ 24.457052, 38.997931 ], [ 24.537245, 38.953053 ], [ 24.616564, 38.911878 ] ] } },
{ "type": "Feature", "properties": { "average_dip": "(50.0,40,60)", "average_rake": "(-85,-100,-70)", "catalog_id": "EUR_MKCS004", "catalog_name": "SHARE", "dip_dir": null, "lower_seis_depth": "(12.0,,)", "name": null, "net_slip_rate": "(0.2,0.15,0.3)", "slip_type": "Normal", "upper_seis_depth": "(1.0,,)", "downthrown_side_id": null, "reference": null, "epistemic_quality": null, "accuracy": null, "activity_confidence": null, "fs_name": null, "last_movement": null, "downthrown_side_dir": null, "vert_sep_rate": null, "strike_slip_rate": null, "exposure_quality": null, "shortening_rate": null, "notes": null, "index_right": 79, "NAME_EN": "Greece" }, "geometry": { "type": "LineString", "coordinates": [ [ 21.025447, 41.139727 ], [ 21.054145, 41.056893 ], [ 21.075247, 41.002095 ], [ 21.092129, 40.97151 ], [ 21.127322, 40.867262 ], [ 21.159962, 40.748244 ] ] } }
]
}
