{
"type": "FeatureCollection",
"name": "faults_jamaica",
"crs": { "type": "name", "properties": { "name": "urn:ogc:def:crs:OGC:1.3:CRS84" } },
"features": [
{ "type": "Feature", "properties": { "average_dip": null, "average_rake": null, "catalog_id": "CA_114.0", "catalog_name": "GEM_Central_Am_Carib", "dip_dir": null, "lower_seis_depth": null, "name": "St. Bran's Burg Fault", "net_slip_rate": null, "slip_type": "Sinistral", "upper_seis_depth": null, "downthrown_side_id": null, "reference": "DEM", "epistemic_quality": null, "accuracy": "", "activity_confidence": null, "fs_name": null, "last_movement": null, "downthrown_side_dir": null, "vert_sep_rate": null, "strike_slip_rate": null, "exposure_quality": null, "shortening_rate": null, "notes": null, "index_right": 213, "NAME_EN": "Jamaica" }, "geometry": { "type": "LineString", "coordinates": [ [ -77.863189304735343, 18.515285154978972 ], [ -77.824754735490529, 18.509505520506067 ], [ -77.806548886900885, 18.502858940862229 ], [ -77.729679748411257, 18.484075128825289 ], [ -77.714941680505348, 18.478295494352388 ], [ -77.66754867782754, 18.469915024366674 ], [ -77.606862515862048, 18.454887974737122 ], [ -77.575652489708361, 18.452287139224318 ] ] } },
{ "type": "Feature", "properties": { "average_dip": null, "average_rake": null, "catalog_id": "CA_115.0", "catalog_name": "GEM_Central_Am_Carib", "dip_dir": null, "lower_seis_depth": null, "name": null, "net_slip_rate": null, "slip_type": "Sinistral", "upper_seis_depth": null, "downthrown_side_id": null, "reference": "DEM", "epistemic_quality": null, "accuracy": null, "activity_confidence": null, "fs_name": null, "last_movement": null, "downthrown_side_dir": null, "vert_sep_rate": null, "strike_slip_rate": null, "exposure_quality": null, "shortening_rate": null, "notes": null, "index_right": 213, "NAME_EN": "Jamaica" }, "geometry": { "type": "LineString", "coordinates": [ [ -77.608668651634858, 18.437260089594769 ], [ -77.562142594127991, 18.425700820648963 ], [ -77.538157111065431, 18.417031368939607 ], [ -77.530932567974304, 18.418476277557833 ], [ -77.503479304228009, 18.416453405492316 ], [ -77.46648964360142, 18.40460515482286 ] ] } },
{ "type": "Feature", "properties": { "average_dip": null, "average_rake": null, "catalog_id": "CA_116.0", "catalog_name": "GEM_Central_Am_Carib", "dip_dir": "S", "lower_seis_depth": null, "name": "Duanvale Fault", "net_slip_rate": null, "slip_type": "Sinistral-Reverse", "upper_seis_depth": null, "downthrown_side_id": null, "reference": "Mann et al., 2007", "epistemic_quality": null, "accuracy": null, "activity_confidence": "1", "fs_name": null, "last_movement": null, "downthrown_side_dir": null, "vert_sep_rate": null, "strike_slip_rate": null, "exposure_quality": null, "shortening_rate": null, "notes": null, "index_right": 213, "NAME_EN": "Jamaica" }, "geometry": { "type": "LineString", "coordinates": [ [ -77.932219813971173, 18.453984906850739 ], [ -77.889450518871683, 18.451962034785225 ], [ -77.875868377860357, 18.449650180996063 ], [ -77.854483730310605, 18.450228144443351 ], [ -77.794953495239696, 18.445315455141383 ], [ -77.776747646650051, 18.436934985155673 ], [ -77.764032450809651, 18.426820624828089 ], [ -77.740913912918046, 18.416417282776862 ], [ -77.72386399122297, 18.410637648303958 ], [ -77.699300544713125, 18.398211434187214 ], [ -77.690053129556489, 18.394454671779826 ], [ -77.662455374948379, 18.389397491616037 ], [ -77.649162215660695, 18.388241564721454 ], [ -77.619830570710704, 18.389975455063325 ], [ -77.611450100724994, 18.391709345405197 ], [ -77.591510361793482, 18.402401669180069 ], [ -77.578939656814882, 18.399945324529085 ], [ -77.557699500126972, 18.399656342805439 ], [ -77.535592398268108, 18.396188562121697 ], [ -77.494845975234128, 18.398789397634506 ], [ -77.466525766316906, 18.381594985077616 ], [ -77.451643207549168, 18.370469188717273 ] ] } },
{ "type": "Feature", "properties": { "average_dip": null, "average_rake": null, "catalog_id": "CA_117.0", "catalog_name": "GEM_Central_Am_Carib", "dip_dir": null, "lower_seis_depth": null, "name": "Duanvale Fault East", "net_slip_rate": null, "slip_type": "Sinistral-Reverse", "upper_seis_depth": null, "downthrown_side_id": null, "reference": "Mann et al., 2007", "epistemic_quality": null, "accuracy": null, "activity_confidence": null, "fs_name": null, "last_movement": null, "downthrown_side_dir": null, "vert_sep_rate": null, "strike_slip_rate": null, "exposure_quality": null, "shortening_rate": null, "notes": null, "index_right": 213, "NAME_EN": "Jamaica" }, "geometry": { "type": "LineString", "coordinates": [ [ -77.470138037861702, 18.385496238346974 ], [ -77.441239865497181, 18.381161512492298 ], [ -77.425634852420345, 18.383762348005103 ], [ -77.413786601750886, 18.383184384557815 ], [ -77.381131666978987, 18.387230128688845 ], [ -77.352811458061751, 18.384051329728749 ], [ -77.316399760882447, 18.367579371480971 ], [ -77.303106601594777, 18.368446316651909 ], [ -77.288368533688868, 18.367290389757326 ], [ -77.265827959244547, 18.356887047706099 ], [ -77.238663677221894, 18.341571016352905 ], [ -77.227971353447018, 18.333768509814483 ], [ -77.21987986518495, 18.323943131210545 ] ] } },
{ "type": "Feature", "properties": { "average_dip": null, "average_rake": null, "catalog_id": "CA_118.0", "catalog_name": "GEM_Central_Am_Carib", "dip_dir": "W", "lower_seis_depth": null, "name": null, "net_slip_rate": null, "slip_type": "Reverse", "upper_seis_depth": null, "downthrown_side_id": null, "reference": "DEM", "epistemic_quality": null, "accuracy": null, "activity_confidence": null, "fs_name": null, "last_movement": null, "downthrown_side_dir": null, "vert_sep_rate": null, "strike_slip_rate": null, "exposure_quality": null, "shortening_rate": null, "notes": null, "index_right": 213, "NAME_EN": "Jamaica" }, "geometry": { "type": "LineString", "coordinates": [ [ -78.022671093471288, 18.161968875107402 ], [ -78.00533219005257, 18.148386734096075 ], [ -77.999552555579669, 18.140873209281303 ], [ -77.990883103870317, 18.123823287586234 ] ] } },
{ "type": "Feature", "properties": { "average_dip": null, "average_rake": null, "catalog_id": "CA_119.0", "catalog_name": "GEM_Central_Am_Carib", "dip_dir": "W", "lower_seis_depth": null, "name": "Beeston Spring Fault", "net_slip_rate": null, "slip_type": "Reverse", "upper_seis_depth": null, "downthrown_side_id": null, "reference": "DEM", "epistemic_quality": null, "accuracy": null, "activity_confidence": null, "fs_name": null, "last_movement": null, "downthrown_side_dir": null, "vert_sep_rate": null, "strike_slip_rate": null, "exposure_quality": null, "shortening_rate": null, "notes": null, "index_right": 213, "NAME_EN": "Jamaica" }, "geometry": { "type": "LineString", "coordinates": [ [ -77.976217281395904, 18.149325924698402 ], [ -77.968414774857479, 18.139067073508997 ], [ -77.961912686075465, 18.121294697504815 ], [ -77.955844069878907, 18.093407961173053 ], [ -77.956277542464377, 18.082715637398181 ] ] } },
{ "type": "Feature", "properties": { "average_dip": null, "average_rake": null, "catalog_id": "CA_120.0", "catalog_name": "GEM_Central_Am_Carib", "dip_dir": "W", "lower_seis_depth": null, "name": "Savanna La Mar Fault", "net_slip_rate": null, "slip_type": "Reverse", "upper_seis_depth": null, "downthrown_side_id": null, "reference": "DEM", "epistemic_quality": null, "accuracy": null, "activity_confidence": null, "fs_name": null, "last_movement": null, "downthrown_side_dir": null, "vert_sep_rate": null, "strike_slip_rate": null, "exposure_quality": null, "shortening_rate": null, "notes": null, "index_right": 213, "NAME_EN": "Jamaica" }, "geometry": { "type": "LineString", "coordinates": [ [ -77.971665819248457, 18.192528692383359 ], [ -77.955338351862508, 18.172877935175482 ], [ -77.939733338785672, 18.162185611400609 ], [ -77.925284252603404, 18.15669495865135 ], [ -77.912280075039376, 18.149614906422045 ], [ -77.896241589377055, 18.134732347654314 ], [ -77.875723886998244, 18.12230613353757 ] ] } },
{ "type": "Feature", "properties": { "average_dip": null, "average_rake": null, "catalog_id": "CA_121.0", "catalog_name": "GEM_Central_Am_Carib", "dip_dir": "W", "lower_seis_depth": null, "name": "New Market Fault", "net_slip_rate": null, "slip_type": "Sinistral-Reverse", "upper_seis_depth": null, "downthrown_side_id": null, "reference": "DEM", "epistemic_quality": null, "accuracy": null, "activity_confidence": null, "fs_name": null, "last_movement": null, "downthrown_side_dir": null, "vert_sep_rate": null, "strike_slip_rate": null, "exposure_quality": null, "shortening_rate": null, "notes": null, "index_right": 213, "NAME_EN": "Jamaica" }, "geometry": { "type": "LineString", "coordinates": [ [ -77.911702111592092, 18.156983940374996 ], [ -77.895519135067971, 18.144774462550988 ], [ -77.867487907874377, 18.130831094385105 ], [ -77.855639657204918, 18.118404880268361 ], [ -77.850726967902943, 18.110891355453585 ] ] } },
{ "type": "Feature", "properties": { "average_dip": null, "average_rake": null, "catalog_id": "CA_122.0", "catalog_name": "GEM_Central_Am_Carib", "dip_dir": "E", "lower_seis_depth": null, "name": "Pondside Fault", "net_slip_rate": null, "slip_type": "Reverse", "upper_seis_depth": null, "downthrown_side_id": null, "reference": "Benford et al., 2015", "epistemic_quality": null, "accuracy": null, "activity_confidence": "1", "fs_name": null, "last_movement": null, "downthrown_side_dir": null, "vert_sep_rate": null, "strike_slip_rate": null, "exposure_quality": null, "shortening_rate": null, "notes": null, "index_right": 213, "NAME_EN": "Jamaica" }, "geometry": { "type": "LineString", "coordinates": [ [ -77.80580837123388, 17.981012132032792 ], [ -77.804796935201111, 17.972198189461611 ], [ -77.807975734161218, 17.959771975344868 ], [ -77.805374898648409, 17.944311453129849 ], [ -77.798150355557283, 17.920759442652766 ], [ -77.798150355557283, 17.907755265088731 ] ] } },
{ "type": "Feature", "properties": { "average_dip": null, "average_rake": null, "catalog_id": "CA_123.0", "catalog_name": "GEM_Central_Am_Carib", "dip_dir": null, "lower_seis_depth": null, "name": "Siloah Fault", "net_slip_rate": null, "slip_type": "Sinistral", "upper_seis_depth": null, "downthrown_side_id": null, "reference": "Benford et al., 2015", "epistemic_quality": null, "accuracy": null, "activity_confidence": "1", "fs_name": null, "last_movement": null, "downthrown_side_dir": null, "vert_sep_rate": null, "strike_slip_rate": null, "exposure_quality": null, "shortening_rate": null, "notes": null, "index_right": 213, "NAME_EN": "Jamaica" }, "geometry": { "type": "LineString", "coordinates": [ [ -77.836946151956653, 18.150138685796147 ], [ -77.825531373872664, 18.15245053958531 ], [ -77.815850486130557, 18.151872576138018 ], [ -77.798367091850011, 18.153750957341714 ], [ -77.771491791551014, 18.159964064400086 ], [ -77.766001138801755, 18.159097119229148 ] ] } },
{ "type": "Feature", "properties": { "average_dip": null, "average_rake": null, "catalog_id": "CA_124.0", "catalog_name": "GEM_Central_Am_Carib", "dip_dir": "W", "lower_seis_depth": null, "name": null, "net_slip_rate": null, "slip_type": "Reverse", "upper_seis_depth": null, "downthrown_side_id": null, "reference": "DEM", "epistemic_quality": null, "accuracy": null, "activity_confidence": null, "fs_name": null, "last_movement": null, "downthrown_side_dir": null, "vert_sep_rate": null, "strike_slip_rate": null, "exposure_quality": null, "shortening_rate": null, "notes": null, "index_right": 213, "NAME_EN": "Jamaica" }, "geometry": { "type": "LineString", "coordinates": [ [ -77.765712157078113, 18.158808137505506 ], [ -77.761955394670721, 18.153028503032601 ], [ -77.755597796750521, 18.134244690995661 ], [ -77.752707979514071, 18.109392262762174 ] ] } },
{ "type": "Feature", "properties": { "average_dip": "(65.0,,)", "average_rake": null, "catalog_id": "CA_125.0", "catalog_name": "GEM_Central_Am_Carib", "dip_dir": "E", "lower_seis_depth": null, "name": "Santa Cruz Fault", "net_slip_rate": null, "slip_type": "Reverse", "upper_seis_depth": null, "downthrown_side_id": null, "reference": "Benford et al., 2015", "epistemic_quality": null, "accuracy": null, "activity_confidence": "1", "fs_name": null, "last_movement": null, "downthrown_side_dir": null, "vert_sep_rate": null, "strike_slip_rate": null, "exposure_quality": null, "shortening_rate": null, "notes": null, "index_right": 213, "NAME_EN": "Jamaica" }, "geometry": { "type": "LineString", "coordinates": [ [ -77.753285942961384, 18.100939547345554 ], [ -77.756175760197834, 18.065683777060837 ], [ -77.751552052619502, 18.047188946747546 ], [ -77.750107144001277, 18.024648372303218 ], [ -77.745772418146601, 18.012511139910121 ], [ -77.735947039542665, 17.997484090280569 ], [ -77.736236021266308, 17.989970565465793 ], [ -77.731034350240705, 17.972631662047082 ], [ -77.722075916807697, 17.956159703799305 ], [ -77.71976406301853, 17.947779233813591 ], [ -77.712539519927404, 17.940554690722461 ], [ -77.712539519927404, 17.911945500081586 ], [ -77.705603958559919, 17.887671035295387 ] ] } },
{ "type": "Feature", "properties": { "average_dip": null, "average_rake": null, "catalog_id": "CA_126.0", "catalog_name": "GEM_Central_Am_Carib", "dip_dir": null, "lower_seis_depth": null, "name": "Siloah Fault", "net_slip_rate": null, "slip_type": "Sinistral", "upper_seis_depth": null, "downthrown_side_id": null, "reference": "Benford et al., 2015", "epistemic_quality": null, "accuracy": null, "activity_confidence": "1", "fs_name": null, "last_movement": null, "downthrown_side_dir": null, "vert_sep_rate": null, "strike_slip_rate": null, "exposure_quality": null, "shortening_rate": null, "notes": null, "index_right": 213, "NAME_EN": "Jamaica" }, "geometry": { "type": "LineString", "coordinates": [ [ -77.757801282393316, 18.148802145324293 ], [ -77.741184833283725, 18.151836453422568 ], [ -77.709252352820926, 18.152558907731681 ], [ -77.67298514650345, 18.157471597033648 ], [ -77.666483057721436, 18.160361414270099 ], [ -77.653623371019222, 18.158194051342761 ], [ -77.64495391930987, 18.15371483462626 ] ] } },
{ "type": "Feature", "properties": { "average_dip": null, "average_rake": null, "catalog_id": "CA_127.0", "catalog_name": "GEM_Central_Am_Carib", "dip_dir": "E", "lower_seis_depth": null, "name": "Spur Tree Fault", "net_slip_rate": null, "slip_type": "Reverse", "upper_seis_depth": null, "downthrown_side_id": null, "reference": "Benford et al., 2015", "epistemic_quality": null, "accuracy": null, "activity_confidence": "1", "fs_name": null, "last_movement": null, "downthrown_side_dir": null, "vert_sep_rate": null, "strike_slip_rate": null, "exposure_quality": null, "shortening_rate": null, "notes": null, "index_right": 213, "NAME_EN": "Jamaica" }, "geometry": { "type": "LineString", "coordinates": [ [ -77.639968984576981, 18.151041753682549 ], [ -77.622630081158277, 18.131968959921963 ], [ -77.62291906288192, 18.112318202714089 ], [ -77.618403723449944, 18.102926296695625 ], [ -77.617789637287203, 18.090030487277957 ], [ -77.60547179131683, 18.066803581239981 ], [ -77.601715028909439, 18.052065513334075 ], [ -77.592178632029146, 18.029524938889747 ], [ -77.588132887898112, 18.015653816154778 ], [ -77.573972783439501, 17.990801387921287 ], [ -77.567615185519301, 17.982998881382869 ], [ -77.562413514493684, 17.969705722095188 ], [ -77.558078788639008, 17.946298202479927 ], [ -77.552732626751578, 17.930548698541262 ], [ -77.553166099337048, 17.923468646311953 ], [ -77.550709754686068, 17.917833502700873 ], [ -77.550131791238769, 17.909453032715163 ], [ -77.553744062784332, 17.891247184125515 ], [ -77.563135968802811, 17.881566296383401 ] ] } },
{ "type": "Feature", "properties": { "average_dip": null, "average_rake": null, "catalog_id": "CA_128.0", "catalog_name": "GEM_Central_Am_Carib", "dip_dir": null, "lower_seis_depth": null, "name": "Rio Minho-Crawle River Fault", "net_slip_rate": null, "slip_type": "Sinistral", "upper_seis_depth": null, "downthrown_side_id": null, "reference": "Benford et al., 2015", "epistemic_quality": null, "accuracy": null, "activity_confidence": "1", "fs_name": null, "last_movement": null, "downthrown_side_dir": null, "vert_sep_rate": null, "strike_slip_rate": "None", "exposure_quality": null, "shortening_rate": "(1,-1,2)", "notes": null, "index_right": 213, "NAME_EN": "Jamaica" }, "geometry": { "type": "LineString", "coordinates": [ [ -77.605994625276907, 18.163990250266576 ], [ -77.540227805351776, 18.160282806986483 ], [ -77.524430873114866, 18.162700704777848 ], [ -77.49332058819931, 18.159799227428209 ], [ -77.467529678424739, 18.154157465915027 ], [ -77.401521068720498, 18.156172380741165 ], [ -77.390801721845435, 18.152867920426299 ], [ -77.368234675792706, 18.149805249890569 ], [ -77.330515470247406, 18.137876954119839 ], [ -77.319231947221041, 18.138521726864202 ], [ -77.301178310378845, 18.135942635886746 ], [ -77.270390411835479, 18.128850135698741 ], [ -77.256447201238615, 18.12175763551074 ], [ -77.239602513292112, 18.1179695956376 ] ] } },
{ "type": "Feature", "properties": { "average_dip": null, "average_rake": null, "catalog_id": "CA_129.0", "catalog_name": "GEM_Central_Am_Carib", "dip_dir": null, "lower_seis_depth": null, "name": "Cavaliers Fault", "net_slip_rate": null, "slip_type": "Sinistral", "upper_seis_depth": null, "downthrown_side_id": null, "reference": "Benford et al., 2015", "epistemic_quality": "1", "accuracy": null, "activity_confidence": "1", "fs_name": null, "last_movement": null, "downthrown_side_dir": null, "vert_sep_rate": null, "strike_slip_rate": "None", "exposure_quality": null, "shortening_rate": null, "notes": null, "index_right": 213, "NAME_EN": "Jamaica" }, "geometry": { "type": "LineString", "coordinates": [ [ -77.412643398560775, 18.135378459735428 ], [ -77.394267375346402, 18.1340889142467 ], [ -77.370088397432767, 18.128608345919606 ], [ -77.328822941793462, 18.116357663776689 ], [ -77.308834986718182, 18.117002436521055 ], [ -77.257897939913434, 18.108620390844322 ], [ -77.223724984462137, 18.108942777216505 ], [ -77.2101847568305, 18.111199481821778 ], [ -77.189229642638679, 18.111844254566144 ], [ -77.11669270889773, 18.09024436762995 ], [ -77.075427253258439, 18.085408572047221 ], [ -77.052537820833521, 18.088390645989904 ], [ -77.024248416674553, 18.085489168640265 ], [ -76.989914268037168, 18.090969736967363 ], [ -76.957917420598108, 18.091614509711725 ], [ -76.932448897195727, 18.090002577850818 ], [ -76.919231055936265, 18.084683202709815 ], [ -76.902789350954976, 18.08065337305754 ], [ -76.876676054808257, 18.078880248010538 ], [ -76.834121053680235, 18.088551839175999 ], [ -76.810264462138775, 18.089518998292544 ], [ -76.798980939112411, 18.092420475642182 ], [ -76.778348211292766, 18.086939907315088 ], [ -76.748366278679839, 18.069208656845078 ] ] } },
{ "type": "Feature", "properties": { "average_dip": null, "average_rake": null, "catalog_id": "CA_130.0", "catalog_name": "GEM_Central_Am_Carib", "dip_dir": null, "lower_seis_depth": null, "name": "Plantain Garden Fault", "net_slip_rate": "", "slip_type": "Sinistral", "upper_seis_depth": null, "downthrown_side_id": null, "reference": "Benford et al., 2015; Koehler et al., 2013", "epistemic_quality": "1", "accuracy": null, "activity_confidence": "1", "fs_name": null, "last_movement": null, "downthrown_side_dir": null, "vert_sep_rate": null, "strike_slip_rate": "None", "exposure_quality": "1", "shortening_rate": null, "notes": null, "index_right": 213, "NAME_EN": "Jamaica" }, "geometry": { "type": "LineString", "coordinates": [ [ -76.780081038043221, 18.090204069333424 ], [ -76.756869219246113, 18.086657819239424 ], [ -76.719150013700826, 18.076986228073963 ], [ -76.700935183672541, 18.075857875771327 ], [ -76.694326263042811, 18.072795205235597 ], [ -76.677723364875433, 18.06006094353441 ], [ -76.66531148954644, 18.046198329530586 ], [ -76.656123477939246, 18.039428215714764 ], [ -76.626625124884612, 18.019762647011664 ], [ -76.616147567788701, 18.016861169662029 ], [ -76.60679836299542, 18.011380601334935 ], [ -76.594386487666412, 18.000741851052929 ], [ -76.581168646406951, 17.996873214586746 ], [ -76.573108987102401, 17.991392646259651 ], [ -76.559810549249931, 17.988289677427403 ], [ -76.53853304868592, 17.987403114903902 ], [ -76.51552272137144, 17.979625543675013 ], [ -76.506213814874684, 17.974789748092284 ], [ -76.484613927938497, 17.971727077556555 ], [ -76.471396086679036, 17.967536054718192 ], [ -76.42771273324837, 17.962055486391098 ], [ -76.402566596218179, 17.955124179389184 ], [ -76.374680175024452, 17.951094349736913 ], [ -76.365330970231184, 17.951416736109095 ], [ -76.337766935409618, 17.947709292829003 ], [ -76.325838639638889, 17.948515258759457 ], [ -76.313426764309881, 17.954882389610052 ], [ -76.293680599013726, 17.956413724877915 ], [ -76.265149405075618, 17.953512247528277 ], [ -76.239358495301062, 17.953189861156094 ] ] } },
{ "type": "Feature", "properties": { "average_dip": null, "average_rake": null, "catalog_id": "CA_131.0", "catalog_name": "GEM_Central_Am_Carib", "dip_dir": null, "lower_seis_depth": null, "name": "South Coast Fault", "net_slip_rate": null, "slip_type": "Sinistral", "upper_seis_depth": null, "downthrown_side_id": null, "reference": "Benford et al., 2012; Benford et al., 2015", "epistemic_quality": null, "accuracy": null, "activity_confidence": "1", "fs_name": null, "last_movement": null, "downthrown_side_dir": "S", "vert_sep_rate": null, "strike_slip_rate": "None", "exposure_quality": null, "shortening_rate": "(2,0,4)", "notes": null, "index_right": 213, "NAME_EN": "Jamaica" }, "geometry": { "type": "LineString", "coordinates": [ [ -77.724431318757311, 17.863002273538193 ], [ -77.675106203813471, 17.866870910004376 ], [ -77.654795862366015, 17.864614205399103 ], [ -77.627393020730537, 17.866870910004376 ], [ -77.590318587929616, 17.864936591771283 ], [ -77.568396314621239, 17.869450000981832 ], [ -77.560981428061055, 17.869450000981832 ], [ -77.499405630974294, 17.857521705211099 ], [ -77.478772903154649, 17.863647046282555 ], [ -77.467489380128285, 17.863324659910376 ], [ -77.434283583793544, 17.870094773726194 ], [ -77.412844890043445, 17.870900739656648 ], [ -77.39430767364297, 17.866870910004373 ], [ -77.370773468473686, 17.864936591771279 ], [ -77.354654149864601, 17.859617216630276 ], [ -77.300251449558914, 17.8547008244545 ], [ -77.27405755681913, 17.855345597198866 ], [ -77.252618863069031, 17.853169489186634 ], [ -77.219453365030802, 17.839024787107153 ], [ -77.184514741945605, 17.83443078130356 ], [ -77.173553605291417, 17.834027798338333 ], [ -77.162108889078951, 17.835962116571423 ] ] } }
]
}
