{
"type": "FeatureCollection",
"name": "faults_slovenia",
"crs": { "type": "name", "properties": { "name": "urn:ogc:def:crs:OGC:1.3:CRS84" } },
"features": [
{ "type": "Feature", "properties": { "average_dip": "(70.0,60,80)", "average_rake": "(160,150,170)", "catalog_id": "EUR_ATCS009", "catalog_name": "SHARE", "dip_dir": null, "lower_seis_depth": "(12.0,,)", "name": null, "net_slip_rate": "(0.6,0.1,1.0)", "slip_type": "Dextral", "upper_seis_depth": "(5.0,,)", "downthrown_side_id": null, "reference": null, "epistemic_quality": null, "accuracy": null, "activity_confidence": null, "fs_name": null, "last_movement": null, "downthrown_side_dir": null, "vert_sep_rate": null, "strike_slip_rate": null, "exposure_quality": null, "shortening_rate": null, "notes": null, "index_right": 103, "NAME_EN": "Slovenia" }, "geometry": { "type": "LineString", "coordinates": [ [ 15.335224, 46.37872 ], [ 15.17317, 46.461209 ], [ 15.057874, 46.54453 ], [ 14.968649, 46.631576 ], [ 14.920482, 46.665178 ], [ 14.821148, 46.753289 ], [ 14.783822, 46.804773 ] ] } },
{ "type": "Feature", "properties": { "average_dip": "(80.0,70,90)", "average_rake": "(150,130,170)", "catalog_id": "EUR_ATCS011", "catalog_name": "SHARE", "dip_dir": null, "lower_seis_depth": "(19.0,,)", "name": null, "net_slip_rate": "(0.8,0.5,1.0)", "slip_type": "Dextral-Reverse", "upper_seis_depth": "(0.0,,)", "downthrown_side_id": null, "reference": null, "epistemic_quality": null, "accuracy": null, "activity_confidence": null, "fs_name": null, "last_movement": null, "downthrown_side_dir": null, "vert_sep_rate": null, "strike_slip_rate": null, "exposure_quality": null, "shortening_rate": null, "notes": null, "index_right": 103, "NAME_EN": "Slovenia" }, "geometry": { "type": "LineString", "coordinates": [ [ 15.215092, 46.39003 ], [ 15.090462, 46.405178 ], [ 14.995426, 46.424029 ], [ 14.822521, 46.466127 ], [ 14.693533, 46.481309 ], [ 14.60988, 46.477966 ], [ 14.56424, 46.480229 ], [ 14.51066, 46.485653 ], [ 14.436008, 46.481896 ], [ 14.300789, 46.482366 ], [ 14.150953, 46.48813 ], [ 14.107505, 46.497395 ], [ 14.074253, 46.509966 ] ] } },
{ "type": "Feature", "properties": { "average_dip": "(62.5,55,70)", "average_rake": "(150,120,180)", "catalog_id": "EUR_HRCS024", "catalog_name": "SHARE", "dip_dir": null, "lower_seis_depth": "(15.0,,)", "name": null, "net_slip_rate": "(0.2,0.1,0.25)", "slip_type": "Dextral-Reverse", "upper_seis_depth": "(1.0,,)", "downthrown_side_id": null, "reference": null, "epistemic_quality": null, "accuracy": null, "activity_confidence": null, "fs_name": null, "last_movement": null, "downthrown_side_dir": null, "vert_sep_rate": null, "strike_slip_rate": null, "exposure_quality": null, "shortening_rate": null, "notes": null, "index_right": 103, "NAME_EN": "Slovenia" }, "geometry": { "type": "LineString", "coordinates": [ [ 15.120106, 45.544171 ], [ 15.187885, 45.486936 ], [ 15.242054, 45.436744 ], [ 15.318277, 45.371556 ], [ 15.39304, 45.314166 ], [ 15.433592, 45.257731 ], [ 15.516924, 45.190212 ], [ 15.62693, 45.131131 ] ] } },
{ "type": "Feature", "properties": { "average_dip": "(50.0,40,60)", "average_rake": "(130,120,140)", "catalog_id": "EUR_HRCS029", "catalog_name": "SHARE", "dip_dir": null, "lower_seis_depth": "(11.0,,)", "name": null, "net_slip_rate": "(0.2,0.1,0.3)", "slip_type": "Dextral-Reverse", "upper_seis_depth": "(1.0,,)", "downthrown_side_id": null, "reference": null, "epistemic_quality": null, "accuracy": null, "activity_confidence": null, "fs_name": null, "last_movement": null, "downthrown_side_dir": null, "vert_sep_rate": null, "strike_slip_rate": null, "exposure_quality": null, "shortening_rate": null, "notes": null, "index_right": 103, "NAME_EN": "Slovenia" }, "geometry": { "type": "LineString", "coordinates": [ [ 13.852696, 45.492902 ], [ 13.88084, 45.469612 ], [ 13.90852, 45.452531 ], [ 13.972948, 45.421838 ], [ 14.005357, 45.411088 ], [ 14.044589, 45.394368 ], [ 14.084673, 45.372869 ], [ 14.140961, 45.334053 ], [ 14.218571, 45.302402 ] ] } },
{ "type": "Feature", "properties": { "average_dip": "(55.0,50,60)", "average_rake": "(145,130,160)", "catalog_id": "EUR_HRCS032", "catalog_name": "SHARE", "dip_dir": null, "lower_seis_depth": "(15.0,,)", "name": null, "net_slip_rate": "(0.2,0.1,0.3)", "slip_type": "Dextral-Reverse", "upper_seis_depth": "(1.0,,)", "downthrown_side_id": null, "reference": null, "epistemic_quality": null, "accuracy": null, "activity_confidence": null, "fs_name": null, "last_movement": null, "downthrown_side_dir": null, "vert_sep_rate": null, "strike_slip_rate": null, "exposure_quality": null, "shortening_rate": null, "notes": null, "index_right": 103, "NAME_EN": "Slovenia" }, "geometry": { "type": "LineString", "coordinates": [ [ 13.870606, 45.585464 ], [ 13.902161, 45.549036 ], [ 13.972444, 45.492357 ], [ 14.022464, 45.464457 ], [ 14.095759, 45.433781 ], [ 14.154607, 45.405117 ], [ 14.215159, 45.37048 ], [ 14.266331, 45.334053 ] ] } },
{ "type": "Feature", "properties": { "average_dip": "(37.5,30,45)", "average_rake": "(90,80,100)", "catalog_id": "EUR_ITCS064", "catalog_name": "SHARE", "dip_dir": null, "lower_seis_depth": "(5.5,,)", "name": null, "net_slip_rate": "(0.4,0.3,0.5)", "slip_type": "Reverse", "upper_seis_depth": "(1.0,,)", "downthrown_side_id": null, "reference": null, "epistemic_quality": null, "accuracy": null, "activity_confidence": null, "fs_name": null, "last_movement": null, "downthrown_side_dir": null, "vert_sep_rate": null, "strike_slip_rate": null, "exposure_quality": null, "shortening_rate": null, "notes": null, "index_right": 103, "NAME_EN": "Slovenia" }, "geometry": { "type": "LineString", "coordinates": [ [ 12.740609, 46.262524 ], [ 13.078582, 46.274853 ], [ 13.131453, 46.283652 ], [ 13.1905, 46.283341 ], [ 13.242886, 46.285668 ], [ 13.301448, 46.278886 ], [ 13.42402, 46.27811 ] ] } },
{ "type": "Feature", "properties": { "average_dip": "(55.0,50,60)", "average_rake": "(145,130,160)", "catalog_id": "EUR_ITCS100", "catalog_name": "SHARE", "dip_dir": null, "lower_seis_depth": "(15.0,,)", "name": null, "net_slip_rate": "(0.2,0.1,0.3)", "slip_type": "Dextral-Reverse", "upper_seis_depth": "(1.0,,)", "downthrown_side_id": null, "reference": null, "epistemic_quality": null, "accuracy": null, "activity_confidence": null, "fs_name": null, "last_movement": null, "downthrown_side_dir": null, "vert_sep_rate": null, "strike_slip_rate": null, "exposure_quality": null, "shortening_rate": null, "notes": null, "index_right": 103, "NAME_EN": "Slovenia" }, "geometry": { "type": "LineString", "coordinates": [ [ 13.374062, 45.900445 ], [ 13.410342, 45.867765 ], [ 13.459989, 45.833083 ], [ 13.521092, 45.801736 ], [ 13.656212, 45.71889 ], [ 13.720634, 45.675015 ], [ 13.756914, 45.648337 ], [ 13.863783, 45.590242 ] ] } },
{ "type": "Feature", "properties": { "average_dip": "(37.5,30,45)", "average_rake": "(110,100,120)", "catalog_id": "EUR_ITCS101", "catalog_name": "SHARE", "dip_dir": null, "lower_seis_depth": "(12.0,,)", "name": null, "net_slip_rate": "(0.2,0.1,0.3)", "slip_type": "Reverse", "upper_seis_depth": "(1.5,,)", "downthrown_side_id": null, "reference": null, "epistemic_quality": null, "accuracy": null, "activity_confidence": null, "fs_name": null, "last_movement": null, "downthrown_side_dir": null, "vert_sep_rate": null, "strike_slip_rate": null, "exposure_quality": null, "shortening_rate": null, "notes": null, "index_right": 103, "NAME_EN": "Slovenia" }, "geometry": { "type": "LineString", "coordinates": [ [ 13.23276, 45.846422 ], [ 13.293864, 45.810407 ], [ 13.36165, 45.773724 ], [ 13.412252, 45.743044 ], [ 13.481948, 45.712364 ], [ 13.524025, 45.688115 ], [ 13.562301, 45.660368 ], [ 13.6473, 45.610589 ], [ 13.698703, 45.574953 ], [ 13.76144, 45.534704 ], [ 13.836492, 45.496485 ] ] } },
{ "type": "Feature", "properties": { "average_dip": "(75.0,65,85)", "average_rake": "(150,140,160)", "catalog_id": "EUR_ITCS102", "catalog_name": "SHARE", "dip_dir": null, "lower_seis_depth": "(14.0,,)", "name": null, "net_slip_rate": "(0.1,0.05,0.15)", "slip_type": "Dextral-Reverse", "upper_seis_depth": "(1.0,,)", "downthrown_side_id": null, "reference": null, "epistemic_quality": null, "accuracy": null, "activity_confidence": null, "fs_name": null, "last_movement": null, "downthrown_side_dir": null, "vert_sep_rate": null, "strike_slip_rate": null, "exposure_quality": null, "shortening_rate": null, "notes": null, "index_right": 103, "NAME_EN": "Slovenia" }, "geometry": { "type": "LineString", "coordinates": [ [ 13.142739, 46.531078 ], [ 13.227497, 46.523868 ], [ 13.354177, 46.510336 ], [ 13.436251, 46.506031 ], [ 13.533491, 46.506646 ], [ 13.712211, 46.491522 ], [ 13.783282, 46.486963 ], [ 13.830401, 46.481788 ] ] } },
{ "type": "Feature", "properties": { "average_dip": "(77.5,70,85)", "average_rake": "(170,160,180)", "catalog_id": "EUR_SICS001", "catalog_name": "SHARE", "dip_dir": null, "lower_seis_depth": "(10.0,,)", "name": null, "net_slip_rate": "(0.3,0.1,0.5)", "slip_type": "Dextral", "upper_seis_depth": "(1.0,,)", "downthrown_side_id": null, "reference": null, "epistemic_quality": null, "accuracy": null, "activity_confidence": null, "fs_name": null, "last_movement": null, "downthrown_side_dir": null, "vert_sep_rate": null, "strike_slip_rate": null, "exposure_quality": null, "shortening_rate": null, "notes": null, "index_right": 103, "NAME_EN": "Slovenia" }, "geometry": { "type": "LineString", "coordinates": [ [ 13.583931, 46.32507 ], [ 13.761566, 46.217493 ], [ 13.865041, 46.152911 ], [ 13.889781, 46.134821 ], [ 13.963115, 46.086032 ] ] } },
{ "type": "Feature", "properties": { "average_dip": "(77.5,70,85)", "average_rake": "(170,160,180)", "catalog_id": "EUR_SICS002", "catalog_name": "SHARE", "dip_dir": null, "lower_seis_depth": "(14.0,,)", "name": null, "net_slip_rate": "(0.2,0.1,0.25)", "slip_type": "Dextral", "upper_seis_depth": "(1.0,,)", "downthrown_side_id": null, "reference": null, "epistemic_quality": null, "accuracy": null, "activity_confidence": null, "fs_name": null, "last_movement": null, "downthrown_side_dir": null, "vert_sep_rate": null, "strike_slip_rate": null, "exposure_quality": null, "shortening_rate": null, "notes": null, "index_right": 103, "NAME_EN": "Slovenia" }, "geometry": { "type": "LineString", "coordinates": [ [ 13.601661, 46.23335 ], [ 13.611804, 46.224831 ], [ 13.630954, 46.217615 ], [ 13.650205, 46.207791 ], [ 13.674839, 46.200274 ], [ 13.722658, 46.179726 ], [ 13.830693, 46.100951 ], [ 13.874982, 46.073712 ], [ 13.934319, 46.043182 ], [ 14.115354, 45.943178 ], [ 14.216224, 45.875431 ], [ 14.301126, 45.799167 ], [ 14.346752, 45.760326 ] ] } },
{ "type": "Feature", "properties": { "average_dip": "(57.5,45,70)", "average_rake": "(132,120,145)", "catalog_id": "EUR_SICS003", "catalog_name": "SHARE", "dip_dir": null, "lower_seis_depth": "(7.0,,)", "name": null, "net_slip_rate": "(0.2,0.1,0.2)", "slip_type": "Dextral-Reverse", "upper_seis_depth": "(1.0,,)", "downthrown_side_id": null, "reference": null, "epistemic_quality": null, "accuracy": null, "activity_confidence": null, "fs_name": null, "last_movement": null, "downthrown_side_dir": null, "vert_sep_rate": null, "strike_slip_rate": null, "exposure_quality": null, "shortening_rate": null, "notes": null, "index_right": 103, "NAME_EN": "Slovenia" }, "geometry": { "type": "LineString", "coordinates": [ [ 13.593977, 46.239106 ], [ 13.501083, 46.263237 ], [ 13.428743, 46.27709 ] ] } },
{ "type": "Feature", "properties": { "average_dip": "(77.5,70,85)", "average_rake": "(170,160,180)", "catalog_id": "EUR_SICS004", "catalog_name": "SHARE", "dip_dir": null, "lower_seis_depth": "(12.0,,)", "name": null, "net_slip_rate": "(0.2,0.15,0.35)", "slip_type": "Dextral", "upper_seis_depth": "(1.0,,)", "downthrown_side_id": null, "reference": null, "epistemic_quality": null, "accuracy": null, "activity_confidence": null, "fs_name": null, "last_movement": null, "downthrown_side_dir": null, "vert_sep_rate": null, "strike_slip_rate": null, "exposure_quality": null, "shortening_rate": null, "notes": null, "index_right": 103, "NAME_EN": "Slovenia" }, "geometry": { "type": "LineString", "coordinates": [ [ 13.769344, 45.86628 ], [ 13.839312, 45.830193 ], [ 13.931441, 45.762753 ], [ 13.999131, 45.718879 ], [ 14.015832, 45.702589 ], [ 14.054321, 45.674533 ], [ 14.126341, 45.632366 ], [ 14.21339, 45.584122 ], [ 14.260021, 45.561589 ], [ 14.303686, 45.536986 ], [ 14.409212, 45.498077 ], [ 14.477137, 45.479313 ] ] } },
{ "type": "Feature", "properties": { "average_dip": "(62.5,40,85)", "average_rake": "(150,120,180)", "catalog_id": "EUR_SICS005", "catalog_name": "SHARE", "dip_dir": null, "lower_seis_depth": "(9.0,,)", "name": null, "net_slip_rate": "(0.3,0.1,0.5)", "slip_type": "Dextral-Reverse", "upper_seis_depth": "(1.0,,)", "downthrown_side_id": null, "reference": null, "epistemic_quality": null, "accuracy": null, "activity_confidence": null, "fs_name": null, "last_movement": null, "downthrown_side_dir": null, "vert_sep_rate": null, "strike_slip_rate": null, "exposure_quality": null, "shortening_rate": null, "notes": null, "index_right": 103, "NAME_EN": "Slovenia" }, "geometry": { "type": "LineString", "coordinates": [ [ 13.459777, 46.090342 ], [ 13.599898, 45.994133 ], [ 13.660153, 45.945411 ], [ 13.699515, 45.909445 ], [ 13.723377, 45.892713 ], [ 13.742296, 45.876984 ], [ 13.755007, 45.863895 ] ] } },
{ "type": "Feature", "properties": { "average_dip": "(67.5,60,75)", "average_rake": "(165,150,180)", "catalog_id": "EUR_SICS006", "catalog_name": "SHARE", "dip_dir": null, "lower_seis_depth": "(15.0,,)", "name": null, "net_slip_rate": "(0.2,0.1,0.3)", "slip_type": "Dextral", "upper_seis_depth": "(1.0,,)", "downthrown_side_id": null, "reference": null, "epistemic_quality": null, "accuracy": null, "activity_confidence": null, "fs_name": null, "last_movement": null, "downthrown_side_dir": null, "vert_sep_rate": null, "strike_slip_rate": null, "exposure_quality": null, "shortening_rate": null, "notes": null, "index_right": 103, "NAME_EN": "Slovenia" }, "geometry": { "type": "LineString", "coordinates": [ [ 14.405134, 45.768897 ], [ 14.520393, 45.689999 ], [ 14.545122, 45.667361 ], [ 14.57104, 45.650198 ], [ 14.641458, 45.590287 ], [ 14.727511, 45.525349 ], [ 14.773839, 45.488053 ], [ 14.819679, 45.444735 ], [ 14.866866, 45.388647 ], [ 14.91943, 45.347926 ], [ 15.012864, 45.263843 ] ] } },
{ "type": "Feature", "properties": { "average_dip": "(77.5,70,85)", "average_rake": "(170,160,180)", "catalog_id": "EUR_SICS007", "catalog_name": "SHARE", "dip_dir": null, "lower_seis_depth": "(10.0,,)", "name": null, "net_slip_rate": "(0.1,0.05,0.15)", "slip_type": "Dextral", "upper_seis_depth": "(1.5,,)", "downthrown_side_id": null, "reference": null, "epistemic_quality": null, "accuracy": null, "activity_confidence": null, "fs_name": null, "last_movement": null, "downthrown_side_dir": null, "vert_sep_rate": null, "strike_slip_rate": null, "exposure_quality": null, "shortening_rate": null, "notes": null, "index_right": 103, "NAME_EN": "Slovenia" }, "geometry": { "type": "LineString", "coordinates": [ [ 14.099396, 46.382829 ], [ 14.131234, 46.363829 ], [ 14.150916, 46.348028 ], [ 14.177255, 46.331028 ], [ 14.22617, 46.313227 ], [ 14.29824, 46.277826 ] ] } },
{ "type": "Feature", "properties": { "average_dip": "(75.0,65,85)", "average_rake": "(170,160,180)", "catalog_id": "EUR_SICS008", "catalog_name": "SHARE", "dip_dir": null, "lower_seis_depth": "(14.0,,)", "name": null, "net_slip_rate": "(0.1,0.05,0.15)", "slip_type": "Dextral", "upper_seis_depth": "(1.0,,)", "downthrown_side_id": null, "reference": null, "epistemic_quality": null, "accuracy": null, "activity_confidence": null, "fs_name": null, "last_movement": null, "downthrown_side_dir": null, "vert_sep_rate": null, "strike_slip_rate": null, "exposure_quality": null, "shortening_rate": null, "notes": null, "index_right": 103, "NAME_EN": "Slovenia" }, "geometry": { "type": "LineString", "coordinates": [ [ 13.830401, 46.481788 ], [ 13.878765, 46.476476 ], [ 13.961765, 46.461193 ], [ 14.030874, 46.443295 ], [ 14.132826, 46.410382 ], [ 14.190933, 46.387574 ], [ 14.265901, 46.360696 ], [ 14.372565, 46.329641 ], [ 14.54159, 46.268955 ] ] } },
{ "type": "Feature", "properties": { "average_dip": "(77.5,70,85)", "average_rake": "(170,160,180)", "catalog_id": "EUR_SICS009", "catalog_name": "SHARE", "dip_dir": null, "lower_seis_depth": "(10.0,,)", "name": null, "net_slip_rate": "(0.1,0.05,0.2)", "slip_type": "Dextral", "upper_seis_depth": "(1.0,,)", "downthrown_side_id": null, "reference": null, "epistemic_quality": null, "accuracy": null, "activity_confidence": null, "fs_name": null, "last_movement": null, "downthrown_side_dir": null, "vert_sep_rate": null, "strike_slip_rate": null, "exposure_quality": null, "shortening_rate": null, "notes": null, "index_right": 103, "NAME_EN": "Slovenia" }, "geometry": { "type": "LineString", "coordinates": [ [ 14.32314, 45.958038 ], [ 14.346372, 45.934525 ], [ 14.371125, 45.916598 ], [ 14.403881, 45.889834 ], [ 14.423073, 45.869831 ], [ 14.445175, 45.853117 ], [ 14.467277, 45.83327 ], [ 14.502317, 45.809941 ], [ 14.520646, 45.793227 ], [ 14.540592, 45.771987 ] ] } },
{ "type": "Feature", "properties": { "average_dip": "(77.5,70,85)", "average_rake": "(170,160,180)", "catalog_id": "EUR_SICS010", "catalog_name": "SHARE", "dip_dir": null, "lower_seis_depth": "(10.0,,)", "name": null, "net_slip_rate": "(0.1,0.05,0.2)", "slip_type": "Dextral", "upper_seis_depth": "(1.0,,)", "downthrown_side_id": null, "reference": null, "epistemic_quality": null, "accuracy": null, "activity_confidence": null, "fs_name": null, "last_movement": null, "downthrown_side_dir": null, "vert_sep_rate": null, "strike_slip_rate": null, "exposure_quality": null, "shortening_rate": null, "notes": null, "index_right": 103, "NAME_EN": "Slovenia" }, "geometry": { "type": "LineString", "coordinates": [ [ 14.612006, 45.859929 ], [ 14.648163, 45.821883 ], [ 14.707583, 45.779218 ], [ 14.768654, 45.731364 ], [ 14.804142, 45.711761 ], [ 14.835502, 45.692158 ], [ 14.884381, 45.656408 ], [ 14.909057, 45.634532 ], [ 14.943566, 45.61151 ], [ 15.070395, 45.542384 ] ] } },
{ "type": "Feature", "properties": { "average_dip": "(77.5,70,85)", "average_rake": "(170,160,180)", "catalog_id": "EUR_SICS011", "catalog_name": "SHARE", "dip_dir": null, "lower_seis_depth": "(10.0,,)", "name": null, "net_slip_rate": "(0.1,0.05,0.2)", "slip_type": "Dextral", "upper_seis_depth": "(1.0,,)", "downthrown_side_id": null, "reference": null, "epistemic_quality": null, "accuracy": null, "activity_confidence": null, "fs_name": null, "last_movement": null, "downthrown_side_dir": null, "vert_sep_rate": null, "strike_slip_rate": null, "exposure_quality": null, "shortening_rate": null, "notes": null, "index_right": 103, "NAME_EN": "Slovenia" }, "geometry": { "type": "LineString", "coordinates": [ [ 14.389512, 46.075739 ], [ 14.415788, 46.056969 ], [ 14.436752, 46.034417 ], [ 14.45058, 46.014028 ], [ 14.462983, 45.999125 ], [ 14.497493, 45.948071 ], [ 14.619944, 45.802514 ] ] } },
{ "type": "Feature", "properties": { "average_dip": "(77.5,70,85)", "average_rake": "(170,160,180)", "catalog_id": "EUR_SICS012", "catalog_name": "SHARE", "dip_dir": null, "lower_seis_depth": "(10.0,,)", "name": null, "net_slip_rate": "(0.1,0.05,0.15)", "slip_type": "Dextral", "upper_seis_depth": "(2.0,,)", "downthrown_side_id": null, "reference": null, "epistemic_quality": null, "accuracy": null, "activity_confidence": null, "fs_name": null, "last_movement": null, "downthrown_side_dir": null, "vert_sep_rate": null, "strike_slip_rate": null, "exposure_quality": null, "shortening_rate": null, "notes": null, "index_right": 103, "NAME_EN": "Slovenia" }, "geometry": { "type": "LineString", "coordinates": [ [ 14.529815, 46.092511 ], [ 14.63274, 45.994317 ], [ 14.725783, 45.924913 ], [ 14.759523, 45.905596 ] ] } },
{ "type": "Feature", "properties": { "average_dip": "(77.5,70,85)", "average_rake": "(170,160,180)", "catalog_id": "EUR_SICS013", "catalog_name": "SHARE", "dip_dir": null, "lower_seis_depth": "(10.0,,)", "name": null, "net_slip_rate": "(0.1,0.05,0.1)", "slip_type": "Dextral", "upper_seis_depth": "(1.0,,)", "downthrown_side_id": null, "reference": null, "epistemic_quality": null, "accuracy": null, "activity_confidence": null, "fs_name": null, "last_movement": null, "downthrown_side_dir": null, "vert_sep_rate": null, "strike_slip_rate": null, "exposure_quality": null, "shortening_rate": null, "notes": null, "index_right": 103, "NAME_EN": "Slovenia" }, "geometry": { "type": "LineString", "coordinates": [ [ 14.857084, 46.201347 ], [ 14.924864, 46.160388 ], [ 15.007258, 46.107184 ], [ 15.06796, 46.07237 ], [ 15.120678, 46.049712 ] ] } },
{ "type": "Feature", "properties": { "average_dip": "(77.5,70,85)", "average_rake": "(170,160,180)", "catalog_id": "EUR_SICS014", "catalog_name": "SHARE", "dip_dir": null, "lower_seis_depth": "(10.0,,)", "name": null, "net_slip_rate": "(0.2,0.1,0.4)", "slip_type": "Dextral", "upper_seis_depth": "(1.0,,)", "downthrown_side_id": null, "reference": null, "epistemic_quality": null, "accuracy": null, "activity_confidence": null, "fs_name": null, "last_movement": null, "downthrown_side_dir": null, "vert_sep_rate": null, "strike_slip_rate": null, "exposure_quality": null, "shortening_rate": null, "notes": null, "index_right": 103, "NAME_EN": "Slovenia" }, "geometry": { "type": "LineString", "coordinates": [ [ 14.272218, 46.176157 ], [ 14.325901, 46.159581 ], [ 14.366623, 46.142269 ], [ 14.378505, 46.133257 ], [ 14.422721, 46.111179 ] ] } },
{ "type": "Feature", "properties": { "average_dip": "(77.5,70,85)", "average_rake": "(170,160,180)", "catalog_id": "EUR_SICS015", "catalog_name": "SHARE", "dip_dir": null, "lower_seis_depth": "(14.0,,)", "name": null, "net_slip_rate": "(0.1,0.05,0.1)", "slip_type": "Dextral", "upper_seis_depth": "(1.0,,)", "downthrown_side_id": null, "reference": null, "epistemic_quality": null, "accuracy": null, "activity_confidence": null, "fs_name": null, "last_movement": null, "downthrown_side_dir": null, "vert_sep_rate": null, "strike_slip_rate": null, "exposure_quality": null, "shortening_rate": null, "notes": null, "index_right": 103, "NAME_EN": "Slovenia" }, "geometry": { "type": "LineString", "coordinates": [ [ 14.494431, 46.26239 ], [ 14.519253, 46.258425 ], [ 14.577014, 46.25347 ], [ 14.677261, 46.236289 ], [ 14.803999, 46.219661 ], [ 14.845409, 46.218056 ] ] } },
{ "type": "Feature", "properties": { "average_dip": "(77.5,70,85)", "average_rake": "(170,160,180)", "catalog_id": "EUR_SICS016", "catalog_name": "SHARE", "dip_dir": null, "lower_seis_depth": "(14.0,,)", "name": null, "net_slip_rate": "(0.1,0.05,0.1)", "slip_type": "Dextral", "upper_seis_depth": "(1.0,,)", "downthrown_side_id": null, "reference": null, "epistemic_quality": null, "accuracy": null, "activity_confidence": null, "fs_name": null, "last_movement": null, "downthrown_side_dir": null, "vert_sep_rate": null, "strike_slip_rate": null, "exposure_quality": null, "shortening_rate": null, "notes": null, "index_right": 103, "NAME_EN": "Slovenia" }, "geometry": { "type": "LineString", "coordinates": [ [ 15.141925, 46.459395 ], [ 15.29115, 46.394952 ], [ 15.42724, 46.328134 ], [ 15.539565, 46.282826 ], [ 15.704951, 46.232262 ], [ 15.772981, 46.218273 ] ] } },
{ "type": "Feature", "properties": { "average_dip": "(77.5,70,85)", "average_rake": "(170,160,180)", "catalog_id": "EUR_SICS017", "catalog_name": "SHARE", "dip_dir": null, "lower_seis_depth": "(14.0,,)", "name": null, "net_slip_rate": "(0.1,0.05,0.1)", "slip_type": "Dextral", "upper_seis_depth": "(1.0,,)", "downthrown_side_id": null, "reference": null, "epistemic_quality": null, "accuracy": null, "activity_confidence": null, "fs_name": null, "last_movement": null, "downthrown_side_dir": null, "vert_sep_rate": null, "strike_slip_rate": null, "exposure_quality": null, "shortening_rate": null, "notes": null, "index_right": 103, "NAME_EN": "Slovenia" }, "geometry": { "type": "LineString", "coordinates": [ [ 14.988747, 46.394338 ], [ 15.087552, 46.361564 ], [ 15.286144, 46.305143 ], [ 15.42299, 46.274055 ], [ 15.461956, 46.269253 ] ] } },
{ "type": "Feature", "properties": { "average_dip": "(77.5,70,85)", "average_rake": "(170,160,180)", "catalog_id": "EUR_SICS018", "catalog_name": "SHARE", "dip_dir": null, "lower_seis_depth": "(10.0,,)", "name": null, "net_slip_rate": "(0.1,0.05,0.2)", "slip_type": "Dextral", "upper_seis_depth": "(1.0,,)", "downthrown_side_id": null, "reference": null, "epistemic_quality": null, "accuracy": null, "activity_confidence": null, "fs_name": null, "last_movement": null, "downthrown_side_dir": null, "vert_sep_rate": null, "strike_slip_rate": null, "exposure_quality": null, "shortening_rate": null, "notes": null, "index_right": 103, "NAME_EN": "Slovenia" }, "geometry": { "type": "LineString", "coordinates": [ [ 13.956544, 46.22228 ], [ 13.997764, 46.199737 ], [ 14.023705, 46.189807 ], [ 14.135888, 46.155359 ] ] } },
{ "type": "Feature", "properties": { "average_dip": "(65.0,60,70)", "average_rake": "(165,150,180)", "catalog_id": "EUR_SICS019", "catalog_name": "SHARE", "dip_dir": null, "lower_seis_depth": "(12.0,,)", "name": null, "net_slip_rate": "(0.2,0.1,0.2)", "slip_type": "Dextral", "upper_seis_depth": "(1.0,,)", "downthrown_side_id": null, "reference": null, "epistemic_quality": null, "accuracy": null, "activity_confidence": null, "fs_name": null, "last_movement": null, "downthrown_side_dir": null, "vert_sep_rate": null, "strike_slip_rate": null, "exposure_quality": null, "shortening_rate": null, "notes": null, "index_right": 103, "NAME_EN": "Slovenia" }, "geometry": { "type": "LineString", "coordinates": [ [ 13.844732, 45.979849 ], [ 13.891043, 45.92383 ], [ 13.906268, 45.897162 ], [ 13.927695, 45.870714 ], [ 13.946914, 45.852892 ], [ 13.963447, 45.828984 ], [ 13.99076, 45.795656 ], [ 14.017769, 45.777007 ], [ 14.041747, 45.754283 ], [ 14.055551, 45.744625 ] ] } },
{ "type": "Feature", "properties": { "average_dip": "(65.0,60,70)", "average_rake": "(165,150,180)", "catalog_id": "EUR_SICS020", "catalog_name": "SHARE", "dip_dir": null, "lower_seis_depth": "(12.0,,)", "name": null, "net_slip_rate": "(0.2,0.1,0.2)", "slip_type": "Dextral", "upper_seis_depth": "(1.0,,)", "downthrown_side_id": null, "reference": null, "epistemic_quality": null, "accuracy": null, "activity_confidence": null, "fs_name": null, "last_movement": null, "downthrown_side_dir": null, "vert_sep_rate": null, "strike_slip_rate": null, "exposure_quality": null, "shortening_rate": null, "notes": null, "index_right": 103, "NAME_EN": "Slovenia" }, "geometry": { "type": "LineString", "coordinates": [ [ 14.127812, 45.745777 ], [ 14.166622, 45.717341 ], [ 14.186028, 45.699382 ], [ 14.222682, 45.654483 ], [ 14.25287, 45.622305 ], [ 14.307378, 45.569558 ] ] } },
{ "type": "Feature", "properties": { "average_dip": "(77.5,70,85)", "average_rake": "(170,160,180)", "catalog_id": "EUR_SICS021", "catalog_name": "SHARE", "dip_dir": null, "lower_seis_depth": "(10.0,,)", "name": null, "net_slip_rate": "(0.1,0.05,0.15)", "slip_type": "Dextral", "upper_seis_depth": "(1.0,,)", "downthrown_side_id": null, "reference": null, "epistemic_quality": null, "accuracy": null, "activity_confidence": null, "fs_name": null, "last_movement": null, "downthrown_side_dir": null, "vert_sep_rate": null, "strike_slip_rate": null, "exposure_quality": null, "shortening_rate": null, "notes": null, "index_right": 103, "NAME_EN": "Slovenia" }, "geometry": { "type": "LineString", "coordinates": [ [ 14.693939, 46.110796 ], [ 14.71203, 46.097303 ], [ 14.749532, 46.06347 ], [ 14.773105, 46.04488 ], [ 14.897191, 45.951772 ], [ 14.91722, 45.938548 ] ] } },
{ "type": "Feature", "properties": { "average_dip": "(80.0,70,90)", "average_rake": "(40,20,60)", "catalog_id": "EUR_SICS022", "catalog_name": "SHARE", "dip_dir": null, "lower_seis_depth": "(10.0,,)", "name": null, "net_slip_rate": "(0.1,0.05,0.15)", "slip_type": "Sinistral-Reverse", "upper_seis_depth": "(3.0,,)", "downthrown_side_id": null, "reference": null, "epistemic_quality": null, "accuracy": null, "activity_confidence": null, "fs_name": null, "last_movement": null, "downthrown_side_dir": null, "vert_sep_rate": null, "strike_slip_rate": null, "exposure_quality": null, "shortening_rate": null, "notes": null, "index_right": 103, "NAME_EN": "Slovenia" }, "geometry": { "type": "LineString", "coordinates": [ [ 15.379428, 45.900356 ], [ 15.47985, 45.928942 ], [ 15.58301, 45.963246 ], [ 15.632106, 45.982191 ], [ 15.768334, 46.043923 ], [ 15.80759, 46.064887 ] ] } },
{ "type": "Feature", "properties": { "average_dip": "(77.5,70,85)", "average_rake": "(150,140,160)", "catalog_id": "EUR_SICS023", "catalog_name": "SHARE", "dip_dir": null, "lower_seis_depth": "(10.0,,)", "name": null, "net_slip_rate": "(0.2,0.1,0.3)", "slip_type": "Dextral-Reverse", "upper_seis_depth": "(2.0,,)", "downthrown_side_id": null, "reference": null, "epistemic_quality": null, "accuracy": null, "activity_confidence": null, "fs_name": null, "last_movement": null, "downthrown_side_dir": null, "vert_sep_rate": null, "strike_slip_rate": null, "exposure_quality": null, "shortening_rate": null, "notes": null, "index_right": 103, "NAME_EN": "Slovenia" }, "geometry": { "type": "LineString", "coordinates": [ [ 14.428473, 46.090625 ], [ 14.488867, 46.052831 ], [ 14.505163, 46.040234 ], [ 14.523983, 46.028893 ], [ 14.557887, 45.997136 ], [ 14.583769, 45.963984 ], [ 14.604859, 45.944092 ] ] } },
{ "type": "Feature", "properties": { "average_dip": "(77.5,70,85)", "average_rake": "(170,160,180)", "catalog_id": "EUR_SICS024", "catalog_name": "SHARE", "dip_dir": null, "lower_seis_depth": "(10.0,,)", "name": null, "net_slip_rate": "(0.1,0.05,0.2)", "slip_type": "Dextral", "upper_seis_depth": "(1.0,,)", "downthrown_side_id": null, "reference": null, "epistemic_quality": null, "accuracy": null, "activity_confidence": null, "fs_name": null, "last_movement": null, "downthrown_side_dir": null, "vert_sep_rate": null, "strike_slip_rate": null, "exposure_quality": null, "shortening_rate": null, "notes": null, "index_right": 103, "NAME_EN": "Slovenia" }, "geometry": { "type": "LineString", "coordinates": [ [ 14.039669, 46.09175 ], [ 14.094874, 46.05482 ], [ 14.12555, 46.030951 ], [ 14.153801, 46.012297 ], [ 14.20895, 45.984538 ] ] } },
{ "type": "Feature", "properties": { "average_dip": "(77.5,70,85)", "average_rake": "(170,160,180)", "catalog_id": "EUR_SICS025", "catalog_name": "SHARE", "dip_dir": null, "lower_seis_depth": "(10.0,,)", "name": null, "net_slip_rate": "(0.1,0.05,0.15)", "slip_type": "Dextral", "upper_seis_depth": "(1.0,,)", "downthrown_side_id": null, "reference": null, "epistemic_quality": null, "accuracy": null, "activity_confidence": null, "fs_name": null, "last_movement": null, "downthrown_side_dir": null, "vert_sep_rate": null, "strike_slip_rate": null, "exposure_quality": null, "shortening_rate": null, "notes": null, "index_right": 103, "NAME_EN": "Slovenia" }, "geometry": { "type": "LineString", "coordinates": [ [ 14.488664, 46.17423 ], [ 14.501148, 46.160543 ], [ 14.51814, 46.145415 ], [ 14.555969, 46.117809 ], [ 14.672921, 46.059462 ] ] } }
]
}
