{
"type": "FeatureCollection",
"name": "faults_laos",
"crs": { "type": "name", "properties": { "name": "urn:ogc:def:crs:OGC:1.3:CRS84" } },
"features": [
{ "type": "Feature", "properties": { "average_dip": null, "average_rake": null, "catalog_id": "GAF_121", "catalog_name": "HimaTibetMap", "dip_dir": null, "lower_seis_depth": null, "name": null, "net_slip_rate": null, "slip_type": "Sinistral", "upper_seis_depth": null, "downthrown_side_id": null, "reference": null, "epistemic_quality": null, "accuracy": null, "activity_confidence": null, "fs_name": null, "last_movement": null, "downthrown_side_dir": null, "vert_sep_rate": null, "strike_slip_rate": null, "exposure_quality": "1", "shortening_rate": null, "notes": null, "index_right": 67, "NAME_EN": "Laos" }, "geometry": { "type": "LineString", "coordinates": [ [ 101.613552718785186, 19.492929403120016 ], [ 101.658650355855514, 19.610183259502836 ], [ 101.884138541207093, 19.835671444854416 ], [ 102.208841528113368, 20.196452541416942 ], [ 102.470407823121192, 20.575272692807594 ], [ 102.596681206918078, 20.8187999329873 ], [ 102.67785695364465, 20.963112371612311 ] ] } },
{ "type": "Feature", "properties": { "average_dip": null, "average_rake": null, "catalog_id": "GAF_124", "catalog_name": "HimaTibetMap", "dip_dir": null, "lower_seis_depth": null, "name": null, "net_slip_rate": null, "slip_type": "Dextral", "upper_seis_depth": null, "downthrown_side_id": null, "reference": null, "epistemic_quality": null, "accuracy": null, "activity_confidence": null, "fs_name": null, "last_movement": null, "downthrown_side_dir": null, "vert_sep_rate": null, "strike_slip_rate": null, "exposure_quality": "1", "shortening_rate": null, "notes": null, "index_right": 67, "NAME_EN": "Laos" }, "geometry": { "type": "LineString", "coordinates": [ [ 103.372360564527511, 19.02391397758873 ], [ 104.057844647996319, 18.68117193585433 ], [ 104.88764117009012, 18.149019818424602 ], [ 105.491949506832356, 17.725102029963633 ], [ 105.924886822707393, 17.391379515643298 ], [ 106.222531227371476, 17.120793693221401 ] ] } },
{ "type": "Feature", "properties": { "average_dip": null, "average_rake": null, "catalog_id": "GAF_125", "catalog_name": "HimaTibetMap", "dip_dir": null, "lower_seis_depth": null, "name": null, "net_slip_rate": null, "slip_type": "Dextral", "upper_seis_depth": null, "downthrown_side_id": null, "reference": null, "epistemic_quality": null, "accuracy": null, "activity_confidence": null, "fs_name": null, "last_movement": null, "downthrown_side_dir": null, "vert_sep_rate": null, "strike_slip_rate": null, "exposure_quality": "1", "shortening_rate": null, "notes": null, "index_right": 67, "NAME_EN": "Laos" }, "geometry": { "type": "LineString", "coordinates": [ [ 103.264126235558749, 18.42862516826056 ], [ 103.742161188504099, 18.419605640846498 ], [ 104.066864175410373, 18.320390839291804 ], [ 104.256274251105708, 18.176078400666793 ], [ 104.445684326801029, 17.977648797557404 ], [ 104.72528967663699, 17.725102029963633 ], [ 104.878621642676066, 17.472555262369866 ], [ 104.941758334574502, 17.31922329633079 ] ] } },
{ "type": "Feature", "properties": { "average_dip": null, "average_rake": null, "catalog_id": "GAF_126", "catalog_name": "HimaTibetMap", "dip_dir": null, "lower_seis_depth": null, "name": null, "net_slip_rate": null, "slip_type": "Reverse", "upper_seis_depth": null, "downthrown_side_id": null, "reference": null, "epistemic_quality": null, "accuracy": null, "activity_confidence": null, "fs_name": null, "last_movement": null, "downthrown_side_dir": null, "vert_sep_rate": null, "strike_slip_rate": null, "exposure_quality": "1", "shortening_rate": null, "notes": null, "index_right": 67, "NAME_EN": "Laos" }, "geometry": { "type": "LineString", "coordinates": [ [ 104.932738807160433, 17.860394941174579 ], [ 105.149207465097959, 17.607848173580813 ], [ 105.419793287519852, 17.526672426854244 ], [ 105.663320527699554, 17.517652899440179 ], [ 105.771554856668317, 17.508633372026118 ] ] } },
{ "type": "Feature", "properties": { "average_dip": "(90.0,,)", "average_rake": "(0.0,,)", "catalog_id": "EOS_AF0069", "catalog_name": "EOS_SE_Asia", "dip_dir": null, "lower_seis_depth": "(15.0,,)", "name": null, "net_slip_rate": null, "slip_type": "Sinistral", "upper_seis_depth": "(1.0,,)", "downthrown_side_id": null, "reference": null, "epistemic_quality": null, "accuracy": null, "activity_confidence": null, "fs_name": null, "last_movement": null, "downthrown_side_dir": null, "vert_sep_rate": null, "strike_slip_rate": null, "exposure_quality": null, "shortening_rate": null, "notes": null, "index_right": 67, "NAME_EN": "Laos" }, "geometry": { "type": "LineString", "coordinates": [ [ 101.024, 21.056 ], [ 101.02, 21.052 ], [ 100.991, 21.035 ], [ 100.968, 21.029 ], [ 100.954, 21.023 ], [ 100.946, 21.017 ], [ 100.929, 21.01 ], [ 100.918, 21.003 ], [ 100.89, 20.99 ], [ 100.876, 20.981 ], [ 100.864, 20.977 ], [ 100.858, 20.973 ], [ 100.794, 20.951 ], [ 100.726, 20.925 ], [ 100.671, 20.91 ], [ 100.639, 20.899 ], [ 100.61, 20.893 ], [ 100.547, 20.871 ], [ 100.509, 20.861 ], [ 100.463, 20.854 ], [ 100.417, 20.852 ], [ 100.36, 20.838 ], [ 100.319, 20.823 ] ] } },
{ "type": "Feature", "properties": { "average_dip": "(90.0,,)", "average_rake": "(0.0,,)", "catalog_id": "EOS_AF0072", "catalog_name": "EOS_SE_Asia", "dip_dir": null, "lower_seis_depth": "(15.0,,)", "name": null, "net_slip_rate": null, "slip_type": "Sinistral", "upper_seis_depth": "(1.0,,)", "downthrown_side_id": null, "reference": null, "epistemic_quality": null, "accuracy": null, "activity_confidence": null, "fs_name": null, "last_movement": null, "downthrown_side_dir": null, "vert_sep_rate": null, "strike_slip_rate": null, "exposure_quality": null, "shortening_rate": null, "notes": null, "index_right": 67, "NAME_EN": "Laos" }, "geometry": { "type": "LineString", "coordinates": [ [ 100.975, 21.037 ], [ 100.984, 21.045 ], [ 101.034, 21.067 ], [ 101.059, 21.082 ], [ 101.09, 21.096 ], [ 101.133, 21.12 ], [ 101.142, 21.122 ], [ 101.19, 21.149 ], [ 101.217, 21.169 ], [ 101.24, 21.199 ], [ 101.283, 21.223 ], [ 101.313, 21.237 ], [ 101.38, 21.277 ], [ 101.409, 21.299 ], [ 101.452, 21.32 ], [ 101.486, 21.344 ], [ 101.5, 21.35 ], [ 101.513, 21.36 ], [ 101.548, 21.396 ] ] } },
{ "type": "Feature", "properties": { "average_dip": "(90.0,,)", "average_rake": "(0.0,,)", "catalog_id": "EOS_AF0075", "catalog_name": "EOS_SE_Asia", "dip_dir": null, "lower_seis_depth": "(15.0,,)", "name": null, "net_slip_rate": null, "slip_type": "Sinistral", "upper_seis_depth": "(1.0,,)", "downthrown_side_id": null, "reference": null, "epistemic_quality": null, "accuracy": null, "activity_confidence": null, "fs_name": null, "last_movement": null, "downthrown_side_dir": null, "vert_sep_rate": null, "strike_slip_rate": null, "exposure_quality": null, "shortening_rate": null, "notes": null, "index_right": 67, "NAME_EN": "Laos" }, "geometry": { "type": "LineString", "coordinates": [ [ 101.206, 20.761 ], [ 101.283, 20.812 ], [ 101.399, 20.861 ], [ 101.436, 20.881 ], [ 101.501, 20.932 ], [ 101.546, 20.963 ], [ 101.559, 20.976 ], [ 101.575, 20.996 ], [ 101.59, 21.02 ] ] } },
{ "type": "Feature", "properties": { "average_dip": "(90.0,,)", "average_rake": "(0.0,,)", "catalog_id": "EOS_AF0076", "catalog_name": "EOS_SE_Asia", "dip_dir": null, "lower_seis_depth": "(15.0,,)", "name": null, "net_slip_rate": null, "slip_type": "Sinistral", "upper_seis_depth": "(1.0,,)", "downthrown_side_id": null, "reference": null, "epistemic_quality": null, "accuracy": null, "activity_confidence": null, "fs_name": null, "last_movement": null, "downthrown_side_dir": null, "vert_sep_rate": null, "strike_slip_rate": null, "exposure_quality": null, "shortening_rate": null, "notes": null, "index_right": 67, "NAME_EN": "Laos" }, "geometry": { "type": "LineString", "coordinates": [ [ 101.221, 20.776 ], [ 101.231, 20.788 ], [ 101.234, 20.795 ], [ 101.252, 20.811 ], [ 101.277, 20.828 ], [ 101.293, 20.851 ], [ 101.304, 20.861 ], [ 101.332, 20.877 ], [ 101.366, 20.889 ], [ 101.42, 20.924 ], [ 101.443, 20.935 ], [ 101.462, 20.947 ], [ 101.478, 20.964 ], [ 101.493, 20.986 ], [ 101.509, 20.998 ], [ 101.539, 21.014 ], [ 101.553, 21.025 ], [ 101.58, 21.052 ], [ 101.632, 21.09 ], [ 101.641, 21.106 ], [ 101.664, 21.14 ], [ 101.672, 21.16 ] ] } },
{ "type": "Feature", "properties": { "average_dip": "(90.0,,)", "average_rake": "(0.0,,)", "catalog_id": "EOS_AF0077", "catalog_name": "EOS_SE_Asia", "dip_dir": null, "lower_seis_depth": "(15.0,,)", "name": null, "net_slip_rate": null, "slip_type": "Sinistral", "upper_seis_depth": "(1.0,,)", "downthrown_side_id": null, "reference": null, "epistemic_quality": null, "accuracy": null, "activity_confidence": null, "fs_name": null, "last_movement": null, "downthrown_side_dir": null, "vert_sep_rate": null, "strike_slip_rate": null, "exposure_quality": null, "shortening_rate": null, "notes": null, "index_right": 67, "NAME_EN": "Laos" }, "geometry": { "type": "LineString", "coordinates": [ [ 101.206, 20.76 ], [ 101.172, 20.736 ], [ 101.11, 20.707 ], [ 101.07, 20.674 ], [ 101.058, 20.657 ], [ 101.046, 20.646 ], [ 101.013, 20.609 ], [ 100.992, 20.591 ], [ 100.96, 20.573 ], [ 100.872, 20.54 ], [ 100.734, 20.521 ], [ 100.698, 20.503 ], [ 100.667, 20.482 ], [ 100.639, 20.466 ], [ 100.587, 20.429 ], [ 100.554, 20.403 ], [ 100.525, 20.395 ], [ 100.449, 20.384 ], [ 100.41, 20.374 ] ] } },
{ "type": "Feature", "properties": { "average_dip": "(90.0,,)", "average_rake": "(0.0,,)", "catalog_id": "EOS_AF0078", "catalog_name": "EOS_SE_Asia", "dip_dir": null, "lower_seis_depth": "(15.0,,)", "name": null, "net_slip_rate": null, "slip_type": "Sinistral", "upper_seis_depth": "(1.0,,)", "downthrown_side_id": null, "reference": null, "epistemic_quality": null, "accuracy": null, "activity_confidence": null, "fs_name": null, "last_movement": null, "downthrown_side_dir": null, "vert_sep_rate": null, "strike_slip_rate": null, "exposure_quality": null, "shortening_rate": null, "notes": null, "index_right": 67, "NAME_EN": "Laos" }, "geometry": { "type": "LineString", "coordinates": [ [ 100.483, 20.428 ], [ 100.474, 20.428 ], [ 100.462, 20.424 ], [ 100.451, 20.418 ], [ 100.439, 20.41 ], [ 100.423, 20.396 ], [ 100.39, 20.378 ], [ 100.362, 20.358 ], [ 100.298, 20.32 ], [ 100.242, 20.294 ], [ 100.218, 20.285 ], [ 100.199, 20.274 ], [ 100.189, 20.265 ], [ 100.184, 20.258 ], [ 100.17, 20.249 ], [ 100.144, 20.238 ], [ 100.107, 20.225 ], [ 100.091, 20.216 ], [ 100.077, 20.211 ], [ 100.046, 20.196 ], [ 100.018, 20.176 ], [ 99.972, 20.159 ], [ 99.957, 20.155 ], [ 99.938, 20.155 ], [ 99.905, 20.146 ], [ 99.86, 20.138 ], [ 99.837, 20.13 ], [ 99.798, 20.113 ], [ 99.779, 20.108 ], [ 99.748, 20.105 ], [ 99.731, 20.105 ], [ 99.711, 20.108 ], [ 99.669, 20.111 ], [ 99.628, 20.107 ], [ 99.604, 20.103 ], [ 99.572, 20.105 ], [ 99.544, 20.102 ], [ 99.489, 20.083 ], [ 99.464, 20.077 ], [ 99.386, 20.065 ], [ 99.357, 20.052 ], [ 99.349, 20.05 ], [ 99.338, 20.051 ], [ 99.318, 20.049 ], [ 99.29, 20.041 ], [ 99.281, 20.037 ], [ 99.265, 20.026 ], [ 99.203, 19.957 ], [ 99.153, 19.919 ], [ 99.098, 19.8 ], [ 99.096, 19.732 ], [ 99.111, 19.688 ] ] } },
{ "type": "Feature", "properties": { "average_dip": "(90.0,,)", "average_rake": "(0.0,,)", "catalog_id": "EOS_AF0080", "catalog_name": "EOS_SE_Asia", "dip_dir": null, "lower_seis_depth": "(15.0,,)", "name": null, "net_slip_rate": null, "slip_type": "Sinistral", "upper_seis_depth": "(1.0,,)", "downthrown_side_id": null, "reference": null, "epistemic_quality": null, "accuracy": null, "activity_confidence": null, "fs_name": null, "last_movement": null, "downthrown_side_dir": null, "vert_sep_rate": null, "strike_slip_rate": null, "exposure_quality": null, "shortening_rate": null, "notes": null, "index_right": 67, "NAME_EN": "Laos" }, "geometry": { "type": "LineString", "coordinates": [ [ 102.972, 21.515 ], [ 102.956, 21.492 ], [ 102.933, 21.454 ], [ 102.92, 21.438 ], [ 102.889, 21.407 ], [ 102.858, 21.363 ], [ 102.853, 21.341 ], [ 102.851, 21.309 ], [ 102.823, 21.261 ] ] } },
{ "type": "Feature", "properties": { "average_dip": "(90.0,,)", "average_rake": "(0.0,,)", "catalog_id": "EOS_AF0081", "catalog_name": "EOS_SE_Asia", "dip_dir": null, "lower_seis_depth": "(15.0,,)", "name": null, "net_slip_rate": null, "slip_type": "Sinistral", "upper_seis_depth": "(1.0,,)", "downthrown_side_id": null, "reference": null, "epistemic_quality": null, "accuracy": null, "activity_confidence": null, "fs_name": null, "last_movement": null, "downthrown_side_dir": null, "vert_sep_rate": null, "strike_slip_rate": null, "exposure_quality": null, "shortening_rate": null, "notes": null, "index_right": 67, "NAME_EN": "Laos" }, "geometry": { "type": "LineString", "coordinates": [ [ 102.057, 20.721 ], [ 101.956, 20.616 ], [ 101.917, 20.566 ], [ 101.913, 20.557 ], [ 101.883, 20.516 ], [ 101.818, 20.445 ], [ 101.811, 20.434 ], [ 101.794, 20.413 ], [ 101.786, 20.408 ], [ 101.754, 20.367 ], [ 101.737, 20.338 ], [ 101.718, 20.315 ], [ 101.701, 20.285 ], [ 101.686, 20.245 ] ] } },
{ "type": "Feature", "properties": { "average_dip": "(90.0,,)", "average_rake": "(0.0,,)", "catalog_id": "EOS_AF0082", "catalog_name": "EOS_SE_Asia", "dip_dir": null, "lower_seis_depth": "(15.0,,)", "name": null, "net_slip_rate": null, "slip_type": "Sinistral", "upper_seis_depth": "(1.0,,)", "downthrown_side_id": null, "reference": null, "epistemic_quality": null, "accuracy": null, "activity_confidence": null, "fs_name": null, "last_movement": null, "downthrown_side_dir": null, "vert_sep_rate": null, "strike_slip_rate": null, "exposure_quality": null, "shortening_rate": null, "notes": null, "index_right": 67, "NAME_EN": "Laos" }, "geometry": { "type": "LineString", "coordinates": [ [ 101.636, 20.296 ], [ 101.631, 20.291 ], [ 101.617, 20.282 ], [ 101.595, 20.261 ], [ 101.582, 20.253 ], [ 101.577, 20.248 ], [ 101.572, 20.239 ], [ 101.533, 20.205 ], [ 101.506, 20.164 ], [ 101.489, 20.125 ] ] } },
{ "type": "Feature", "properties": { "average_dip": "(90.0,,)", "average_rake": "(0.0,,)", "catalog_id": "EOS_AF0083", "catalog_name": "EOS_SE_Asia", "dip_dir": null, "lower_seis_depth": "(15.0,,)", "name": null, "net_slip_rate": null, "slip_type": "Sinistral", "upper_seis_depth": "(1.0,,)", "downthrown_side_id": null, "reference": null, "epistemic_quality": null, "accuracy": null, "activity_confidence": null, "fs_name": null, "last_movement": null, "downthrown_side_dir": null, "vert_sep_rate": null, "strike_slip_rate": null, "exposure_quality": null, "shortening_rate": null, "notes": null, "index_right": 67, "NAME_EN": "Laos" }, "geometry": { "type": "LineString", "coordinates": [ [ 101.412, 19.995 ], [ 101.331, 19.972 ], [ 101.262, 19.949 ], [ 101.215, 19.927 ], [ 101.163, 19.914 ], [ 101.128, 19.896 ], [ 101.056, 19.842 ] ] } },
{ "type": "Feature", "properties": { "average_dip": "(90.0,,)", "average_rake": "(0.0,,)", "catalog_id": "EOS_AF0084", "catalog_name": "EOS_SE_Asia", "dip_dir": null, "lower_seis_depth": "(15.0,,)", "name": null, "net_slip_rate": null, "slip_type": "Sinistral", "upper_seis_depth": "(1.0,,)", "downthrown_side_id": null, "reference": null, "epistemic_quality": null, "accuracy": null, "activity_confidence": null, "fs_name": null, "last_movement": null, "downthrown_side_dir": null, "vert_sep_rate": null, "strike_slip_rate": null, "exposure_quality": null, "shortening_rate": null, "notes": null, "index_right": 67, "NAME_EN": "Laos" }, "geometry": { "type": "LineString", "coordinates": [ [ 101.15, 19.728 ], [ 101.171, 19.759 ], [ 101.216, 19.789 ], [ 101.251, 19.816 ], [ 101.373, 19.87 ], [ 101.43, 19.891 ], [ 101.535, 19.925 ], [ 101.585, 19.957 ], [ 101.615, 19.986 ], [ 101.632, 20.028 ], [ 101.654, 20.071 ] ] } },
{ "type": "Feature", "properties": { "average_dip": "(90.0,,)", "average_rake": "(0.0,,)", "catalog_id": "EOS_AF0085", "catalog_name": "EOS_SE_Asia", "dip_dir": null, "lower_seis_depth": "(15.0,,)", "name": null, "net_slip_rate": null, "slip_type": "Sinistral", "upper_seis_depth": "(1.0,,)", "downthrown_side_id": null, "reference": null, "epistemic_quality": null, "accuracy": null, "activity_confidence": null, "fs_name": null, "last_movement": null, "downthrown_side_dir": null, "vert_sep_rate": null, "strike_slip_rate": null, "exposure_quality": null, "shortening_rate": null, "notes": null, "index_right": 67, "NAME_EN": "Laos" }, "geometry": { "type": "LineString", "coordinates": [ [ 102.18, 20.287 ], [ 102.14, 20.258 ], [ 102.089, 20.218 ], [ 102.022, 20.177 ], [ 101.999, 20.154 ], [ 101.978, 20.136 ], [ 101.959, 20.123 ], [ 101.942, 20.102 ], [ 101.924, 20.088 ], [ 101.904, 20.074 ], [ 101.838, 20.044 ], [ 101.816, 20.022 ], [ 101.791, 20.002 ], [ 101.761, 19.987 ], [ 101.739, 19.965 ], [ 101.712, 19.946 ], [ 101.701, 19.931 ], [ 101.67, 19.903 ], [ 101.62, 19.861 ], [ 101.59, 19.839 ], [ 101.553, 19.824 ], [ 101.524, 19.809 ], [ 101.525, 19.808 ] ] } },
{ "type": "Feature", "properties": { "average_dip": "(90.0,,)", "average_rake": "(0.0,,)", "catalog_id": "EOS_AF0086", "catalog_name": "EOS_SE_Asia", "dip_dir": null, "lower_seis_depth": "(15.0,,)", "name": null, "net_slip_rate": null, "slip_type": "Sinistral", "upper_seis_depth": "(1.0,,)", "downthrown_side_id": null, "reference": null, "epistemic_quality": null, "accuracy": null, "activity_confidence": null, "fs_name": null, "last_movement": null, "downthrown_side_dir": null, "vert_sep_rate": null, "strike_slip_rate": null, "exposure_quality": null, "shortening_rate": null, "notes": null, "index_right": 67, "NAME_EN": "Laos" }, "geometry": { "type": "LineString", "coordinates": [ [ 102.205, 20.235 ], [ 102.181, 20.212 ], [ 102.165, 20.199 ], [ 102.124, 20.169 ], [ 102.104, 20.151 ], [ 102.076, 20.132 ], [ 102.057, 20.115 ], [ 102.018, 20.087 ], [ 102.0, 20.068 ], [ 101.887, 19.973 ], [ 101.848, 19.947 ], [ 101.829, 19.932 ], [ 101.793, 19.91 ], [ 101.764, 19.888 ], [ 101.732, 19.859 ], [ 101.702, 19.817 ] ] } },
{ "type": "Feature", "properties": { "average_dip": "(90.0,,)", "average_rake": "(0.0,,)", "catalog_id": "EOS_AF0087", "catalog_name": "EOS_SE_Asia", "dip_dir": null, "lower_seis_depth": "(15.0,,)", "name": null, "net_slip_rate": null, "slip_type": "Sinistral", "upper_seis_depth": "(1.0,,)", "downthrown_side_id": null, "reference": null, "epistemic_quality": null, "accuracy": null, "activity_confidence": null, "fs_name": null, "last_movement": null, "downthrown_side_dir": null, "vert_sep_rate": null, "strike_slip_rate": null, "exposure_quality": null, "shortening_rate": null, "notes": null, "index_right": 67, "NAME_EN": "Laos" }, "geometry": { "type": "LineString", "coordinates": [ [ 102.329, 20.383 ], [ 102.322, 20.367 ], [ 102.304, 20.346 ], [ 102.268, 20.317 ], [ 102.245, 20.286 ], [ 102.228, 20.267 ], [ 102.21, 20.241 ], [ 102.197, 20.218 ], [ 102.158, 20.172 ], [ 102.119, 20.118 ], [ 102.097, 20.097 ], [ 102.06, 20.056 ], [ 102.021, 20.004 ], [ 102.013, 19.996 ], [ 101.992, 19.98 ], [ 101.982, 19.97 ], [ 101.974, 19.959 ], [ 101.961, 19.95 ], [ 101.957, 19.941 ], [ 101.945, 19.934 ], [ 101.933, 19.924 ] ] } },
{ "type": "Feature", "properties": { "average_dip": "(90.0,,)", "average_rake": "(0.0,,)", "catalog_id": "EOS_AF0088", "catalog_name": "EOS_SE_Asia", "dip_dir": null, "lower_seis_depth": "(15.0,,)", "name": null, "net_slip_rate": null, "slip_type": "Sinistral", "upper_seis_depth": "(1.0,,)", "downthrown_side_id": null, "reference": null, "epistemic_quality": null, "accuracy": null, "activity_confidence": null, "fs_name": null, "last_movement": null, "downthrown_side_dir": null, "vert_sep_rate": null, "strike_slip_rate": null, "exposure_quality": null, "shortening_rate": null, "notes": null, "index_right": 67, "NAME_EN": "Laos" }, "geometry": { "type": "LineString", "coordinates": [ [ 102.194, 20.008 ], [ 102.145, 19.978 ], [ 102.097, 19.945 ], [ 102.045, 19.906 ], [ 101.985, 19.871 ], [ 101.863, 19.766 ], [ 101.832, 19.748 ], [ 101.833, 19.748 ] ] } },
{ "type": "Feature", "properties": { "average_dip": "(90.0,,)", "average_rake": "(0.0,,)", "catalog_id": "EOS_AF0089", "catalog_name": "EOS_SE_Asia", "dip_dir": null, "lower_seis_depth": "(15.0,,)", "name": null, "net_slip_rate": null, "slip_type": "Sinistral", "upper_seis_depth": "(1.0,,)", "downthrown_side_id": null, "reference": null, "epistemic_quality": null, "accuracy": null, "activity_confidence": null, "fs_name": null, "last_movement": null, "downthrown_side_dir": null, "vert_sep_rate": null, "strike_slip_rate": null, "exposure_quality": null, "shortening_rate": null, "notes": null, "index_right": 67, "NAME_EN": "Laos" }, "geometry": { "type": "LineString", "coordinates": [ [ 102.579, 20.242 ], [ 102.549, 20.206 ], [ 102.52, 20.183 ], [ 102.493, 20.167 ], [ 102.423, 20.103 ], [ 102.312, 20.015 ], [ 102.313, 20.015 ] ] } },
{ "type": "Feature", "properties": { "average_dip": "(90.0,,)", "average_rake": "(0.0,,)", "catalog_id": "EOS_AF0090", "catalog_name": "EOS_SE_Asia", "dip_dir": null, "lower_seis_depth": "(15.0,,)", "name": null, "net_slip_rate": null, "slip_type": "Sinistral", "upper_seis_depth": "(1.0,,)", "downthrown_side_id": null, "reference": null, "epistemic_quality": null, "accuracy": null, "activity_confidence": null, "fs_name": null, "last_movement": null, "downthrown_side_dir": null, "vert_sep_rate": null, "strike_slip_rate": null, "exposure_quality": null, "shortening_rate": null, "notes": null, "index_right": 67, "NAME_EN": "Laos" }, "geometry": { "type": "LineString", "coordinates": [ [ 101.995, 19.589 ], [ 102.066, 19.632 ], [ 102.111, 19.675 ], [ 102.16, 19.749 ], [ 102.211, 19.835 ], [ 102.239, 19.879 ], [ 102.276, 19.945 ], [ 102.337, 19.986 ] ] } },
{ "type": "Feature", "properties": { "average_dip": "(90.0,,)", "average_rake": "(0.0,,)", "catalog_id": "EOS_AF0091", "catalog_name": "EOS_SE_Asia", "dip_dir": null, "lower_seis_depth": "(15.0,,)", "name": null, "net_slip_rate": null, "slip_type": "Sinistral", "upper_seis_depth": "(1.0,,)", "downthrown_side_id": null, "reference": null, "epistemic_quality": null, "accuracy": null, "activity_confidence": null, "fs_name": null, "last_movement": null, "downthrown_side_dir": null, "vert_sep_rate": null, "strike_slip_rate": null, "exposure_quality": null, "shortening_rate": null, "notes": null, "index_right": 67, "NAME_EN": "Laos" }, "geometry": { "type": "LineString", "coordinates": [ [ 102.149, 19.6 ], [ 102.214, 19.655 ], [ 102.251, 19.701 ], [ 102.317, 19.788 ], [ 102.348, 19.837 ], [ 102.377, 19.866 ], [ 102.44, 19.894 ], [ 102.494, 19.922 ], [ 102.586, 19.961 ] ] } },
{ "type": "Feature", "properties": { "average_dip": "(90.0,,)", "average_rake": "(0.0,,)", "catalog_id": "EOS_AF0092", "catalog_name": "EOS_SE_Asia", "dip_dir": null, "lower_seis_depth": "(15.0,,)", "name": null, "net_slip_rate": null, "slip_type": "Sinistral", "upper_seis_depth": "(1.0,,)", "downthrown_side_id": null, "reference": null, "epistemic_quality": null, "accuracy": null, "activity_confidence": null, "fs_name": null, "last_movement": null, "downthrown_side_dir": null, "vert_sep_rate": null, "strike_slip_rate": null, "exposure_quality": null, "shortening_rate": null, "notes": null, "index_right": 67, "NAME_EN": "Laos" }, "geometry": { "type": "LineString", "coordinates": [ [ 102.194, 19.884 ], [ 102.216, 19.901 ], [ 102.24, 19.924 ], [ 102.312, 20.069 ], [ 102.338, 20.099 ], [ 102.381, 20.143 ], [ 102.394, 20.161 ], [ 102.422, 20.228 ], [ 102.438, 20.259 ], [ 102.447, 20.29 ], [ 102.456, 20.301 ], [ 102.463, 20.306 ], [ 102.471, 20.317 ], [ 102.472, 20.331 ], [ 102.487, 20.345 ], [ 102.489, 20.359 ], [ 102.499, 20.374 ], [ 102.514, 20.393 ], [ 102.521, 20.398 ], [ 102.528, 20.406 ], [ 102.536, 20.433 ], [ 102.545, 20.444 ], [ 102.549, 20.451 ], [ 102.552, 20.461 ], [ 102.574, 20.497 ] ] } },
{ "type": "Feature", "properties": { "average_dip": "(70.0,,)", "average_rake": "(0.0,,)", "catalog_id": "EOS_AF0165", "catalog_name": "EOS_SE_Asia", "dip_dir": null, "lower_seis_depth": "(15.0,,)", "name": null, "net_slip_rate": null, "slip_type": "Sinistral", "upper_seis_depth": "(1.0,,)", "downthrown_side_id": null, "reference": null, "epistemic_quality": null, "accuracy": null, "activity_confidence": null, "fs_name": null, "last_movement": null, "downthrown_side_dir": null, "vert_sep_rate": null, "strike_slip_rate": null, "exposure_quality": null, "shortening_rate": null, "notes": null, "index_right": 67, "NAME_EN": "Laos" }, "geometry": { "type": "LineString", "coordinates": [ [ 100.229, 19.762 ], [ 100.229, 19.774 ], [ 100.233, 19.788 ], [ 100.245, 19.806 ], [ 100.272, 19.854 ], [ 100.284, 19.867 ], [ 100.294, 19.882 ], [ 100.302, 19.901 ], [ 100.306, 19.922 ], [ 100.313, 19.939 ], [ 100.322, 19.973 ], [ 100.333, 19.995 ], [ 100.342, 20.006 ], [ 100.381, 20.036 ], [ 100.388, 20.055 ], [ 100.399, 20.075 ], [ 100.402, 20.09 ], [ 100.408, 20.103 ], [ 100.424, 20.124 ], [ 100.43, 20.135 ], [ 100.435, 20.164 ], [ 100.444, 20.182 ], [ 100.455, 20.2 ], [ 100.471, 20.209 ], [ 100.495, 20.23 ], [ 100.498, 20.235 ], [ 100.507, 20.239 ], [ 100.519, 20.25 ] ] } },
{ "type": "Feature", "properties": { "average_dip": "(90.0,,)", "average_rake": "(0.0,,)", "catalog_id": "EOS_AF0191", "catalog_name": "EOS_SE_Asia", "dip_dir": null, "lower_seis_depth": "(15.0,,)", "name": null, "net_slip_rate": null, "slip_type": "Sinistral", "upper_seis_depth": "(1.0,,)", "downthrown_side_id": null, "reference": null, "epistemic_quality": null, "accuracy": null, "activity_confidence": null, "fs_name": null, "last_movement": null, "downthrown_side_dir": null, "vert_sep_rate": null, "strike_slip_rate": null, "exposure_quality": null, "shortening_rate": null, "notes": null, "index_right": 67, "NAME_EN": "Laos" }, "geometry": { "type": "LineString", "coordinates": [ [ 100.736, 20.834 ], [ 100.726, 20.825 ], [ 100.718, 20.822 ], [ 100.691, 20.805 ], [ 100.656, 20.77 ], [ 100.624, 20.745 ], [ 100.607, 20.727 ], [ 100.595, 20.708 ], [ 100.585, 20.697 ], [ 100.578, 20.686 ], [ 100.568, 20.677 ], [ 100.559, 20.665 ], [ 100.549, 20.66 ], [ 100.478, 20.654 ], [ 100.45, 20.645 ], [ 100.442, 20.64 ], [ 100.348, 20.606 ], [ 100.299, 20.578 ], [ 100.249, 20.542 ], [ 100.232, 20.512 ], [ 100.213, 20.439 ] ] } },
{ "type": "Feature", "properties": { "average_dip": "(90.0,,)", "average_rake": "(0.0,,)", "catalog_id": "EOS_AF0192", "catalog_name": "EOS_SE_Asia", "dip_dir": null, "lower_seis_depth": "(15.0,,)", "name": null, "net_slip_rate": null, "slip_type": "Sinistral", "upper_seis_depth": "(1.0,,)", "downthrown_side_id": null, "reference": null, "epistemic_quality": null, "accuracy": null, "activity_confidence": null, "fs_name": null, "last_movement": null, "downthrown_side_dir": null, "vert_sep_rate": null, "strike_slip_rate": null, "exposure_quality": null, "shortening_rate": null, "notes": null, "index_right": 67, "NAME_EN": "Laos" }, "geometry": { "type": "LineString", "coordinates": [ [ 101.036, 21.038 ], [ 101.027, 21.029 ], [ 101.006, 21.015 ], [ 100.987, 20.993 ], [ 100.937, 20.952 ], [ 100.867, 20.911 ], [ 100.853, 20.905 ], [ 100.843, 20.898 ], [ 100.834, 20.889 ] ] } },
{ "type": "Feature", "properties": { "average_dip": "(90.0,,)", "average_rake": "(0.0,,)", "catalog_id": "EOS_AF0193", "catalog_name": "EOS_SE_Asia", "dip_dir": null, "lower_seis_depth": "(15.0,,)", "name": null, "net_slip_rate": null, "slip_type": "Sinistral", "upper_seis_depth": "(1.0,,)", "downthrown_side_id": null, "reference": null, "epistemic_quality": null, "accuracy": null, "activity_confidence": null, "fs_name": null, "last_movement": null, "downthrown_side_dir": null, "vert_sep_rate": null, "strike_slip_rate": null, "exposure_quality": null, "shortening_rate": null, "notes": null, "index_right": 67, "NAME_EN": "Laos" }, "geometry": { "type": "LineString", "coordinates": [ [ 100.987, 20.933 ], [ 101.063, 20.993 ], [ 101.113, 21.039 ], [ 101.227, 21.112 ], [ 101.342, 21.171 ], [ 101.364, 21.178 ], [ 101.408, 21.202 ], [ 101.465, 21.245 ], [ 101.486, 21.26 ], [ 101.511, 21.274 ], [ 101.557, 21.309 ] ] } },
{ "type": "Feature", "properties": { "average_dip": "(90.0,,)", "average_rake": "(0.0,,)", "catalog_id": "EOS_AF0194", "catalog_name": "EOS_SE_Asia", "dip_dir": null, "lower_seis_depth": "(15.0,,)", "name": null, "net_slip_rate": null, "slip_type": "Sinistral", "upper_seis_depth": "(1.0,,)", "downthrown_side_id": null, "reference": null, "epistemic_quality": null, "accuracy": null, "activity_confidence": null, "fs_name": null, "last_movement": null, "downthrown_side_dir": null, "vert_sep_rate": null, "strike_slip_rate": null, "exposure_quality": null, "shortening_rate": null, "notes": null, "index_right": 67, "NAME_EN": "Laos" }, "geometry": { "type": "LineString", "coordinates": [ [ 100.49, 20.581 ], [ 100.521, 20.586 ], [ 100.559, 20.588 ], [ 100.619, 20.594 ], [ 100.659, 20.603 ], [ 100.678, 20.605 ] ] } },
{ "type": "Feature", "properties": { "average_dip": "(90.0,,)", "average_rake": "(0.0,,)", "catalog_id": "EOS_AF0195", "catalog_name": "EOS_SE_Asia", "dip_dir": null, "lower_seis_depth": "(15.0,,)", "name": null, "net_slip_rate": null, "slip_type": "Sinistral", "upper_seis_depth": "(1.0,,)", "downthrown_side_id": null, "reference": null, "epistemic_quality": null, "accuracy": null, "activity_confidence": null, "fs_name": null, "last_movement": null, "downthrown_side_dir": null, "vert_sep_rate": null, "strike_slip_rate": null, "exposure_quality": null, "shortening_rate": null, "notes": null, "index_right": 67, "NAME_EN": "Laos" }, "geometry": { "type": "LineString", "coordinates": [ [ 100.606, 20.569 ], [ 100.711, 20.612 ], [ 100.745, 20.619 ], [ 100.842, 20.65 ] ] } },
{ "type": "Feature", "properties": { "average_dip": "(90.0,,)", "average_rake": "(0.0,,)", "catalog_id": "EOS_AF0199", "catalog_name": "EOS_SE_Asia", "dip_dir": null, "lower_seis_depth": "(15.0,,)", "name": null, "net_slip_rate": null, "slip_type": "Sinistral", "upper_seis_depth": "(1.0,,)", "downthrown_side_id": null, "reference": null, "epistemic_quality": null, "accuracy": null, "activity_confidence": null, "fs_name": null, "last_movement": null, "downthrown_side_dir": null, "vert_sep_rate": null, "strike_slip_rate": null, "exposure_quality": null, "shortening_rate": null, "notes": null, "index_right": 67, "NAME_EN": "Laos" }, "geometry": { "type": "LineString", "coordinates": [ [ 101.176, 20.528 ], [ 101.107, 20.513 ], [ 101.081, 20.5 ], [ 101.044, 20.497 ], [ 101.021, 20.486 ], [ 100.976, 20.473 ], [ 100.96, 20.47 ], [ 100.929, 20.46 ], [ 100.904, 20.447 ], [ 100.884, 20.44 ], [ 100.856, 20.422 ], [ 100.82, 20.407 ], [ 100.76, 20.385 ], [ 100.691, 20.367 ], [ 100.604, 20.338 ], [ 100.59, 20.332 ], [ 100.539, 20.302 ], [ 100.489, 20.277 ] ] } },
{ "type": "Feature", "properties": { "average_dip": "(90.0,,)", "average_rake": "(0.0,,)", "catalog_id": "EOS_AF0200", "catalog_name": "EOS_SE_Asia", "dip_dir": null, "lower_seis_depth": "(15.0,,)", "name": null, "net_slip_rate": null, "slip_type": "Sinistral", "upper_seis_depth": "(1.0,,)", "downthrown_side_id": null, "reference": null, "epistemic_quality": null, "accuracy": null, "activity_confidence": null, "fs_name": null, "last_movement": null, "downthrown_side_dir": null, "vert_sep_rate": null, "strike_slip_rate": null, "exposure_quality": null, "shortening_rate": null, "notes": null, "index_right": 67, "NAME_EN": "Laos" }, "geometry": { "type": "LineString", "coordinates": [ [ 100.495, 20.088 ], [ 100.514, 20.115 ], [ 100.551, 20.18 ], [ 100.599, 20.255 ], [ 100.627, 20.279 ], [ 100.656, 20.301 ], [ 100.681, 20.325 ], [ 100.741, 20.358 ], [ 100.783, 20.374 ], [ 100.812, 20.387 ], [ 100.842, 20.404 ] ] } },
{ "type": "Feature", "properties": { "average_dip": "(90.0,,)", "average_rake": "(0.0,,)", "catalog_id": "EOS_AF0221", "catalog_name": "EOS_SE_Asia", "dip_dir": null, "lower_seis_depth": "(15.0,,)", "name": null, "net_slip_rate": null, "slip_type": "Sinistral", "upper_seis_depth": "(1.0,,)", "downthrown_side_id": null, "reference": null, "epistemic_quality": null, "accuracy": null, "activity_confidence": null, "fs_name": null, "last_movement": null, "downthrown_side_dir": null, "vert_sep_rate": null, "strike_slip_rate": null, "exposure_quality": null, "shortening_rate": null, "notes": null, "index_right": 67, "NAME_EN": "Laos" }, "geometry": { "type": "LineString", "coordinates": [ [ 101.78, 19.026 ], [ 101.78, 18.975 ], [ 101.773, 18.946 ], [ 101.757, 18.912 ], [ 101.749, 18.874 ], [ 101.728, 18.805 ], [ 101.706, 18.769 ], [ 101.626, 18.649 ], [ 101.567, 18.536 ], [ 101.502, 18.486 ], [ 101.452, 18.436 ], [ 101.393, 18.365 ], [ 101.335, 18.31 ], [ 101.274, 18.269 ] ] } },
{ "type": "Feature", "properties": { "average_dip": "(90.0,,)", "average_rake": "(0.0,,)", "catalog_id": "EOS_AF0222", "catalog_name": "EOS_SE_Asia", "dip_dir": null, "lower_seis_depth": "(15.0,,)", "name": null, "net_slip_rate": null, "slip_type": "Sinistral", "upper_seis_depth": "(1.0,,)", "downthrown_side_id": null, "reference": null, "epistemic_quality": null, "accuracy": null, "activity_confidence": null, "fs_name": null, "last_movement": null, "downthrown_side_dir": null, "vert_sep_rate": null, "strike_slip_rate": null, "exposure_quality": null, "shortening_rate": null, "notes": null, "index_right": 67, "NAME_EN": "Laos" }, "geometry": { "type": "LineString", "coordinates": [ [ 100.952, 18.586 ], [ 101.025, 18.621 ], [ 101.057, 18.642 ], [ 101.106, 18.666 ], [ 101.173, 18.693 ], [ 101.2, 18.7 ], [ 101.238, 18.714 ], [ 101.264, 18.727 ], [ 101.348, 18.796 ], [ 101.404, 18.836 ], [ 101.452, 18.887 ], [ 101.484, 18.949 ] ] } },
{ "type": "Feature", "properties": { "average_dip": "(60.0,,)", "average_rake": "(-90.0,,)", "catalog_id": "EOS_AF0223", "catalog_name": "EOS_SE_Asia", "dip_dir": null, "lower_seis_depth": "(15.0,,)", "name": null, "net_slip_rate": null, "slip_type": "Normal", "upper_seis_depth": "(1.0,,)", "downthrown_side_id": null, "reference": null, "epistemic_quality": null, "accuracy": null, "activity_confidence": null, "fs_name": null, "last_movement": null, "downthrown_side_dir": null, "vert_sep_rate": null, "strike_slip_rate": null, "exposure_quality": null, "shortening_rate": null, "notes": null, "index_right": 67, "NAME_EN": "Laos" }, "geometry": { "type": "LineString", "coordinates": [ [ 101.542, 19.106 ], [ 101.536, 19.072 ], [ 101.535, 19.049 ], [ 101.529, 19.02 ], [ 101.523, 18.949 ], [ 101.514, 18.906 ], [ 101.51, 18.871 ], [ 101.511, 18.868 ] ] } },
{ "type": "Feature", "properties": { "average_dip": "(90.0,,)", "average_rake": "(0.0,,)", "catalog_id": "EOS_AF0224", "catalog_name": "EOS_SE_Asia", "dip_dir": null, "lower_seis_depth": "(15.0,,)", "name": null, "net_slip_rate": null, "slip_type": "Sinistral", "upper_seis_depth": "(1.0,,)", "downthrown_side_id": null, "reference": null, "epistemic_quality": null, "accuracy": null, "activity_confidence": null, "fs_name": null, "last_movement": null, "downthrown_side_dir": null, "vert_sep_rate": null, "strike_slip_rate": null, "exposure_quality": null, "shortening_rate": null, "notes": null, "index_right": 67, "NAME_EN": "Laos" }, "geometry": { "type": "LineString", "coordinates": [ [ 101.417, 18.848 ], [ 101.408, 18.807 ], [ 101.391, 18.766 ], [ 101.247, 18.544 ], [ 101.191, 18.477 ], [ 101.135, 18.423 ] ] } },
{ "type": "Feature", "properties": { "average_dip": "(90.0,,)", "average_rake": "(0.0,,)", "catalog_id": "EOS_AF0225", "catalog_name": "EOS_SE_Asia", "dip_dir": null, "lower_seis_depth": "(15.0,,)", "name": null, "net_slip_rate": null, "slip_type": "Sinistral", "upper_seis_depth": "(1.0,,)", "downthrown_side_id": null, "reference": null, "epistemic_quality": null, "accuracy": null, "activity_confidence": null, "fs_name": null, "last_movement": null, "downthrown_side_dir": null, "vert_sep_rate": null, "strike_slip_rate": null, "exposure_quality": null, "shortening_rate": null, "notes": null, "index_right": 67, "NAME_EN": "Laos" }, "geometry": { "type": "LineString", "coordinates": [ [ 101.04, 18.223 ], [ 101.051, 18.234 ], [ 101.082, 18.257 ], [ 101.105, 18.289 ], [ 101.125, 18.304 ], [ 101.139, 18.327 ], [ 101.15, 18.341 ], [ 101.164, 18.354 ], [ 101.18, 18.392 ], [ 101.186, 18.431 ] ] } },
{ "type": "Feature", "properties": { "average_dip": "(90.0,,)", "average_rake": "(0.0,,)", "catalog_id": "EOS_AF0226", "catalog_name": "EOS_SE_Asia", "dip_dir": null, "lower_seis_depth": "(15.0,,)", "name": null, "net_slip_rate": null, "slip_type": "Sinistral", "upper_seis_depth": "(1.0,,)", "downthrown_side_id": null, "reference": null, "epistemic_quality": null, "accuracy": null, "activity_confidence": null, "fs_name": null, "last_movement": null, "downthrown_side_dir": null, "vert_sep_rate": null, "strike_slip_rate": null, "exposure_quality": null, "shortening_rate": null, "notes": null, "index_right": 67, "NAME_EN": "Laos" }, "geometry": { "type": "LineString", "coordinates": [ [ 101.909, 19.975 ], [ 101.873, 19.871 ], [ 101.84, 19.841 ], [ 101.811, 19.812 ], [ 101.745, 19.769 ], [ 101.731, 19.755 ], [ 101.69, 19.72 ], [ 101.66, 19.688 ], [ 101.633, 19.634 ], [ 101.609, 19.577 ] ] } },
{ "type": "Feature", "properties": { "average_dip": "(90.0,,)", "average_rake": "(0.0,,)", "catalog_id": "EOS_AF0227", "catalog_name": "EOS_SE_Asia", "dip_dir": null, "lower_seis_depth": "(15.0,,)", "name": null, "net_slip_rate": null, "slip_type": "Sinistral", "upper_seis_depth": "(1.0,,)", "downthrown_side_id": null, "reference": null, "epistemic_quality": null, "accuracy": null, "activity_confidence": null, "fs_name": null, "last_movement": null, "downthrown_side_dir": null, "vert_sep_rate": null, "strike_slip_rate": null, "exposure_quality": null, "shortening_rate": null, "notes": null, "index_right": 67, "NAME_EN": "Laos" }, "geometry": { "type": "LineString", "coordinates": [ [ 102.553, 19.439 ], [ 102.567, 19.475 ], [ 102.582, 19.501 ], [ 102.61, 19.541 ], [ 102.708, 19.648 ] ] } },
{ "type": "Feature", "properties": { "average_dip": "(90.0,,)", "average_rake": "(0.0,,)", "catalog_id": "EOS_AF0228", "catalog_name": "EOS_SE_Asia", "dip_dir": null, "lower_seis_depth": "(15.0,,)", "name": null, "net_slip_rate": null, "slip_type": "Sinistral", "upper_seis_depth": "(1.0,,)", "downthrown_side_id": null, "reference": null, "epistemic_quality": null, "accuracy": null, "activity_confidence": null, "fs_name": null, "last_movement": null, "downthrown_side_dir": null, "vert_sep_rate": null, "strike_slip_rate": null, "exposure_quality": null, "shortening_rate": null, "notes": null, "index_right": 67, "NAME_EN": "Laos" }, "geometry": { "type": "LineString", "coordinates": [ [ 102.666, 19.667 ], [ 102.727, 19.708 ], [ 102.826, 19.81 ], [ 102.834, 19.829 ], [ 102.855, 19.853 ], [ 102.892, 19.889 ], [ 102.906, 19.898 ] ] } },
{ "type": "Feature", "properties": { "average_dip": "(90.0,,)", "average_rake": "(0.0,,)", "catalog_id": "EOS_AF0229", "catalog_name": "EOS_SE_Asia", "dip_dir": null, "lower_seis_depth": "(15.0,,)", "name": null, "net_slip_rate": null, "slip_type": "Sinistral", "upper_seis_depth": "(1.0,,)", "downthrown_side_id": null, "reference": null, "epistemic_quality": null, "accuracy": null, "activity_confidence": null, "fs_name": null, "last_movement": null, "downthrown_side_dir": null, "vert_sep_rate": null, "strike_slip_rate": null, "exposure_quality": null, "shortening_rate": null, "notes": null, "index_right": 67, "NAME_EN": "Laos" }, "geometry": { "type": "LineString", "coordinates": [ [ 101.746, 19.979 ], [ 101.777, 20.016 ], [ 101.816, 20.053 ], [ 101.84, 20.07 ], [ 101.859, 20.102 ], [ 101.87, 20.112 ], [ 101.881, 20.118 ], [ 101.892, 20.133 ], [ 101.914, 20.153 ], [ 101.934, 20.175 ], [ 101.947, 20.192 ], [ 101.969, 20.208 ], [ 101.986, 20.218 ] ] } },
{ "type": "Feature", "properties": { "average_dip": "(90.0,,)", "average_rake": "(0.0,,)", "catalog_id": "EOS_AF0230", "catalog_name": "EOS_SE_Asia", "dip_dir": null, "lower_seis_depth": "(15.0,,)", "name": null, "net_slip_rate": null, "slip_type": "Sinistral", "upper_seis_depth": "(1.0,,)", "downthrown_side_id": null, "reference": null, "epistemic_quality": null, "accuracy": null, "activity_confidence": null, "fs_name": null, "last_movement": null, "downthrown_side_dir": null, "vert_sep_rate": null, "strike_slip_rate": null, "exposure_quality": null, "shortening_rate": null, "notes": null, "index_right": 67, "NAME_EN": "Laos" }, "geometry": { "type": "LineString", "coordinates": [ [ 102.234, 20.624 ], [ 102.214, 20.597 ], [ 102.173, 20.526 ], [ 102.149, 20.462 ], [ 102.132, 20.41 ], [ 102.12, 20.367 ], [ 102.106, 20.34 ] ] } },
{ "type": "Feature", "properties": { "average_dip": "(90.0,,)", "average_rake": "(0.0,,)", "catalog_id": "EOS_AF0231", "catalog_name": "EOS_SE_Asia", "dip_dir": null, "lower_seis_depth": "(15.0,,)", "name": null, "net_slip_rate": null, "slip_type": "Sinistral", "upper_seis_depth": "(1.0,,)", "downthrown_side_id": null, "reference": null, "epistemic_quality": null, "accuracy": null, "activity_confidence": null, "fs_name": null, "last_movement": null, "downthrown_side_dir": null, "vert_sep_rate": null, "strike_slip_rate": null, "exposure_quality": null, "shortening_rate": null, "notes": null, "index_right": 67, "NAME_EN": "Laos" }, "geometry": { "type": "LineString", "coordinates": [ [ 102.637, 20.924 ], [ 102.613, 20.884 ], [ 102.576, 20.837 ], [ 102.546, 20.795 ], [ 102.515, 20.746 ], [ 102.478, 20.694 ], [ 102.455, 20.645 ], [ 102.445, 20.618 ], [ 102.433, 20.597 ], [ 102.384, 20.544 ], [ 102.337, 20.479 ] ] } },
{ "type": "Feature", "properties": { "average_dip": "(90.0,,)", "average_rake": "(0.0,,)", "catalog_id": "EOS_AF0232", "catalog_name": "EOS_SE_Asia", "dip_dir": null, "lower_seis_depth": "(15.0,,)", "name": null, "net_slip_rate": null, "slip_type": "Sinistral", "upper_seis_depth": "(1.0,,)", "downthrown_side_id": null, "reference": null, "epistemic_quality": null, "accuracy": null, "activity_confidence": null, "fs_name": null, "last_movement": null, "downthrown_side_dir": null, "vert_sep_rate": null, "strike_slip_rate": null, "exposure_quality": null, "shortening_rate": null, "notes": null, "index_right": 67, "NAME_EN": "Laos" }, "geometry": { "type": "LineString", "coordinates": [ [ 101.324, 20.66 ], [ 101.367, 20.691 ], [ 101.43, 20.73 ], [ 101.464, 20.755 ], [ 101.512, 20.783 ], [ 101.575, 20.823 ], [ 101.61, 20.86 ], [ 101.668, 20.897 ], [ 101.694, 20.946 ], [ 101.732, 20.978 ], [ 101.774, 21.008 ], [ 101.81, 21.042 ] ] } },
{ "type": "Feature", "properties": { "average_dip": "(90.0,,)", "average_rake": "(0.0,,)", "catalog_id": "EOS_AF0233", "catalog_name": "EOS_SE_Asia", "dip_dir": null, "lower_seis_depth": "(15.0,,)", "name": null, "net_slip_rate": null, "slip_type": "Sinistral", "upper_seis_depth": "(1.0,,)", "downthrown_side_id": null, "reference": null, "epistemic_quality": null, "accuracy": null, "activity_confidence": null, "fs_name": null, "last_movement": null, "downthrown_side_dir": null, "vert_sep_rate": null, "strike_slip_rate": null, "exposure_quality": null, "shortening_rate": null, "notes": null, "index_right": 67, "NAME_EN": "Laos" }, "geometry": { "type": "LineString", "coordinates": [ [ 100.973, 20.169 ], [ 101.13, 20.236 ], [ 101.216, 20.306 ], [ 101.245, 20.317 ], [ 101.308, 20.328 ], [ 101.382, 20.345 ], [ 101.457, 20.365 ] ] } },
{ "type": "Feature", "properties": { "average_dip": "(90.0,,)", "average_rake": "(0.0,,)", "catalog_id": "EOS_AF0234", "catalog_name": "EOS_SE_Asia", "dip_dir": null, "lower_seis_depth": "(15.0,,)", "name": null, "net_slip_rate": null, "slip_type": "Sinistral", "upper_seis_depth": "(1.0,,)", "downthrown_side_id": null, "reference": null, "epistemic_quality": null, "accuracy": null, "activity_confidence": null, "fs_name": null, "last_movement": null, "downthrown_side_dir": null, "vert_sep_rate": null, "strike_slip_rate": null, "exposure_quality": null, "shortening_rate": null, "notes": null, "index_right": 67, "NAME_EN": "Laos" }, "geometry": { "type": "LineString", "coordinates": [ [ 102.004, 20.71 ], [ 101.982, 20.698 ], [ 101.952, 20.686 ], [ 101.921, 20.68 ], [ 101.904, 20.672 ], [ 101.831, 20.62 ], [ 101.776, 20.585 ], [ 101.748, 20.563 ], [ 101.668, 20.515 ] ] } },
{ "type": "Feature", "properties": { "average_dip": "(90.0,,)", "average_rake": "(0.0,,)", "catalog_id": "EOS_AF0235", "catalog_name": "EOS_SE_Asia", "dip_dir": null, "lower_seis_depth": "(15.0,,)", "name": null, "net_slip_rate": null, "slip_type": "Sinistral", "upper_seis_depth": "(1.0,,)", "downthrown_side_id": null, "reference": null, "epistemic_quality": null, "accuracy": null, "activity_confidence": null, "fs_name": null, "last_movement": null, "downthrown_side_dir": null, "vert_sep_rate": null, "strike_slip_rate": null, "exposure_quality": null, "shortening_rate": null, "notes": null, "index_right": 67, "NAME_EN": "Laos" }, "geometry": { "type": "LineString", "coordinates": [ [ 102.011, 20.715 ], [ 102.021, 20.733 ], [ 102.087, 20.803 ], [ 102.098, 20.829 ], [ 102.109, 20.843 ], [ 102.115, 20.854 ], [ 102.169, 20.901 ] ] } },
{ "type": "Feature", "properties": { "average_dip": "(90.0,,)", "average_rake": "(0.0,,)", "catalog_id": "EOS_AF0236", "catalog_name": "EOS_SE_Asia", "dip_dir": null, "lower_seis_depth": "(15.0,,)", "name": null, "net_slip_rate": null, "slip_type": "Sinistral", "upper_seis_depth": "(1.0,,)", "downthrown_side_id": null, "reference": null, "epistemic_quality": null, "accuracy": null, "activity_confidence": null, "fs_name": null, "last_movement": null, "downthrown_side_dir": null, "vert_sep_rate": null, "strike_slip_rate": null, "exposure_quality": null, "shortening_rate": null, "notes": null, "index_right": 67, "NAME_EN": "Laos" }, "geometry": { "type": "LineString", "coordinates": [ [ 101.271, 20.263 ], [ 101.353, 20.286 ], [ 101.384, 20.294 ], [ 101.398, 20.296 ], [ 101.413, 20.302 ], [ 101.454, 20.325 ], [ 101.479, 20.346 ] ] } },
{ "type": "Feature", "properties": { "average_dip": "(90.0,,)", "average_rake": "(0.0,,)", "catalog_id": "EOS_AF0237", "catalog_name": "EOS_SE_Asia", "dip_dir": null, "lower_seis_depth": "(15.0,,)", "name": null, "net_slip_rate": null, "slip_type": "Sinistral", "upper_seis_depth": "(1.0,,)", "downthrown_side_id": null, "reference": null, "epistemic_quality": null, "accuracy": null, "activity_confidence": null, "fs_name": null, "last_movement": null, "downthrown_side_dir": null, "vert_sep_rate": null, "strike_slip_rate": null, "exposure_quality": null, "shortening_rate": null, "notes": null, "index_right": 67, "NAME_EN": "Laos" }, "geometry": { "type": "LineString", "coordinates": [ [ 101.262, 20.179 ], [ 101.315, 20.2 ], [ 101.335, 20.206 ], [ 101.389, 20.214 ], [ 101.404, 20.214 ], [ 101.029, 20.077 ], [ 101.094, 20.115 ], [ 101.135, 20.133 ], [ 101.172, 20.142 ], [ 101.201, 20.152 ], [ 101.223, 20.161 ], [ 101.249, 20.175 ], [ 101.262, 20.179 ] ] } },
{ "type": "Feature", "properties": { "average_dip": "(90.0,,)", "average_rake": "(0.0,,)", "catalog_id": "EOS_AF0238", "catalog_name": "EOS_SE_Asia", "dip_dir": null, "lower_seis_depth": "(15.0,,)", "name": null, "net_slip_rate": null, "slip_type": "Sinistral", "upper_seis_depth": "(1.0,,)", "downthrown_side_id": null, "reference": null, "epistemic_quality": null, "accuracy": null, "activity_confidence": null, "fs_name": null, "last_movement": null, "downthrown_side_dir": null, "vert_sep_rate": null, "strike_slip_rate": null, "exposure_quality": null, "shortening_rate": null, "notes": null, "index_right": 67, "NAME_EN": "Laos" }, "geometry": { "type": "LineString", "coordinates": [ [ 100.981, 20.266 ], [ 101.098, 20.326 ], [ 101.148, 20.363 ], [ 101.216, 20.418 ], [ 101.294, 20.475 ], [ 101.379, 20.544 ] ] } },
{ "type": "Feature", "properties": { "average_dip": "(90.0,,)", "average_rake": "(0.0,,)", "catalog_id": "EOS_AF0239", "catalog_name": "EOS_SE_Asia", "dip_dir": null, "lower_seis_depth": "(15.0,,)", "name": null, "net_slip_rate": null, "slip_type": "Sinistral", "upper_seis_depth": "(1.0,,)", "downthrown_side_id": null, "reference": null, "epistemic_quality": null, "accuracy": null, "activity_confidence": null, "fs_name": null, "last_movement": null, "downthrown_side_dir": null, "vert_sep_rate": null, "strike_slip_rate": null, "exposure_quality": null, "shortening_rate": null, "notes": null, "index_right": 67, "NAME_EN": "Laos" }, "geometry": { "type": "LineString", "coordinates": [ [ 101.691, 20.812 ], [ 101.635, 20.785 ], [ 101.6, 20.754 ], [ 101.548, 20.692 ], [ 101.518, 20.651 ], [ 101.487, 20.615 ], [ 101.451, 20.538 ], [ 101.427, 20.498 ] ] } },
{ "type": "Feature", "properties": { "average_dip": "(90.0,,)", "average_rake": "(0.0,,)", "catalog_id": "EOS_AF0240", "catalog_name": "EOS_SE_Asia", "dip_dir": null, "lower_seis_depth": "(15.0,,)", "name": null, "net_slip_rate": null, "slip_type": "Sinistral", "upper_seis_depth": "(1.0,,)", "downthrown_side_id": null, "reference": null, "epistemic_quality": null, "accuracy": null, "activity_confidence": null, "fs_name": null, "last_movement": null, "downthrown_side_dir": null, "vert_sep_rate": null, "strike_slip_rate": null, "exposure_quality": null, "shortening_rate": null, "notes": null, "index_right": 67, "NAME_EN": "Laos" }, "geometry": { "type": "LineString", "coordinates": [ [ 101.264, 20.559 ], [ 101.333, 20.631 ], [ 101.369, 20.66 ], [ 101.387, 20.679 ], [ 101.418, 20.705 ], [ 101.441, 20.718 ], [ 101.539, 20.758 ] ] } },
{ "type": "Feature", "properties": { "average_dip": "(90.0,,)", "average_rake": "(180.0,,)", "catalog_id": "EOS_AF0241", "catalog_name": "EOS_SE_Asia", "dip_dir": null, "lower_seis_depth": "(15.0,,)", "name": null, "net_slip_rate": null, "slip_type": "Dextral", "upper_seis_depth": "(1.0,,)", "downthrown_side_id": null, "reference": null, "epistemic_quality": null, "accuracy": null, "activity_confidence": null, "fs_name": null, "last_movement": null, "downthrown_side_dir": null, "vert_sep_rate": null, "strike_slip_rate": null, "exposure_quality": null, "shortening_rate": null, "notes": null, "index_right": 67, "NAME_EN": "Laos" }, "geometry": { "type": "LineString", "coordinates": [ [ 103.442, 19.402 ], [ 103.486, 19.413 ], [ 103.532, 19.42 ], [ 103.685, 19.439 ], [ 103.708, 19.438 ], [ 103.741, 19.443 ], [ 103.808, 19.441 ], [ 103.862, 19.435 ], [ 103.963, 19.432 ] ] } },
{ "type": "Feature", "properties": { "average_dip": "(90.0,,)", "average_rake": "(180.0,,)", "catalog_id": "EOS_AF0242", "catalog_name": "EOS_SE_Asia", "dip_dir": null, "lower_seis_depth": "(15.0,,)", "name": null, "net_slip_rate": null, "slip_type": "Dextral", "upper_seis_depth": "(1.0,,)", "downthrown_side_id": null, "reference": null, "epistemic_quality": null, "accuracy": null, "activity_confidence": null, "fs_name": null, "last_movement": null, "downthrown_side_dir": null, "vert_sep_rate": null, "strike_slip_rate": null, "exposure_quality": null, "shortening_rate": null, "notes": null, "index_right": 67, "NAME_EN": "Laos" }, "geometry": { "type": "LineString", "coordinates": [ [ 103.529, 19.551 ], [ 103.589, 19.533 ], [ 103.65, 19.517 ], [ 103.726, 19.5 ], [ 103.805, 19.48 ], [ 103.839, 19.468 ], [ 103.872, 19.459 ], [ 103.919, 19.449 ], [ 103.954, 19.437 ] ] } },
{ "type": "Feature", "properties": { "average_dip": "(60.0,,)", "average_rake": "(-90.0,,)", "catalog_id": "EOS_AF0245", "catalog_name": "EOS_SE_Asia", "dip_dir": null, "lower_seis_depth": "(15.0,,)", "name": null, "net_slip_rate": null, "slip_type": "Normal", "upper_seis_depth": "(1.0,,)", "downthrown_side_id": null, "reference": null, "epistemic_quality": null, "accuracy": null, "activity_confidence": null, "fs_name": null, "last_movement": null, "downthrown_side_dir": null, "vert_sep_rate": null, "strike_slip_rate": null, "exposure_quality": null, "shortening_rate": null, "notes": null, "index_right": 67, "NAME_EN": "Laos" }, "geometry": { "type": "LineString", "coordinates": [ [ 103.237, 18.433 ], [ 103.31, 18.453 ], [ 103.327, 18.455 ], [ 103.34, 18.454 ], [ 103.357, 18.458 ], [ 103.366, 18.464 ], [ 103.422, 18.478 ], [ 103.451, 18.478 ], [ 103.515, 18.473 ], [ 103.547, 18.465 ], [ 103.568, 18.451 ], [ 103.589, 18.442 ] ] } },
{ "type": "Feature", "properties": { "average_dip": "(90.0,,)", "average_rake": "(0.0,,)", "catalog_id": "EOS_AF0377", "catalog_name": "EOS_SE_Asia", "dip_dir": null, "lower_seis_depth": "(15.0,,)", "name": null, "net_slip_rate": null, "slip_type": "Sinistral", "upper_seis_depth": "(1.0,,)", "downthrown_side_id": null, "reference": null, "epistemic_quality": null, "accuracy": null, "activity_confidence": null, "fs_name": null, "last_movement": null, "downthrown_side_dir": null, "vert_sep_rate": null, "strike_slip_rate": null, "exposure_quality": null, "shortening_rate": null, "notes": null, "index_right": 67, "NAME_EN": "Laos" }, "geometry": { "type": "LineString", "coordinates": [ [ 101.863, 21.909 ], [ 101.859, 21.948 ], [ 101.864, 21.979 ], [ 101.871, 22.004 ], [ 101.898, 22.065 ], [ 101.919, 22.094 ], [ 101.936, 22.113 ], [ 101.955, 22.141 ], [ 101.969, 22.155 ], [ 101.986, 22.168 ], [ 102.01, 22.183 ], [ 102.027, 22.197 ], [ 102.042, 22.206 ], [ 102.068, 22.235 ] ] } },
{ "type": "Feature", "properties": { "average_dip": "(90.0,,)", "average_rake": "(0.0,,)", "catalog_id": "EOS_AF0378", "catalog_name": "EOS_SE_Asia", "dip_dir": null, "lower_seis_depth": "(15.0,,)", "name": null, "net_slip_rate": null, "slip_type": "Sinistral", "upper_seis_depth": "(1.0,,)", "downthrown_side_id": null, "reference": null, "epistemic_quality": null, "accuracy": null, "activity_confidence": null, "fs_name": null, "last_movement": null, "downthrown_side_dir": null, "vert_sep_rate": null, "strike_slip_rate": null, "exposure_quality": null, "shortening_rate": null, "notes": null, "index_right": 67, "NAME_EN": "Laos" }, "geometry": { "type": "LineString", "coordinates": [ [ 102.787, 21.928 ], [ 102.807, 21.885 ], [ 102.832, 21.82 ], [ 102.838, 21.787 ], [ 102.839, 21.722 ], [ 102.836, 21.699 ], [ 102.821, 21.621 ], [ 102.814, 21.593 ] ] } },
{ "type": "Feature", "properties": { "average_dip": "(90.0,,)", "average_rake": "(0.0,,)", "catalog_id": "EOS_AF0379", "catalog_name": "EOS_SE_Asia", "dip_dir": null, "lower_seis_depth": "(15.0,,)", "name": null, "net_slip_rate": null, "slip_type": "Sinistral", "upper_seis_depth": "(1.0,,)", "downthrown_side_id": null, "reference": null, "epistemic_quality": null, "accuracy": null, "activity_confidence": null, "fs_name": null, "last_movement": null, "downthrown_side_dir": null, "vert_sep_rate": null, "strike_slip_rate": null, "exposure_quality": null, "shortening_rate": null, "notes": null, "index_right": 67, "NAME_EN": "Laos" }, "geometry": { "type": "LineString", "coordinates": [ [ 102.704, 21.244 ], [ 102.719, 21.268 ], [ 102.738, 21.31 ], [ 102.765, 21.39 ], [ 102.774, 21.433 ], [ 102.797, 21.493 ] ] } },
{ "type": "Feature", "properties": { "average_dip": "(90.0,,)", "average_rake": "(-90.0,,)", "catalog_id": "EOS_AF0380", "catalog_name": "EOS_SE_Asia", "dip_dir": null, "lower_seis_depth": "(15.0,,)", "name": null, "net_slip_rate": null, "slip_type": "Normal", "upper_seis_depth": "(1.0,,)", "downthrown_side_id": null, "reference": null, "epistemic_quality": null, "accuracy": null, "activity_confidence": null, "fs_name": null, "last_movement": null, "downthrown_side_dir": null, "vert_sep_rate": null, "strike_slip_rate": null, "exposure_quality": null, "shortening_rate": null, "notes": null, "index_right": 67, "NAME_EN": "Laos" }, "geometry": { "type": "LineString", "coordinates": [ [ 102.502, 21.604 ], [ 102.501, 21.59 ], [ 102.517, 21.526 ], [ 102.529, 21.5 ], [ 102.54, 21.49 ], [ 102.557, 21.436 ], [ 102.563, 21.428 ], [ 102.566, 21.419 ], [ 102.574, 21.406 ], [ 102.583, 21.385 ] ] } },
{ "type": "Feature", "properties": { "average_dip": "(90.0,,)", "average_rake": "(0.0,,)", "catalog_id": "EOS_AF0381", "catalog_name": "EOS_SE_Asia", "dip_dir": null, "lower_seis_depth": "(15.0,,)", "name": null, "net_slip_rate": null, "slip_type": "Sinistral", "upper_seis_depth": "(1.0,,)", "downthrown_side_id": null, "reference": null, "epistemic_quality": null, "accuracy": null, "activity_confidence": null, "fs_name": null, "last_movement": null, "downthrown_side_dir": null, "vert_sep_rate": null, "strike_slip_rate": null, "exposure_quality": null, "shortening_rate": null, "notes": null, "index_right": 67, "NAME_EN": "Laos" }, "geometry": { "type": "LineString", "coordinates": [ [ 102.022, 22.035 ], [ 101.996, 21.962 ], [ 101.988, 21.947 ], [ 101.975, 21.934 ], [ 101.962, 21.924 ], [ 101.95, 21.909 ], [ 101.923, 21.867 ], [ 101.909, 21.84 ], [ 101.903, 21.815 ], [ 101.903, 21.783 ], [ 101.901, 21.758 ], [ 101.889, 21.672 ] ] } },
{ "type": "Feature", "properties": { "average_dip": "(90.0,,)", "average_rake": "(180.0,,)", "catalog_id": "EOS_AF0392", "catalog_name": "EOS_SE_Asia", "dip_dir": null, "lower_seis_depth": "(15.0,,)", "name": null, "net_slip_rate": null, "slip_type": "Dextral", "upper_seis_depth": "(1.0,,)", "downthrown_side_id": null, "reference": null, "epistemic_quality": null, "accuracy": null, "activity_confidence": null, "fs_name": null, "last_movement": null, "downthrown_side_dir": null, "vert_sep_rate": null, "strike_slip_rate": null, "exposure_quality": null, "shortening_rate": null, "notes": null, "index_right": 67, "NAME_EN": "Laos" }, "geometry": { "type": "LineString", "coordinates": [ [ 103.907, 20.798 ], [ 103.943, 20.784 ], [ 104.011, 20.774 ], [ 104.096, 20.753 ], [ 104.151, 20.736 ], [ 104.261, 20.708 ], [ 104.31, 20.692 ] ] } },
{ "type": "Feature", "properties": { "average_dip": "(90.0,,)", "average_rake": "(180.0,,)", "catalog_id": "EOS_AF0393", "catalog_name": "EOS_SE_Asia", "dip_dir": null, "lower_seis_depth": "(15.0,,)", "name": null, "net_slip_rate": null, "slip_type": "Dextral", "upper_seis_depth": "(1.0,,)", "downthrown_side_id": null, "reference": null, "epistemic_quality": null, "accuracy": null, "activity_confidence": null, "fs_name": null, "last_movement": null, "downthrown_side_dir": null, "vert_sep_rate": null, "strike_slip_rate": null, "exposure_quality": null, "shortening_rate": null, "notes": null, "index_right": 67, "NAME_EN": "Laos" }, "geometry": { "type": "LineString", "coordinates": [ [ 103.644, 20.878 ], [ 103.817, 20.814 ], [ 103.844, 20.802 ], [ 103.891, 20.791 ], [ 103.903, 20.793 ] ] } },
{ "type": "Feature", "properties": { "average_dip": "(90.0,,)", "average_rake": "(180.0,,)", "catalog_id": "EOS_AF0395", "catalog_name": "EOS_SE_Asia", "dip_dir": null, "lower_seis_depth": "(15.0,,)", "name": null, "net_slip_rate": null, "slip_type": "Dextral", "upper_seis_depth": "(1.0,,)", "downthrown_side_id": null, "reference": null, "epistemic_quality": null, "accuracy": null, "activity_confidence": null, "fs_name": null, "last_movement": null, "downthrown_side_dir": null, "vert_sep_rate": null, "strike_slip_rate": null, "exposure_quality": null, "shortening_rate": null, "notes": null, "index_right": 67, "NAME_EN": "Laos" }, "geometry": { "type": "LineString", "coordinates": [ [ 104.404, 20.498 ], [ 104.469, 20.489 ], [ 104.551, 20.472 ], [ 104.632, 20.459 ], [ 104.709, 20.444 ], [ 104.745, 20.452 ], [ 104.784, 20.446 ], [ 104.821, 20.434 ], [ 104.837, 20.431 ] ] } },
{ "type": "Feature", "properties": { "average_dip": "(90.0,,)", "average_rake": "(180.0,,)", "catalog_id": "EOS_AF0396", "catalog_name": "EOS_SE_Asia", "dip_dir": null, "lower_seis_depth": "(15.0,,)", "name": null, "net_slip_rate": null, "slip_type": "Dextral", "upper_seis_depth": "(1.0,,)", "downthrown_side_id": null, "reference": null, "epistemic_quality": null, "accuracy": null, "activity_confidence": null, "fs_name": null, "last_movement": null, "downthrown_side_dir": null, "vert_sep_rate": null, "strike_slip_rate": null, "exposure_quality": null, "shortening_rate": null, "notes": null, "index_right": 67, "NAME_EN": "Laos" }, "geometry": { "type": "LineString", "coordinates": [ [ 103.923, 20.621 ], [ 103.97, 20.603 ], [ 104.006, 20.587 ], [ 104.142, 20.541 ], [ 104.403, 20.413 ], [ 104.475, 20.396 ], [ 104.552, 20.395 ], [ 104.623, 20.397 ], [ 104.696, 20.404 ], [ 104.794, 20.427 ], [ 104.837, 20.431 ] ] } },
{ "type": "Feature", "properties": { "average_dip": "(90.0,,)", "average_rake": "(180.0,,)", "catalog_id": "EOS_AF0397", "catalog_name": "EOS_SE_Asia", "dip_dir": null, "lower_seis_depth": "(15.0,,)", "name": null, "net_slip_rate": null, "slip_type": "Dextral", "upper_seis_depth": "(1.0,,)", "downthrown_side_id": null, "reference": null, "epistemic_quality": null, "accuracy": null, "activity_confidence": null, "fs_name": null, "last_movement": null, "downthrown_side_dir": null, "vert_sep_rate": null, "strike_slip_rate": null, "exposure_quality": null, "shortening_rate": null, "notes": null, "index_right": 67, "NAME_EN": "Laos" }, "geometry": { "type": "LineString", "coordinates": [ [ 103.538, 21.005 ], [ 103.598, 20.979 ], [ 103.659, 20.956 ], [ 103.748, 20.917 ], [ 103.857, 20.846 ], [ 103.891, 20.819 ], [ 103.907, 20.798 ] ] } },
{ "type": "Feature", "properties": { "average_dip": "(90.0,,)", "average_rake": "(180.0,,)", "catalog_id": "EOS_AF0398", "catalog_name": "EOS_SE_Asia", "dip_dir": null, "lower_seis_depth": "(15.0,,)", "name": null, "net_slip_rate": null, "slip_type": "Dextral", "upper_seis_depth": "(1.0,,)", "downthrown_side_id": null, "reference": null, "epistemic_quality": null, "accuracy": null, "activity_confidence": null, "fs_name": null, "last_movement": null, "downthrown_side_dir": null, "vert_sep_rate": null, "strike_slip_rate": null, "exposure_quality": null, "shortening_rate": null, "notes": null, "index_right": 67, "NAME_EN": "Laos" }, "geometry": { "type": "LineString", "coordinates": [ [ 103.225, 19.848 ], [ 103.277, 19.821 ], [ 103.345, 19.794 ], [ 103.409, 19.763 ], [ 103.505, 19.697 ], [ 103.542, 19.682 ], [ 103.643, 19.656 ], [ 103.708, 19.633 ] ] } },
{ "type": "Feature", "properties": { "average_dip": "(90.0,,)", "average_rake": "(180.0,,)", "catalog_id": "EOS_AF0403", "catalog_name": "EOS_SE_Asia", "dip_dir": null, "lower_seis_depth": "(15.0,,)", "name": null, "net_slip_rate": null, "slip_type": "Dextral", "upper_seis_depth": "(1.0,,)", "downthrown_side_id": null, "reference": null, "epistemic_quality": null, "accuracy": null, "activity_confidence": null, "fs_name": null, "last_movement": null, "downthrown_side_dir": null, "vert_sep_rate": null, "strike_slip_rate": null, "exposure_quality": null, "shortening_rate": null, "notes": null, "index_right": 67, "NAME_EN": "Laos" }, "geometry": { "type": "LineString", "coordinates": [ [ 104.129, 20.338 ], [ 104.151, 20.319 ], [ 104.179, 20.303 ], [ 104.215, 20.29 ], [ 104.254, 20.279 ], [ 104.319, 20.264 ], [ 104.343, 20.261 ], [ 104.367, 20.262 ], [ 104.401, 20.26 ] ] } },
{ "type": "Feature", "properties": { "average_dip": "(90.0,,)", "average_rake": "(180.0,,)", "catalog_id": "EOS_AF0404", "catalog_name": "EOS_SE_Asia", "dip_dir": null, "lower_seis_depth": "(15.0,,)", "name": null, "net_slip_rate": null, "slip_type": "Dextral", "upper_seis_depth": "(1.0,,)", "downthrown_side_id": null, "reference": null, "epistemic_quality": null, "accuracy": null, "activity_confidence": null, "fs_name": null, "last_movement": null, "downthrown_side_dir": null, "vert_sep_rate": null, "strike_slip_rate": null, "exposure_quality": null, "shortening_rate": null, "notes": null, "index_right": 67, "NAME_EN": "Laos" }, "geometry": { "type": "LineString", "coordinates": [ [ 104.336, 20.286 ], [ 104.367, 20.278 ], [ 104.423, 20.258 ], [ 104.514, 20.231 ], [ 104.553, 20.216 ] ] } },
{ "type": "Feature", "properties": { "average_dip": "(90.0,,)", "average_rake": "(180.0,,)", "catalog_id": "EOS_AF0405", "catalog_name": "EOS_SE_Asia", "dip_dir": null, "lower_seis_depth": "(15.0,,)", "name": null, "net_slip_rate": null, "slip_type": "Dextral", "upper_seis_depth": "(1.0,,)", "downthrown_side_id": null, "reference": null, "epistemic_quality": null, "accuracy": null, "activity_confidence": null, "fs_name": null, "last_movement": null, "downthrown_side_dir": null, "vert_sep_rate": null, "strike_slip_rate": null, "exposure_quality": null, "shortening_rate": null, "notes": null, "index_right": 67, "NAME_EN": "Laos" }, "geometry": { "type": "LineString", "coordinates": [ [ 104.551, 20.193 ], [ 104.58, 20.188 ], [ 104.61, 20.18 ], [ 104.636, 20.171 ], [ 104.659, 20.173 ], [ 104.708, 20.172 ], [ 104.734, 20.166 ], [ 104.837, 20.126 ], [ 104.858, 20.116 ] ] } },
{ "type": "Feature", "properties": { "average_dip": "(90.0,,)", "average_rake": "(180.0,,)", "catalog_id": "EOS_AF0406", "catalog_name": "EOS_SE_Asia", "dip_dir": null, "lower_seis_depth": "(15.0,,)", "name": null, "net_slip_rate": null, "slip_type": "Dextral", "upper_seis_depth": "(1.0,,)", "downthrown_side_id": null, "reference": null, "epistemic_quality": null, "accuracy": null, "activity_confidence": null, "fs_name": null, "last_movement": null, "downthrown_side_dir": null, "vert_sep_rate": null, "strike_slip_rate": null, "exposure_quality": null, "shortening_rate": null, "notes": null, "index_right": 67, "NAME_EN": "Laos" }, "geometry": { "type": "LineString", "coordinates": [ [ 103.813, 19.286 ], [ 103.836, 19.297 ], [ 103.855, 19.302 ], [ 103.897, 19.307 ], [ 103.946, 19.302 ], [ 104.009, 19.291 ], [ 104.055, 19.276 ], [ 104.117, 19.261 ], [ 104.152, 19.259 ], [ 104.16, 19.262 ] ] } },
{ "type": "Feature", "properties": { "average_dip": "(90.0,,)", "average_rake": "(180.0,,)", "catalog_id": "EOS_AF0407", "catalog_name": "EOS_SE_Asia", "dip_dir": null, "lower_seis_depth": "(15.0,,)", "name": null, "net_slip_rate": null, "slip_type": "Dextral", "upper_seis_depth": "(1.0,,)", "downthrown_side_id": null, "reference": null, "epistemic_quality": null, "accuracy": null, "activity_confidence": null, "fs_name": null, "last_movement": null, "downthrown_side_dir": null, "vert_sep_rate": null, "strike_slip_rate": null, "exposure_quality": null, "shortening_rate": null, "notes": null, "index_right": 67, "NAME_EN": "Laos" }, "geometry": { "type": "LineString", "coordinates": [ [ 103.468, 19.34 ], [ 103.546, 19.345 ], [ 103.595, 19.341 ], [ 103.677, 19.33 ], [ 103.744, 19.319 ], [ 103.797, 19.317 ] ] } },
{ "type": "Feature", "properties": { "average_dip": "(90.0,,)", "average_rake": "(180.0,,)", "catalog_id": "EOS_AF0410", "catalog_name": "EOS_SE_Asia", "dip_dir": null, "lower_seis_depth": "(15.0,,)", "name": null, "net_slip_rate": null, "slip_type": "Dextral", "upper_seis_depth": "(1.0,,)", "downthrown_side_id": null, "reference": null, "epistemic_quality": null, "accuracy": null, "activity_confidence": null, "fs_name": null, "last_movement": null, "downthrown_side_dir": null, "vert_sep_rate": null, "strike_slip_rate": null, "exposure_quality": null, "shortening_rate": null, "notes": null, "index_right": 67, "NAME_EN": "Laos" }, "geometry": { "type": "LineString", "coordinates": [ [ 104.175, 20.366 ], [ 104.198, 20.366 ], [ 104.23, 20.363 ], [ 104.298, 20.35 ], [ 104.325, 20.343 ], [ 104.447, 20.318 ], [ 104.506, 20.313 ], [ 104.559, 20.306 ], [ 104.634, 20.304 ], [ 104.69, 20.308 ], [ 104.793, 20.307 ], [ 104.855, 20.312 ], [ 104.881, 20.309 ], [ 104.909, 20.302 ], [ 104.942, 20.291 ], [ 105.002, 20.268 ] ] } },
{ "type": "Feature", "properties": { "average_dip": "(90.0,,)", "average_rake": "(180.0,,)", "catalog_id": "EOS_AF0419", "catalog_name": "EOS_SE_Asia", "dip_dir": null, "lower_seis_depth": "(15.0,,)", "name": null, "net_slip_rate": null, "slip_type": "Dextral", "upper_seis_depth": "(1.0,,)", "downthrown_side_id": null, "reference": null, "epistemic_quality": null, "accuracy": null, "activity_confidence": null, "fs_name": null, "last_movement": null, "downthrown_side_dir": null, "vert_sep_rate": null, "strike_slip_rate": null, "exposure_quality": null, "shortening_rate": null, "notes": null, "index_right": 67, "NAME_EN": "Laos" }, "geometry": { "type": "LineString", "coordinates": [ [ 106.135, 17.047 ], [ 106.172, 17.035 ], [ 106.237, 17.021 ], [ 106.259, 17.019 ], [ 106.278, 17.021 ], [ 106.31, 17.017 ], [ 106.371, 16.993 ], [ 106.448, 16.957 ], [ 106.48, 16.939 ], [ 106.508, 16.926 ], [ 106.653, 16.867 ], [ 106.687, 16.856 ], [ 106.71, 16.846 ], [ 106.731, 16.839 ] ] } },
{ "type": "Feature", "properties": { "average_dip": "(90.0,,)", "average_rake": "(180.0,,)", "catalog_id": "EOS_AF0421", "catalog_name": "EOS_SE_Asia", "dip_dir": null, "lower_seis_depth": "(15.0,,)", "name": null, "net_slip_rate": null, "slip_type": "Dextral", "upper_seis_depth": "(1.0,,)", "downthrown_side_id": null, "reference": null, "epistemic_quality": null, "accuracy": null, "activity_confidence": null, "fs_name": null, "last_movement": null, "downthrown_side_dir": null, "vert_sep_rate": null, "strike_slip_rate": null, "exposure_quality": null, "shortening_rate": null, "notes": null, "index_right": 67, "NAME_EN": "Laos" }, "geometry": { "type": "LineString", "coordinates": [ [ 107.083, 16.435 ], [ 107.1, 16.404 ], [ 107.13, 16.37 ], [ 107.162, 16.34 ], [ 107.228, 16.283 ], [ 107.279, 16.222 ], [ 107.311, 16.178 ], [ 107.344, 16.122 ], [ 107.375, 16.077 ], [ 107.398, 16.046 ], [ 107.428, 16.014 ], [ 107.432, 15.956 ], [ 107.44, 15.926 ], [ 107.449, 15.913 ], [ 107.482, 15.887 ] ] } },
{ "type": "Feature", "properties": { "average_dip": "(90.0,,)", "average_rake": "(180.0,,)", "catalog_id": "EOS_AF0422", "catalog_name": "EOS_SE_Asia", "dip_dir": null, "lower_seis_depth": "(15.0,,)", "name": null, "net_slip_rate": null, "slip_type": "Dextral", "upper_seis_depth": "(1.0,,)", "downthrown_side_id": null, "reference": null, "epistemic_quality": null, "accuracy": null, "activity_confidence": null, "fs_name": null, "last_movement": null, "downthrown_side_dir": null, "vert_sep_rate": null, "strike_slip_rate": null, "exposure_quality": null, "shortening_rate": null, "notes": null, "index_right": 67, "NAME_EN": "Laos" }, "geometry": { "type": "LineString", "coordinates": [ [ 104.726, 18.697 ], [ 104.814, 18.661 ], [ 104.847, 18.637 ], [ 104.899, 18.61 ], [ 104.954, 18.589 ], [ 105.008, 18.572 ], [ 105.047, 18.562 ] ] } },
{ "type": "Feature", "properties": { "average_dip": "(90.0,,)", "average_rake": "(180.0,,)", "catalog_id": "EOS_AF0425", "catalog_name": "EOS_SE_Asia", "dip_dir": null, "lower_seis_depth": "(15.0,,)", "name": null, "net_slip_rate": null, "slip_type": "Dextral", "upper_seis_depth": "(1.0,,)", "downthrown_side_id": null, "reference": null, "epistemic_quality": null, "accuracy": null, "activity_confidence": null, "fs_name": null, "last_movement": null, "downthrown_side_dir": null, "vert_sep_rate": null, "strike_slip_rate": null, "exposure_quality": null, "shortening_rate": null, "notes": null, "index_right": 67, "NAME_EN": "Laos" }, "geometry": { "type": "LineString", "coordinates": [ [ 104.946, 18.634 ], [ 105.003, 18.607 ], [ 105.092, 18.589 ], [ 105.124, 18.58 ], [ 105.191, 18.574 ], [ 105.257, 18.572 ] ] } },
{ "type": "Feature", "properties": { "average_dip": "(90.0,,)", "average_rake": "(180.0,,)", "catalog_id": "EOS_AF0429", "catalog_name": "EOS_SE_Asia", "dip_dir": null, "lower_seis_depth": "(15.0,,)", "name": null, "net_slip_rate": null, "slip_type": "Dextral", "upper_seis_depth": "(1.0,,)", "downthrown_side_id": null, "reference": null, "epistemic_quality": null, "accuracy": null, "activity_confidence": null, "fs_name": null, "last_movement": null, "downthrown_side_dir": null, "vert_sep_rate": null, "strike_slip_rate": null, "exposure_quality": null, "shortening_rate": null, "notes": null, "index_right": 67, "NAME_EN": "Laos" }, "geometry": { "type": "LineString", "coordinates": [ [ 107.417, 15.439 ], [ 107.498, 15.43 ], [ 107.547, 15.421 ], [ 107.583, 15.412 ], [ 107.617, 15.408 ], [ 107.7, 15.373 ], [ 107.733, 15.363 ], [ 107.79, 15.342 ], [ 107.817, 15.338 ], [ 107.841, 15.336 ], [ 107.868, 15.331 ], [ 107.936, 15.332 ], [ 107.988, 15.33 ], [ 108.049, 15.33 ], [ 108.119, 15.319 ], [ 108.176, 15.303 ], [ 108.205, 15.3 ], [ 108.225, 15.301 ], [ 108.245, 15.309 ], [ 108.265, 15.313 ], [ 108.321, 15.313 ], [ 108.44, 15.302 ], [ 108.488, 15.293 ], [ 108.507, 15.287 ] ] } }
]
}
