{
"type": "FeatureCollection",
"name": "faults_egypt",
"crs": { "type": "name", "properties": { "name": "urn:ogc:def:crs:OGC:1.3:CRS84" } },
"features": [
{ "type": "Feature", "properties": { "average_dip": "(45,35,60)", "average_rake": "", "catalog_id": "NAF_90", "catalog_name": "GEM_N_Africa", "dip_dir": "W", "lower_seis_depth": null, "name": "Hammam Faroun Fault", "net_slip_rate": "", "slip_type": "Normal", "upper_seis_depth": null, "downthrown_side_id": null, "reference": "Sharp et al. 2000 GSAB", "epistemic_quality": "1", "accuracy": "200000", "activity_confidence": "1", "fs_name": "Suez Rift", "last_movement": "", "downthrown_side_dir": "W", "vert_sep_rate": "", "strike_slip_rate": "", "exposure_quality": "1", "shortening_rate": "", "notes": "", "index_right": 161, "NAME_EN": "Egypt" }, "geometry": { "type": "LineString", "coordinates": [ [ 32.796026263584459, 29.454684741321628 ], [ 32.797825976174018, 29.443886465784278 ], [ 32.808924203809632, 29.430688573460852 ], [ 32.825271593164786, 29.403692884617477 ], [ 32.831270635129968, 29.385995710820154 ], [ 32.831420611179105, 29.377747028118012 ], [ 32.834720084259956, 29.371897962201949 ], [ 32.834870060309086, 29.363649279499807 ], [ 32.839969245979511, 29.343852441014665 ], [ 32.843868623256874, 29.333954021772094 ], [ 32.859466132366386, 29.310707734156964 ], [ 32.863665461742023, 29.299609506521357 ], [ 32.885037048743037, 29.282287272846858 ], [ 32.897485060820813, 29.27546336261145 ], [ 32.898684869213845, 29.266914727811049 ], [ 32.925005665836132, 29.244718272539828 ], [ 32.930704755703069, 29.23526978144465 ], [ 32.940303222847383, 29.227770978988154 ], [ 32.960549989479908, 29.189677062509169 ], [ 32.976597426736802, 29.166880703041432 ], [ 32.987995606470676, 29.164931014402747 ], [ 32.999693738302803, 29.15833206824103 ], [ 33.008992253348858, 29.147533792703683 ], [ 33.022190145672283, 29.138535229755892 ], [ 33.03358832540615, 29.122037864351608 ], [ 33.055484828579111, 29.105240546849064 ], [ 33.072582098179915, 29.097141840196048 ], [ 33.082780469520742, 29.088743181444777 ], [ 33.085180086306821, 29.080344522693505 ], [ 33.094403613328303, 29.068121474689423 ], [ 33.106776637381522, 29.059497851864453 ], [ 33.119304714596382, 29.055720018879054 ], [ 33.127761733780829, 29.036730228677676 ], [ 33.147720098793975, 29.028302833645444 ], [ 33.189043482709707, 28.997823551084636 ], [ 33.198561979448989, 28.99545807888601 ] ] } },
{ "type": "Feature", "properties": { "average_dip": "(90,,)", "average_rake": "", "catalog_id": "NAF_91", "catalog_name": "GEM_N_Africa", "dip_dir": "", "lower_seis_depth": null, "name": "", "net_slip_rate": "", "slip_type": "Sinistral", "upper_seis_depth": null, "downthrown_side_id": null, "reference": "Abdeen and Abdelmaksoud 2014 JAES", "epistemic_quality": "1", "accuracy": "30000", "activity_confidence": "1", "fs_name": "", "last_movement": "", "downthrown_side_dir": "", "vert_sep_rate": "", "strike_slip_rate": "", "exposure_quality": "1", "shortening_rate": "", "notes": "", "index_right": 161, "NAME_EN": "Egypt" }, "geometry": { "type": "LineString", "coordinates": [ [ 33.2928219263271, 28.592134988763622 ], [ 33.287572764607553, 28.574287838917169 ], [ 33.272725135743698, 28.54249291650164 ] ] } },
{ "type": "Feature", "properties": { "average_dip": "", "average_rake": "", "catalog_id": "NAF_92", "catalog_name": "GEM_N_Africa", "dip_dir": "", "lower_seis_depth": null, "name": "Durba-Araba Fault", "net_slip_rate": "", "slip_type": "Sinistral", "upper_seis_depth": null, "downthrown_side_id": null, "reference": "Abdeen and Abdelmaksoud 2014 JAES", "epistemic_quality": "1", "accuracy": "64000", "activity_confidence": "1", "fs_name": "", "last_movement": "", "downthrown_side_dir": "", "vert_sep_rate": "", "strike_slip_rate": "", "exposure_quality": "1", "shortening_rate": "", "notes": "", "index_right": 161, "NAME_EN": "Egypt" }, "geometry": { "type": "LineString", "coordinates": [ [ 33.35071268129122, 28.467804844034983 ], [ 33.353412250175559, 28.494500580780095 ], [ 33.357011675354677, 28.512797658773938 ], [ 33.354912010666858, 28.541893012305128 ], [ 33.361510956828567, 28.572488126327617 ], [ 33.361810908926827, 28.586585874945822 ], [ 33.359111340042489, 28.596484294188393 ] ] } },
{ "type": "Feature", "properties": { "average_dip": "(55,40,70)", "average_rake": "", "catalog_id": "NAF_93", "catalog_name": "GEM_N_Africa", "dip_dir": "W", "lower_seis_depth": null, "name": "Nezzazat Fault", "net_slip_rate": "", "slip_type": "Normal", "upper_seis_depth": null, "downthrown_side_id": null, "reference": "Sharp et al. 2000 GSAB", "epistemic_quality": "1", "accuracy": "100000", "activity_confidence": "1", "fs_name": "", "last_movement": "", "downthrown_side_dir": "W", "vert_sep_rate": "", "strike_slip_rate": "", "exposure_quality": "1", "shortening_rate": "", "notes": "", "index_right": 161, "NAME_EN": "Egypt" }, "geometry": { "type": "LineString", "coordinates": [ [ 33.244829590605548, 28.999919866347682 ], [ 33.249928776275958, 28.984172381189044 ], [ 33.254278081700726, 28.958526476787842 ], [ 33.251278560718127, 28.922232272898416 ], [ 33.252028440963777, 28.914283542294534 ], [ 33.255777842192025, 28.903035338609797 ], [ 33.253378225405939, 28.893436871465504 ], [ 33.244379662458144, 28.873340080882105 ], [ 33.243479806163364, 28.85984223646042 ], [ 33.234181291117316, 28.845744487842214 ], [ 33.234481243215576, 28.834946212304864 ], [ 33.220683446695631, 28.815749278016245 ], [ 33.217983877811292, 28.804951002478894 ], [ 33.218583782007812, 28.798652008415441 ], [ 33.220383494597371, 28.792353014351988 ], [ 33.232681530626017, 28.780954834618118 ], [ 33.238680572591214, 28.772856127965106 ], [ 33.244679614556404, 28.767756942294692 ], [ 33.247979087637262, 28.762057852427759 ], [ 33.25127856071812, 28.750059768497369 ], [ 33.248578991833782, 28.723364031752258 ], [ 33.256077794290277, 28.712865708313167 ], [ 33.276174584873672, 28.696368342908883 ], [ 33.282173626838862, 28.68946944464891 ], [ 33.282173626838862, 28.675671648128965 ], [ 33.276174584873672, 28.66187385160902 ], [ 33.268375830318917, 28.650475671875149 ], [ 33.267775926122397, 28.640877204730838 ], [ 33.274374872284113, 28.609082282315313 ], [ 33.278574201659751, 28.600083719367522 ], [ 33.291172189786657, 28.59168506061625 ] ] } },
{ "type": "Feature", "properties": { "average_dip": "(60,40,80)", "average_rake": "", "catalog_id": "NAF_94", "catalog_name": "GEM_N_Africa", "dip_dir": "S", "lower_seis_depth": null, "name": "Markha Baba transfer Fault", "net_slip_rate": "", "slip_type": "Normal", "upper_seis_depth": null, "downthrown_side_id": null, "reference": "Sharp et al. 2000", "epistemic_quality": "1", "accuracy": "20000", "activity_confidence": "1", "fs_name": "", "last_movement": "", "downthrown_side_dir": "S", "vert_sep_rate": "", "strike_slip_rate": "", "exposure_quality": "1", "shortening_rate": "", "notes": "May be oblique", "index_right": 161, "NAME_EN": "Egypt" }, "geometry": { "type": "LineString", "coordinates": [ [ 33.199761787842, 28.99594550104575 ], [ 33.205010949561547, 28.998795045979218 ], [ 33.227582344955586, 29.001944543010943 ], [ 33.230131937790794, 29.003744255600502 ], [ 33.242130021721181, 29.002169507084638 ], [ 33.244679614556389, 29.000069842396819 ] ] } },
{ "type": "Feature", "properties": { "average_dip": "(60,40,70)", "average_rake": "", "catalog_id": "NAF_95", "catalog_name": "GEM_N_Africa", "dip_dir": "W", "lower_seis_depth": null, "name": "Hadahid Fault", "net_slip_rate": "", "slip_type": "Normal", "upper_seis_depth": null, "downthrown_side_id": null, "reference": "Sharp et al. 2000", "epistemic_quality": "1", "accuracy": "40000", "activity_confidence": "1", "fs_name": "", "last_movement": "", "downthrown_side_dir": "W", "vert_sep_rate": "", "strike_slip_rate": "", "exposure_quality": "1", "shortening_rate": "", "notes": "", "index_right": 161, "NAME_EN": "Egypt" }, "geometry": { "type": "LineString", "coordinates": [ [ 33.400729693675999, 28.710466091527096 ], [ 33.428025334617629, 28.684970163175024 ], [ 33.438523658056717, 28.6672729893777 ], [ 33.446922316807992, 28.660074139019468 ], [ 33.455021023461001, 28.65617476174209 ], [ 33.464919442703568, 28.645376486204743 ], [ 33.467619011587907, 28.63817763584651 ], [ 33.479617095518293, 28.633378402274353 ], [ 33.487715802171309, 28.622580126737006 ], [ 33.494914652529538, 28.616881036870073 ], [ 33.509612305344262, 28.611781851199655 ], [ 33.519510724586837, 28.613881515887474 ], [ 33.539007610973712, 28.614481420083994 ], [ 33.551305647002359, 28.606982617627498 ], [ 33.558354521311458, 28.596184342090147 ], [ 33.569152796848812, 28.593034845058419 ], [ 33.579801096337029, 28.593634749254939 ] ] } },
{ "type": "Feature", "properties": { "average_dip": "(60,40,70)", "average_rake": "", "catalog_id": "NAF_96", "catalog_name": "GEM_N_Africa", "dip_dir": "W", "lower_seis_depth": null, "name": "Sinai Massif Fault", "net_slip_rate": "", "slip_type": "Normal", "upper_seis_depth": null, "downthrown_side_id": null, "reference": "Sharp et al. 2000", "epistemic_quality": "1", "accuracy": "50000", "activity_confidence": "1", "fs_name": "", "last_movement": "", "downthrown_side_dir": "W", "vert_sep_rate": "", "strike_slip_rate": "", "exposure_quality": "1", "shortening_rate": "", "notes": "", "index_right": 161, "NAME_EN": "Egypt" }, "geometry": { "type": "LineString", "coordinates": [ [ 33.579201192140509, 28.593634749254946 ], [ 33.582800617319627, 28.589135467781052 ], [ 33.584600329909186, 28.572338150278508 ], [ 33.588199755088297, 28.564239443625496 ], [ 33.594798701250014, 28.556740641169004 ], [ 33.617295108619487, 28.546842221926433 ], [ 33.621794390093385, 28.541143132059499 ], [ 33.655688977196732, 28.528545143932593 ], [ 33.668286965323638, 28.514747347412648 ], [ 33.674286007288835, 28.501849407187478 ], [ 33.676385671976654, 28.487151754372753 ], [ 33.687483899612261, 28.479652951916261 ], [ 33.690783372693119, 28.460156065529382 ], [ 33.690483420594859, 28.443358748026839 ], [ 33.701581648230466, 28.430310831752539 ], [ 33.707280738097396, 28.425961526327775 ], [ 33.707430714146525, 28.415463202888684 ], [ 33.709680354883474, 28.407664448333932 ] ] } },
{ "type": "Feature", "properties": { "average_dip": "(50,40,70)", "average_rake": "", "catalog_id": "NAF_97", "catalog_name": "GEM_N_Africa", "dip_dir": "W", "lower_seis_depth": null, "name": "South Sinai Massif Fault", "net_slip_rate": "", "slip_type": "Normal", "upper_seis_depth": null, "downthrown_side_id": null, "reference": "DEM", "epistemic_quality": "1", "accuracy": "150000", "activity_confidence": "1", "fs_name": "", "last_movement": "", "downthrown_side_dir": "W", "vert_sep_rate": "", "strike_slip_rate": "", "exposure_quality": "1", "shortening_rate": "", "notes": "", "index_right": 161, "NAME_EN": "Egypt" }, "geometry": { "type": "LineString", "coordinates": [ [ 33.73562621138295, 28.408714280677838 ], [ 33.742525109642919, 28.407514472284799 ], [ 33.748524151608116, 28.399415765631787 ], [ 33.750023912099415, 28.390717154782255 ], [ 33.749124055804636, 28.383518304424022 ], [ 33.753923289376786, 28.365521178528443 ], [ 33.76442161281588, 28.352623238303273 ], [ 33.780619026121904, 28.343624675355482 ], [ 33.787217972283614, 28.335825920800733 ], [ 33.796816439427928, 28.319328555396449 ], [ 33.805215098179197, 28.297732004321752 ], [ 33.819012894699142, 28.282434447310507 ], [ 33.828611361843457, 28.264437321414917 ], [ 33.840609445773843, 28.25303914168105 ], [ 33.842709110461662, 28.24164096194718 ], [ 33.848408200328592, 28.233242303195912 ], [ 33.865805422027655, 28.215245177300329 ], [ 33.876903649663262, 28.196348195109966 ], [ 33.888301829397136, 28.181650542295241 ], [ 33.892801110871027, 28.178651021312646 ], [ 33.908098667882278, 28.175651500330044 ], [ 33.932694739939571, 28.145656290504075 ], [ 33.944092919673437, 28.137857535949323 ], [ 33.978887363071564, 28.125259547822417 ], [ 33.987286021822833, 28.098263858979045 ], [ 33.978887363071564, 28.056270565222686 ], [ 33.980687075661123, 28.039473247720142 ], [ 33.998684201556706, 28.035273918344508 ], [ 34.004683243521896, 28.030474684772354 ], [ 34.019080944238361, 28.025075547003677 ], [ 34.038277878526983, 28.011877654680251 ], [ 34.062873950584276, 27.989681199409034 ], [ 34.100068010768481, 27.969884360923896 ], [ 34.111466190502348, 27.966284935744778 ], [ 34.128263508004892, 27.965685031548258 ] ] } },
{ "type": "Feature", "properties": { "average_dip": "(55,40,70)", "average_rake": "", "catalog_id": "NAF_98", "catalog_name": "GEM_N_Africa", "dip_dir": "W", "lower_seis_depth": null, "name": "", "net_slip_rate": "", "slip_type": "Normal", "upper_seis_depth": null, "downthrown_side_id": null, "reference": "DEM", "epistemic_quality": "1", "accuracy": "100000", "activity_confidence": "2", "fs_name": "", "last_movement": "", "downthrown_side_dir": "W", "vert_sep_rate": "", "strike_slip_rate": "", "exposure_quality": "1", "shortening_rate": "", "notes": "Gets a little ambiguous towards the north and south. Might not be very active.", "index_right": 161, "NAME_EN": "Egypt" }, "geometry": { "type": "LineString", "coordinates": [ [ 32.85616665928552, 30.014357862661981 ], [ 32.8570665155803, 29.994261072078583 ], [ 32.860665940759418, 29.979263467165598 ], [ 32.862465653348977, 29.949568209437889 ], [ 32.867864791117654, 29.937570125507499 ], [ 32.869364551608946, 29.926171945773632 ], [ 32.873263928886324, 29.914473813941502 ], [ 32.870864312100245, 29.884778556213792 ], [ 32.875663545672403, 29.826587849151412 ], [ 32.891261054781907, 29.74740049521084 ], [ 32.901759378220994, 29.729103417217001 ], [ 32.902959186614034, 29.720704758465722 ], [ 32.899359761434916, 29.673312326940689 ], [ 32.903559090810553, 29.653515488455547 ], [ 32.908358324382711, 29.639717691935601 ], [ 32.916157078937459, 29.626519799612176 ], [ 32.932954396440003, 29.605523152733998 ] ] } },
{ "type": "Feature", "properties": { "average_dip": "(60,40,70)", "average_rake": "", "catalog_id": "NAF_99", "catalog_name": "GEM_N_Africa", "dip_dir": "N", "lower_seis_depth": null, "name": "St. Anthony Fault", "net_slip_rate": "", "slip_type": "Normal", "upper_seis_depth": null, "downthrown_side_id": null, "reference": "DEM", "epistemic_quality": "1", "accuracy": "100000", "activity_confidence": "1", "fs_name": "", "last_movement": "", "downthrown_side_dir": "N", "vert_sep_rate": "", "strike_slip_rate": "", "exposure_quality": "1", "shortening_rate": "", "notes": "Some scarps in Google Earth. Strange structure.", "index_right": 161, "NAME_EN": "Egypt" }, "geometry": { "type": "LineString", "coordinates": [ [ 32.60120737576478, 29.07130846573348 ], [ 32.585309914557016, 29.055411004525716 ], [ 32.57121216593881, 29.047912202069224 ], [ 32.559514034106684, 29.038613687023176 ], [ 32.544816381291959, 29.020316609029333 ], [ 32.534618009951132, 29.010718141885022 ], [ 32.447631901455807, 28.967525039735623 ], [ 32.424535589889807, 28.958226524689572 ], [ 32.396040140555137, 28.939929446695729 ], [ 32.352547086307482, 28.919232751915811 ], [ 32.341748810770135, 28.911134045262799 ], [ 32.316252882418063, 28.897336248742853 ], [ 32.300955325406818, 28.883238500124648 ], [ 32.285357816297314, 28.88023897914205 ], [ 32.27305978026866, 28.874239937176856 ], [ 32.252363085488746, 28.871240416194265 ], [ 32.21576892950106, 28.870640511997749 ], [ 32.183674054987272, 28.867341038916891 ], [ 32.171376018958625, 28.863441661639513 ], [ 32.150979276276971, 28.853243290298686 ], [ 32.145280186410034, 28.851743529807386 ], [ 32.131782341988348, 28.853243290298686 ], [ 32.114685072387545, 28.847844152530012 ], [ 32.103586844751938, 28.846644344136973 ], [ 32.086189623052874, 28.840645302171772 ], [ 32.064893024076433, 28.828047314044863 ], [ 32.024699442909636, 28.812749757033618 ], [ 32.005202556522754, 28.799851816808452 ], [ 31.974907394598528, 28.790253349664141 ], [ 31.955410508211646, 28.777355409438975 ], [ 31.944912184772559, 28.774055936358121 ], [ 31.929914579859574, 28.76235780452599 ], [ 31.902318986819679, 28.750959624792124 ], [ 31.895420088559707, 28.744960582826927 ], [ 31.888821142397994, 28.7347622114861 ] ] } },
{ "type": "Feature", "properties": { "average_dip": "(60,40,70)", "average_rake": "", "catalog_id": "NAF_100", "catalog_name": "GEM_N_Africa", "dip_dir": "S", "lower_seis_depth": null, "name": "", "net_slip_rate": "", "slip_type": "Normal", "upper_seis_depth": null, "downthrown_side_id": null, "reference": "DEM", "epistemic_quality": "1", "accuracy": "70000", "activity_confidence": "2", "fs_name": "", "last_movement": "", "downthrown_side_dir": "S", "vert_sep_rate": "", "strike_slip_rate": "", "exposure_quality": "1", "shortening_rate": "", "notes": "Can't find any real scarps in Google Earth but could be marginally active", "index_right": 161, "NAME_EN": "Egypt" }, "geometry": { "type": "LineString", "coordinates": [ [ 31.87948513333966, 28.945441066501253 ], [ 31.894932666400042, 28.956914234259685 ], [ 31.902431468856534, 28.965612845109217 ], [ 31.930327013994685, 28.981810258415241 ], [ 31.950423804578087, 28.989908965068253 ], [ 31.965121457392812, 29.00010733640908 ], [ 31.982218726993615, 29.008805947258612 ], [ 31.995716571415301, 29.025903216859415 ], [ 32.027211541732569, 29.045700055344554 ], [ 32.042209146645554, 29.059797803962759 ], [ 32.062905841425469, 29.072695744187929 ], [ 32.068304979194146, 29.088893157493949 ], [ 32.081052943370189, 29.097291816245214 ], [ 32.089001673974067, 29.104340690554316 ], [ 32.094250835693614, 29.112739349305588 ], [ 32.118996883800037, 29.131936283594214 ], [ 32.17178845309374, 29.15683230774977 ], [ 32.187985866399764, 29.159831828732365 ], [ 32.202983471312749, 29.164631062304522 ], [ 32.213781746850103, 29.173029721055794 ], [ 32.222480357699638, 29.174979409694476 ], [ 32.229079303861347, 29.179628667217504 ], [ 32.238977723103922, 29.182028284003579 ], [ 32.258624585539927, 29.194026367933972 ], [ 32.294018933134566, 29.205724499766099 ], [ 32.347710358723056, 29.21562291900867 ], [ 32.376205808057726, 29.230320571823395 ], [ 32.394502886051569, 29.242618607852041 ], [ 32.414599676634964, 29.250417362406793 ], [ 32.420898670698421, 29.255216595978947 ] ] } },
{ "type": "Feature", "properties": { "average_dip": "(50,40,70)", "average_rake": "", "catalog_id": "NAF_101", "catalog_name": "GEM_N_Africa", "dip_dir": "N", "lower_seis_depth": null, "name": "", "net_slip_rate": "", "slip_type": "Normal", "upper_seis_depth": null, "downthrown_side_id": null, "reference": "DEM", "epistemic_quality": "1", "accuracy": "30000", "activity_confidence": "1", "fs_name": "", "last_movement": "", "downthrown_side_dir": "N", "vert_sep_rate": "", "strike_slip_rate": "", "exposure_quality": "1", "shortening_rate": "", "notes": "", "index_right": 161, "NAME_EN": "Egypt" }, "geometry": { "type": "LineString", "coordinates": [ [ 32.333312658006577, 29.589663185538495 ], [ 32.32221443037097, 29.591912826275443 ], [ 32.315315532110994, 29.588313401096325 ], [ 32.303767376327997, 29.585163904064601 ], [ 32.285620274383284, 29.583214215425912 ], [ 32.280671064761997, 29.580664622590703 ], [ 32.272272406010728, 29.572715891986821 ], [ 32.261324154424251, 29.555918574484281 ], [ 32.254425256164275, 29.550819388813863 ] ] } },
{ "type": "Feature", "properties": { "average_dip": "(60,40,70)", "average_rake": "", "catalog_id": "NAF_102", "catalog_name": "GEM_N_Africa", "dip_dir": "N", "lower_seis_depth": null, "name": "", "net_slip_rate": "", "slip_type": "Normal", "upper_seis_depth": null, "downthrown_side_id": null, "reference": "DEM", "epistemic_quality": "1", "accuracy": "50000", "activity_confidence": "1", "fs_name": "", "last_movement": "", "downthrown_side_dir": "N", "vert_sep_rate": "", "strike_slip_rate": "", "exposure_quality": "1", "shortening_rate": "", "notes": "Gorgeous tectonic geomorphology in DEM and Google Earth", "index_right": 161, "NAME_EN": "Egypt" }, "geometry": { "type": "LineString", "coordinates": [ [ 32.314115723717954, 29.54587017919259 ], [ 32.29731840621541, 29.549019676224319 ], [ 32.26867298083161, 29.550969364863008 ], [ 32.24512674111822, 29.550519436715618 ], [ 32.223980118190916, 29.552769077452563 ], [ 32.212731914506172, 29.550819388813878 ], [ 32.185886201711931, 29.541820825866083 ], [ 32.179887159746734, 29.538221400686968 ], [ 32.168488980012867, 29.527123173051358 ], [ 32.162189985949411, 29.525173484412669 ], [ 32.148392189429465, 29.525923364658318 ], [ 32.141943219316879, 29.524423604167023 ], [ 32.124246045519563, 29.514375208875322 ], [ 32.105499039378323, 29.517524705907046 ], [ 32.067105170801085, 29.519624370594865 ], [ 32.05870651204981, 29.522473915528334 ], [ 32.046558452070293, 29.539871137227394 ] ] } },
{ "type": "Feature", "properties": { "average_dip": "(60,40,70)", "average_rake": "", "catalog_id": "NAF_103", "catalog_name": "GEM_N_Africa", "dip_dir": "NE", "lower_seis_depth": null, "name": "", "net_slip_rate": "", "slip_type": "Normal", "upper_seis_depth": null, "downthrown_side_id": null, "reference": "DEM", "epistemic_quality": "1", "accuracy": "60000", "activity_confidence": "1", "fs_name": "", "last_movement": "", "downthrown_side_dir": "NE", "vert_sep_rate": "", "strike_slip_rate": "", "exposure_quality": "1", "shortening_rate": "", "notes": "", "index_right": 161, "NAME_EN": "Egypt" }, "geometry": { "type": "LineString", "coordinates": [ [ 32.152741494854226, 29.531622454525252 ], [ 32.142243171415139, 29.533722119213071 ], [ 32.133694536614733, 29.542120777964342 ], [ 32.131294919828655, 29.546620059438236 ], [ 32.112097985540039, 29.561017760154702 ], [ 32.093201003349677, 29.558168215221237 ], [ 32.069954715734546, 29.546170131290847 ], [ 32.044458787382474, 29.539871137227394 ], [ 32.026461661486891, 29.537621496490448 ], [ 32.011764008672152, 29.538671328834358 ], [ 31.992717050432663, 29.535971759950019 ], [ 31.981618822797056, 29.542420730062602 ], [ 31.968720882571887, 29.545270274996071 ], [ 31.963921648999733, 29.547819867831279 ], [ 31.942775026072425, 29.567616706316418 ], [ 31.937225912254625, 29.568516562611197 ], [ 31.906930750330396, 29.561317712252965 ], [ 31.873336115325309, 29.559817951761666 ], [ 31.867037121261856, 29.557118382877327 ], [ 31.848740043268016, 29.554118861894732 ], [ 31.811246030985547, 29.555018718189512 ], [ 31.78964947991085, 29.553219005599953 ], [ 31.760854078477919, 29.556218526582551 ], [ 31.727559395571106, 29.576315317165953 ], [ 31.71466145534594, 29.58681364060504 ], [ 31.695764473155577, 29.609010095876261 ], [ 31.68616600601127, 29.626107365477061 ], [ 31.683466437126931, 29.635105928424853 ], [ 31.683466437126928, 29.644704395569171 ], [ 31.680466916144336, 29.653403006418717 ], [ 31.666069215427871, 29.669900371822997 ], [ 31.636074005601902, 29.695996204371593 ], [ 31.623775969573256, 29.703495006828085 ], [ 31.617776927608062, 29.713393426070656 ], [ 31.594380663943806, 29.733190264555795 ], [ 31.573683969163888, 29.743688587994885 ], [ 31.557186603759604, 29.757186432416571 ], [ 31.541889046748359, 29.764685234873063 ], [ 31.531090771211009, 29.77638336670519 ] ] } },
{ "type": "Feature", "properties": { "average_dip": "(60,40,70)", "average_rake": "", "catalog_id": "NAF_104", "catalog_name": "GEM_N_Africa", "dip_dir": "N", "lower_seis_depth": null, "name": "", "net_slip_rate": "", "slip_type": "Normal", "upper_seis_depth": null, "downthrown_side_id": null, "reference": "DEM", "epistemic_quality": "1", "accuracy": "60000", "activity_confidence": "1", "fs_name": "", "last_movement": "", "downthrown_side_dir": "N", "vert_sep_rate": "", "strike_slip_rate": "", "exposure_quality": "1", "shortening_rate": "", "notes": "", "index_right": 161, "NAME_EN": "Egypt" }, "geometry": { "type": "LineString", "coordinates": [ [ 31.591381142961193, 29.577515125559007 ], [ 31.630074963636694, 29.577515125559003 ], [ 31.65482101174312, 29.574215652478149 ], [ 31.670718472950885, 29.574065676429012 ], [ 31.686315982060389, 29.566566873972519 ], [ 31.700413730678594, 29.557568311024731 ], [ 31.711511958314205, 29.553968885845613 ], [ 31.7260596350798, 29.546320107339991 ], [ 31.774951827096128, 29.535071903655268 ] ] } },
{ "type": "Feature", "properties": { "average_dip": "(55,40,70)", "average_rake": "", "catalog_id": "NAF_105", "catalog_name": "GEM_N_Africa", "dip_dir": "N", "lower_seis_depth": null, "name": "", "net_slip_rate": "", "slip_type": "Normal", "upper_seis_depth": null, "downthrown_side_id": null, "reference": "DEM", "epistemic_quality": "1", "accuracy": "50000", "activity_confidence": "1", "fs_name": "", "last_movement": "", "downthrown_side_dir": "N", "vert_sep_rate": "", "strike_slip_rate": "", "exposure_quality": "1", "shortening_rate": "", "notes": "", "index_right": 161, "NAME_EN": "Egypt" }, "geometry": { "type": "LineString", "coordinates": [ [ 31.537031235944845, 29.907427695710503 ], [ 31.573214704979854, 29.894696475124114 ], [ 31.598900500899767, 29.881741899790594 ], [ 31.630616874992182, 29.879061642825036 ], [ 31.64625170729126, 29.873031064652537 ], [ 31.661439830096079, 29.85404591114651 ], [ 31.663673377567378, 29.843771592778545 ], [ 31.672830922199694, 29.835284112387619 ], [ 31.680648338349233, 29.830146953203634 ], [ 31.687125626015995, 29.829476888962247 ], [ 31.702090394073682, 29.822776246548354 ], [ 31.740730765327118, 29.802004255065295 ], [ 31.756812307120455, 29.782349037317882 ], [ 31.761056047315922, 29.766714205018804 ] ] } },
{ "type": "Feature", "properties": { "average_dip": "(60,40,70)", "average_rake": "", "catalog_id": "NAF_106", "catalog_name": "GEM_N_Africa", "dip_dir": "N", "lower_seis_depth": null, "name": "", "net_slip_rate": "", "slip_type": "Normal", "upper_seis_depth": null, "downthrown_side_id": null, "reference": "DEM", "epistemic_quality": "1", "accuracy": "90000", "activity_confidence": "1", "fs_name": "", "last_movement": "", "downthrown_side_dir": "N", "vert_sep_rate": "", "strike_slip_rate": "", "exposure_quality": "1", "shortening_rate": "", "notes": "", "index_right": 161, "NAME_EN": "Egypt" }, "geometry": { "type": "LineString", "coordinates": [ [ 31.696953234889698, 29.943611164745509 ], [ 31.725989352016555, 29.94763155019384 ], [ 31.734923541901743, 29.951205226147916 ], [ 31.740730765327115, 29.957459159067547 ], [ 31.748324826729526, 29.960139416033105 ], [ 31.76574649700564, 29.961479544515882 ], [ 31.785848424247312, 29.960139416033105 ], [ 31.792102357166943, 29.961479544515885 ], [ 31.797909580592314, 29.965053220469962 ], [ 31.804163513511945, 29.965276575217089 ], [ 31.828285826201952, 29.962596318251535 ], [ 31.842357175271122, 29.963713091987184 ], [ 31.862235747765666, 29.962149608757276 ], [ 31.905119859214565, 29.970190379653943 ], [ 31.921201401007902, 29.970413734401074 ], [ 31.942643456732352, 29.968180186929775 ], [ 31.955598032065879, 29.969967024906808 ], [ 31.978380216273109, 29.968626896424031 ], [ 32.010543299859783, 29.961032835021619 ], [ 32.025731422664599, 29.96058612552736 ], [ 32.036452450526824, 29.964606510975695 ], [ 32.040919545469421, 29.964606510975695 ], [ 32.074422757538876, 29.946738131205318 ], [ 32.091844427814991, 29.942271036262728 ], [ 32.109712807585367, 29.941824326768465 ] ] } },
{ "type": "Feature", "properties": { "average_dip": "(50,40,70)", "average_rake": "", "catalog_id": "NAF_107", "catalog_name": "GEM_N_Africa", "dip_dir": "N", "lower_seis_depth": null, "name": "", "net_slip_rate": "", "slip_type": "Normal", "upper_seis_depth": null, "downthrown_side_id": null, "reference": "DEM", "epistemic_quality": "1", "accuracy": "150000", "activity_confidence": "1", "fs_name": "", "last_movement": "", "downthrown_side_dir": "N", "vert_sep_rate": "", "strike_slip_rate": "", "exposure_quality": "1", "shortening_rate": "", "notes": "", "index_right": 161, "NAME_EN": "Egypt" }, "geometry": { "type": "LineString", "coordinates": [ [ 31.801036547052139, 29.773861556926942 ], [ 31.829625954684737, 29.756886596145087 ], [ 31.842133820524001, 29.751526082213974 ], [ 31.872510066133639, 29.731870864466561 ], [ 31.884124512984382, 29.722043255592855 ], [ 31.923434948479205, 29.672905211224322 ] ] } },
{ "type": "Feature", "properties": { "average_dip": "(50,40,70)", "average_rake": "", "catalog_id": "NAF_108", "catalog_name": "GEM_N_Africa", "dip_dir": "NE", "lower_seis_depth": null, "name": "", "net_slip_rate": "", "slip_type": "Normal", "upper_seis_depth": null, "downthrown_side_id": null, "reference": "DEM", "epistemic_quality": "1", "accuracy": "50000", "activity_confidence": "1", "fs_name": "", "last_movement": "", "downthrown_side_dir": "NE", "vert_sep_rate": "", "strike_slip_rate": "", "exposure_quality": "1", "shortening_rate": "", "notes": "", "index_right": 161, "NAME_EN": "Egypt" }, "geometry": { "type": "LineString", "coordinates": [ [ 32.0543208302972, 29.977114376814946 ], [ 32.074869467033132, 29.973093991366614 ], [ 32.096311522757581, 29.972200572378092 ], [ 32.126687768367219, 29.968180186929761 ], [ 32.135621958252408, 29.965499929964203 ], [ 32.149916662068705, 29.957459159067536 ], [ 32.155277175999821, 29.952992064124942 ], [ 32.159744270942412, 29.94584471221679 ], [ 32.170688653551771, 29.937133877078733 ], [ 32.174485684252971, 29.930656589411974 ], [ 32.184760002620941, 29.900727053296595 ], [ 32.192800773517604, 29.885315575744645 ], [ 32.193694192506129, 29.880625126054923 ], [ 32.192577418770476, 29.875934676365201 ], [ 32.187886969080751, 29.864766939008714 ], [ 32.194587611494647, 29.84689855923834 ], [ 32.216476376713352, 29.832157145927781 ], [ 32.234568111230857, 29.828136760479445 ], [ 32.241938817886137, 29.823222956042592 ] ] } },
{ "type": "Feature", "properties": { "average_dip": "(50,40,70)", "average_rake": "", "catalog_id": "NAF_109", "catalog_name": "GEM_N_Africa", "dip_dir": "E", "lower_seis_depth": null, "name": "", "net_slip_rate": "", "slip_type": "Normal", "upper_seis_depth": null, "downthrown_side_id": null, "reference": "DEM", "epistemic_quality": "1", "accuracy": "70000", "activity_confidence": "1", "fs_name": "", "last_movement": "", "downthrown_side_dir": "E", "vert_sep_rate": "", "strike_slip_rate": "", "exposure_quality": "1", "shortening_rate": "", "notes": "", "index_right": 161, "NAME_EN": "Egypt" }, "geometry": { "type": "LineString", "coordinates": [ [ 32.263604228357714, 30.071146725356545 ], [ 32.271198289760122, 30.063552663954138 ], [ 32.280244157018885, 30.05975563325293 ], [ 32.303249695973243, 30.05417176457469 ], [ 32.320448011502229, 30.047024412666538 ], [ 32.343006840962332, 30.031836289861722 ], [ 32.356631480537239, 30.015531393321254 ], [ 32.36176863972122, 30.011957717367178 ], [ 32.371596248594926, 30.007267267677456 ], [ 32.392814949572248, 30.001683398999212 ], [ 32.402865913193082, 29.991632435378378 ], [ 32.418947454986423, 29.957905868561795 ], [ 32.422744485687623, 29.942494391009848 ], [ 32.427881644871611, 29.931550008400492 ], [ 32.42520138790605, 29.923955946998085 ], [ 32.426541516388831, 29.916808595089933 ], [ 32.430785256584279, 29.908767824193262 ], [ 32.442399703435022, 29.897600086836778 ], [ 32.448206926860394, 29.883305383020478 ], [ 32.457141116745582, 29.869457388698439 ], [ 32.466075306630771, 29.858736360836215 ], [ 32.473669368033178, 29.85426926589362 ], [ 32.474116077527434, 29.84622849499695 ], [ 32.479029881964287, 29.837741014606024 ] ] } },
{ "type": "Feature", "properties": { "average_dip": "(60,40,70)", "average_rake": "", "catalog_id": "NAF_110", "catalog_name": "GEM_N_Africa", "dip_dir": "N", "lower_seis_depth": null, "name": "", "net_slip_rate": "", "slip_type": "Normal", "upper_seis_depth": null, "downthrown_side_id": null, "reference": "DEM", "epistemic_quality": "1", "accuracy": "90000", "activity_confidence": "1", "fs_name": "", "last_movement": "", "downthrown_side_dir": "N", "vert_sep_rate": "", "strike_slip_rate": "", "exposure_quality": "1", "shortening_rate": "", "notes": "", "index_right": 161, "NAME_EN": "Egypt" }, "geometry": { "type": "LineString", "coordinates": [ [ 32.136850409361614, 30.018658359781067 ], [ 32.155165498626246, 30.018658359781067 ], [ 32.189562129684219, 30.025359002194957 ], [ 32.21234431389145, 30.023572164217921 ], [ 32.227085727202002, 30.024465583206439 ], [ 32.242273850006825, 30.022678745229403 ], [ 32.255675134834604, 30.024465583206439 ], [ 32.273096805110718, 30.034739901574405 ] ] } },
{ "type": "Feature", "properties": { "average_dip": "(50,40,70)", "average_rake": "", "catalog_id": "NAF_111", "catalog_name": "GEM_N_Africa", "dip_dir": "E", "lower_seis_depth": null, "name": "", "net_slip_rate": "", "slip_type": "Normal", "upper_seis_depth": null, "downthrown_side_id": null, "reference": "DEM", "epistemic_quality": "1", "accuracy": "50000", "activity_confidence": "1", "fs_name": "", "last_movement": "", "downthrown_side_dir": "E", "vert_sep_rate": "", "strike_slip_rate": "", "exposure_quality": "1", "shortening_rate": "", "notes": "", "index_right": 161, "NAME_EN": "Egypt" }, "geometry": { "type": "LineString", "coordinates": [ [ 33.638687729061608, 27.357609902478007 ], [ 33.62835757200687, 27.369391865389087 ], [ 33.614956287179091, 27.380559602745571 ], [ 33.604905323558256, 27.39396088757335 ], [ 33.591504038730477, 27.401778303722889 ], [ 33.579889591879734, 27.411159203102336 ], [ 33.574305723201491, 27.420763457228912 ], [ 33.568498499776119, 27.440418674976321 ], [ 33.568275145028991, 27.452033121827064 ], [ 33.573412304212972, 27.469231437356047 ], [ 33.567158371293345, 27.498714263977163 ], [ 33.555097214948347, 27.514349096276248 ], [ 33.541249220626305, 27.524176705149955 ], [ 33.515340069959265, 27.549192436828477 ], [ 33.498365109177406, 27.560360174184961 ], [ 33.487197371820926, 27.573314749518481 ], [ 33.479938342539199, 27.589843000806077 ], [ 33.478598214056419, 27.610056605421313 ], [ 33.47692305345295, 27.613071894507563 ], [ 33.463968478119426, 27.626026469841083 ], [ 33.455145965607805, 27.642778075875807 ], [ 33.450790548038775, 27.645458332841365 ], [ 33.447216872084716, 27.65014878253108 ], [ 33.444759969866297, 27.656849424944973 ], [ 33.426444880601657, 27.670697419267011 ], [ 33.420414302429158, 27.69079934650868 ], [ 33.411256757796842, 27.702637148106554 ], [ 33.381103866934339, 27.731226555739152 ], [ 33.378646964715912, 27.736810424417392 ], [ 33.375966707750351, 27.751998547222218 ], [ 33.37820025522165, 27.763166284578702 ], [ 33.376413417244613, 27.776120859912222 ], [ 33.37149961280776, 27.78371492131463 ], [ 33.367925936853688, 27.788182016257224 ], [ 33.352737814048865, 27.794882658671114 ], [ 33.331742467818678, 27.801583301085007 ], [ 33.321914858944972, 27.81319774793575 ], [ 33.314767507036819, 27.824812194786489 ], [ 33.305609962404503, 27.832852965683156 ], [ 33.297345836760705, 27.84290392930399 ], [ 33.289528420611163, 27.84960457171788 ], [ 33.273000169323574, 27.855635149890382 ], [ 33.264736043679775, 27.867026241993994 ], [ 33.257141982277361, 27.873726884407883 ], [ 33.239720312001246, 27.912590610408451 ], [ 33.226765736667723, 27.918397833833822 ] ] } },
{ "type": "Feature", "properties": { "average_dip": "(50,40,70)", "average_rake": "", "catalog_id": "NAF_112", "catalog_name": "GEM_N_Africa", "dip_dir": "E", "lower_seis_depth": null, "name": "", "net_slip_rate": "", "slip_type": "Normal", "upper_seis_depth": null, "downthrown_side_id": null, "reference": "DEM", "epistemic_quality": "1", "accuracy": "200000", "activity_confidence": "1", "fs_name": "", "last_movement": "", "downthrown_side_dir": "E", "vert_sep_rate": "", "strike_slip_rate": "", "exposure_quality": "1", "shortening_rate": "", "notes": "", "index_right": 161, "NAME_EN": "Egypt" }, "geometry": { "type": "LineString", "coordinates": [ [ 32.619687533969305, 28.54200428781985 ], [ 32.636662494751164, 28.497333338393918 ], [ 32.659891388452643, 28.467850511772802 ], [ 32.666145321372277, 28.457129483910578 ], [ 32.674186092268947, 28.433900590209092 ], [ 32.687587377096726, 28.407098020553534 ], [ 32.720643879671918, 28.352599462253895 ] ] } },
{ "type": "Feature", "properties": { "average_dip": "(50,40,70)", "average_rake": "", "catalog_id": "NAF_113", "catalog_name": "GEM_N_Africa", "dip_dir": "E", "lower_seis_depth": null, "name": "", "net_slip_rate": "", "slip_type": "Normal", "upper_seis_depth": null, "downthrown_side_id": null, "reference": "DEM", "epistemic_quality": "1", "accuracy": "200000", "activity_confidence": "2", "fs_name": "", "last_movement": "", "downthrown_side_dir": "E", "vert_sep_rate": "", "strike_slip_rate": "", "exposure_quality": "1", "shortening_rate": "", "notes": "", "index_right": 161, "NAME_EN": "Egypt" }, "geometry": { "type": "LineString", "coordinates": [ [ 32.829640996271195, 28.242708926666083 ], [ 32.84840279503009, 28.2051853291483 ], [ 32.859123822892315, 28.192677463309039 ], [ 32.878779040639728, 28.174809083538666 ], [ 32.897540839398616, 28.164088055676441 ], [ 32.907368448272322, 28.155153865791252 ], [ 32.927023666019736, 28.142645999951991 ], [ 32.933277598939362, 28.137285486020879 ], [ 32.939531531858997, 28.127457877147176 ], [ 32.940424950847515, 28.114056592319393 ], [ 32.938638112870478, 28.105122402434208 ], [ 32.933277598939362, 28.092614536594947 ], [ 32.935064436916399, 28.082786927721241 ], [ 32.945785464778623, 28.072065899859016 ], [ 32.952932816686776, 28.061344871996795 ], [ 32.963653844549, 28.040796235260864 ], [ 32.9734814534227, 28.012206827628269 ], [ 32.980628805330852, 28.001485799766044 ] ] } },
{ "type": "Feature", "properties": { "average_dip": "(90,,)", "average_rake": "", "catalog_id": "NAF_135", "catalog_name": "GEM_N_Africa", "dip_dir": "", "lower_seis_depth": null, "name": "Kalabsha Fault", "net_slip_rate": "", "slip_type": "Strike-Slip", "upper_seis_depth": null, "downthrown_side_id": null, "reference": "DEM; Mekkawi et al., 2005 EPSL; Kebeasy et al., 1987", "epistemic_quality": "1", "accuracy": "30000", "activity_confidence": "1", "fs_name": "", "last_movement": "", "downthrown_side_dir": "", "vert_sep_rate": "", "strike_slip_rate": "", "exposure_quality": "1", "shortening_rate": "", "notes": "Basement structure that shows mild deformation of Cenozoic sediments above. Thought by Kebeasy to be the host of teh 1981 Aswan earthquake; those papers are unavailable to me but they found evidence fro ground deformation. The Aswan earthquake is widely believed to be from elevated stresses and fluid pressure following the filling of Lake Nasser.", "index_right": 161, "NAME_EN": "Egypt" }, "geometry": { "type": "LineString", "coordinates": [ [ 32.095637066789756, 23.504175872954686 ], [ 32.14954868674905, 23.505502041146197 ], [ 32.171747589085228, 23.502215450410713 ], [ 32.198328612402051, 23.503080342709527 ], [ 32.221277088063871, 23.499966730433801 ], [ 32.263109045583079, 23.502042471950954 ], [ 32.364560912233721, 23.515419472839241 ], [ 32.476074359293904, 23.535888590577795 ], [ 32.571904426002291, 23.541308582317019 ], [ 32.626796257233565, 23.554916221151661 ], [ 32.724356108539567, 23.570830239449805 ] ] } }
]
}
