{
"type": "FeatureCollection",
"name": "faults_tunisia",
"crs": { "type": "name", "properties": { "name": "urn:ogc:def:crs:OGC:1.3:CRS84" } },
"features": [
{ "type": "Feature", "properties": { "average_dip": "(65,45,89)", "average_rake": "", "catalog_id": "NAF_53", "catalog_name": "GEM_N_Africa", "dip_dir": "N", "lower_seis_depth": null, "name": "", "net_slip_rate": "", "slip_type": "Dextral", "upper_seis_depth": null, "downthrown_side_id": null, "reference": "Said et al., 2011 Tectonophysics", "epistemic_quality": "1", "accuracy": "50000", "activity_confidence": "1", "fs_name": "Gafsa Fault", "last_movement": "", "downthrown_side_dir": "N", "vert_sep_rate": "", "strike_slip_rate": "", "exposure_quality": "1", "shortening_rate": "", "notes": "", "index_right": 72, "NAME_EN": "Tunisia" }, "geometry": { "type": "LineString", "coordinates": [ [ 8.398743903082201, 34.64567490406197 ], [ 8.441100033142948, 34.612267252183074 ], [ 8.47122657635517, 34.584825252425404 ], [ 8.48226303277945, 34.57856131769811 ], [ 8.514179271628041, 34.553505578788936 ], [ 8.526110575870506, 34.54187255715253 ], [ 8.529988249749307, 34.535906905031297 ] ] } },
{ "type": "Feature", "properties": { "average_dip": "(65,45,80)", "average_rake": "", "catalog_id": "NAF_54", "catalog_name": "GEM_N_Africa", "dip_dir": "N", "lower_seis_depth": null, "name": "Gafsa Fault", "net_slip_rate": "", "slip_type": "Dextral-Reverse", "upper_seis_depth": null, "downthrown_side_id": null, "reference": "Said et al., 2011 Tectonophysics", "epistemic_quality": "1", "accuracy": "70000", "activity_confidence": "1", "fs_name": "Gafsa Fault", "last_movement": "", "downthrown_side_dir": "S", "vert_sep_rate": "", "strike_slip_rate": "", "exposure_quality": "1", "shortening_rate": "", "notes": "", "index_right": 72, "NAME_EN": "Tunisia" }, "geometry": { "type": "LineString", "coordinates": [ [ 8.50642392387044, 34.562454056970779 ], [ 8.524619162840198, 34.555593557031365 ], [ 8.532971075809922, 34.550522752728313 ], [ 8.560114792961528, 34.538889731091913 ], [ 8.587556792719196, 34.530239535516124 ], [ 8.609629705567754, 34.51472884000092 ], [ 8.6442304878709, 34.481022905515964 ], [ 8.696728226537743, 34.454774036182542 ], [ 8.724468508901472, 34.447615253637061 ], [ 8.750717378234892, 34.434789101576413 ], [ 8.769807465022836, 34.421962949515766 ], [ 8.797249464780503, 34.411224775697548 ], [ 8.816637834174507, 34.40138144969751 ], [ 8.847360942598852, 34.382291362909584 ], [ 8.880172029265628, 34.352463102303425 ] ] } },
{ "type": "Feature", "properties": { "average_dip": "(45,20,65)", "average_rake": "", "catalog_id": "NAF_55", "catalog_name": "GEM_N_Africa", "dip_dir": "S", "lower_seis_depth": null, "name": "Stah Thrust", "net_slip_rate": "", "slip_type": "Reverse", "upper_seis_depth": null, "downthrown_side_id": null, "reference": "Said et al., 2011", "epistemic_quality": "1", "accuracy": "60000", "activity_confidence": "1", "fs_name": "Gafsa Fault", "last_movement": "", "downthrown_side_dir": "N", "vert_sep_rate": "", "strike_slip_rate": "", "exposure_quality": "2", "shortening_rate": "", "notes": "", "index_right": 72, "NAME_EN": "Tunisia" }, "geometry": { "type": "LineString", "coordinates": [ [ 8.504932510840133, 34.410031645273321 ], [ 8.512091293385611, 34.415997297394554 ], [ 8.520443206355337, 34.442842731940097 ], [ 8.534462488840232, 34.460441405697729 ], [ 8.542516119203896, 34.466108775212902 ], [ 8.56011479296153, 34.474162405576564 ], [ 8.568168423325194, 34.475653818606872 ], [ 8.600979509991969, 34.488181688061459 ], [ 8.632299183628438, 34.489971383697828 ] ] } },
{ "type": "Feature", "properties": { "average_dip": "(40,20,70)", "average_rake": "", "catalog_id": "NAF_56", "catalog_name": "GEM_N_Africa", "dip_dir": "S", "lower_seis_depth": null, "name": "Berda Thrust", "net_slip_rate": "", "slip_type": "Reverse", "upper_seis_depth": null, "downthrown_side_id": null, "reference": "Said et al., 2011", "epistemic_quality": "2", "accuracy": "50000", "activity_confidence": "1", "fs_name": "", "last_movement": "", "downthrown_side_dir": "N", "vert_sep_rate": "", "strike_slip_rate": "", "exposure_quality": "2", "shortening_rate": "None", "notes": "Blind", "index_right": 72, "NAME_EN": "Tunisia" }, "geometry": { "type": "LineString", "coordinates": [ [ 9.031401310538861, 34.244186516303067 ], [ 9.005599865114531, 34.239115712000022 ], [ 8.980096702296263, 34.237475157666687 ], [ 8.958023789447704, 34.232404353363634 ], [ 8.93117835490216, 34.21629709263631 ], [ 8.922975583235466, 34.207796038363554 ], [ 8.918948768053635, 34.198847560181704 ], [ 8.910895137689971, 34.193627614575632 ], [ 8.902841507326308, 34.184529995090756 ], [ 8.884646268356549, 34.173791821272538 ], [ 8.873311529326209, 34.16365021266644 ] ] } },
{ "type": "Feature", "properties": { "average_dip": "(30,10,65)", "average_rake": "", "catalog_id": "NAF_57", "catalog_name": "GEM_N_Africa", "dip_dir": "N", "lower_seis_depth": null, "name": "Orbata Thrust", "net_slip_rate": "", "slip_type": "Reverse", "upper_seis_depth": null, "downthrown_side_id": null, "reference": "Said et al., 2011", "epistemic_quality": "1", "accuracy": "50000", "activity_confidence": "1", "fs_name": "Gafsa Fault", "last_movement": "", "downthrown_side_dir": "S", "vert_sep_rate": "", "strike_slip_rate": "", "exposure_quality": "1", "shortening_rate": "(0.2, 0.1, 0.4)", "notes": "", "index_right": 72, "NAME_EN": "Tunisia" }, "geometry": { "type": "LineString", "coordinates": [ [ 8.880768594477749, 34.35097168927313 ], [ 8.911789985508156, 34.350375124061003 ], [ 8.926704115811235, 34.352463102303439 ], [ 8.932669767932467, 34.350076841454943 ], [ 8.96488428938712, 34.345304319757958 ], [ 8.990536593508418, 34.349778558848882 ], [ 9.015890615023656, 34.347690580606454 ], [ 9.034682419205536, 34.342321493697341 ], [ 9.051684527751048, 34.339636950242785 ], [ 9.061229571145017, 34.34172492848522 ], [ 9.092549244781486, 34.35365623272768 ], [ 9.105375396842135, 34.354551080545868 ], [ 9.127150027084632, 34.360815015273161 ], [ 9.156978287690791, 34.356340776182236 ], [ 9.186209983084829, 34.359025319636793 ], [ 9.210669156781881, 34.363499558727717 ], [ 9.227372982721331, 34.368570363030763 ], [ 9.248551047751704, 34.377518841212613 ], [ 9.272115373630571, 34.38109823248535 ], [ 9.296574547327623, 34.391538123697508 ], [ 9.303136764660978, 34.39959175406117 ], [ 9.30731272114584, 34.413909319152125 ], [ 9.316410340630721, 34.421217243000633 ], [ 9.320586297115584, 34.435833090697656 ], [ 9.324762253600447, 34.439561623273427 ], [ 9.332815883964111, 34.442544449334044 ], [ 9.342808351267172, 34.454326612273469 ], [ 9.34429976429748, 34.462976807849259 ], [ 9.341018655630801, 34.471030438212921 ], [ 9.340422090418679, 34.478487503364462 ], [ 9.343703199085356, 34.486242851122064 ], [ 9.350265416418711, 34.483856590273568 ], [ 9.35384480769145, 34.478785785970523 ], [ 9.360407025024806, 34.474311546879598 ], [ 9.366372677146037, 34.471030438212921 ], [ 9.373531459691517, 34.469539025182613 ], [ 9.395604372540076, 34.467749329546244 ], [ 9.407833959388601, 34.468942459970492 ], [ 9.415887589752264, 34.474013264273538 ], [ 9.423941220115926, 34.476697807728094 ], [ 9.443329589509931, 34.475206394697786 ], [ 9.452576350297841, 34.477890938152335 ], [ 9.455260893752396, 34.480277199000831 ], [ 9.463314524116059, 34.480277199000817 ], [ 9.47643895878277, 34.474908112091711 ], [ 9.488668545631297, 34.475504677303832 ], [ 9.502986110722253, 34.473714981667463 ], [ 9.533709219146596, 34.461336253515903 ], [ 9.544298251661784, 34.464915644788647 ], [ 9.559659805873956, 34.467003623031076 ], [ 9.562940914540635, 34.468495036061384 ], [ 9.56771343623762, 34.474908112091704 ], [ 9.589338925177087, 34.474758970788677 ], [ 9.602761642449858, 34.47759265554626 ], [ 9.632888185662077, 34.48847997066752 ], [ 9.645117772510604, 34.495489611909967 ], [ 9.676437446147077, 34.49504218800088 ], [ 9.68986016341985, 34.501604405334234 ], [ 9.702388032874437, 34.505183796606971 ], [ 9.725654076147242, 34.507271774849407 ] ] } },
{ "type": "Feature", "properties": { "average_dip": "(20,10,40)", "average_rake": "", "catalog_id": "NAF_58", "catalog_name": "GEM_N_Africa", "dip_dir": "N", "lower_seis_depth": null, "name": "", "net_slip_rate": "", "slip_type": "Reverse", "upper_seis_depth": null, "downthrown_side_id": null, "reference": "Said et al., 2011", "epistemic_quality": "1", "accuracy": "100000", "activity_confidence": "1", "fs_name": "Chotts Thrust", "last_movement": "", "downthrown_side_dir": "S", "vert_sep_rate": "", "strike_slip_rate": "", "exposure_quality": "2", "shortening_rate": "None", "notes": "Blind", "index_right": 72, "NAME_EN": "Tunisia" }, "geometry": { "type": "LineString", "coordinates": [ [ 7.506133204442849, 33.728455890422559 ], [ 7.547892769291472, 33.721297107877085 ], [ 7.561017203958183, 33.722490238301333 ], [ 7.589652334140097, 33.734421542543792 ], [ 7.604566464443177, 33.737404368604409 ], [ 7.623059986018997, 33.745159716362011 ], [ 7.634991290261461, 33.748142542422627 ], [ 7.646922594503925, 33.755301324968109 ], [ 7.654677942261527, 33.764846368362079 ], [ 7.673171463837346, 33.778567368240914 ], [ 7.690471854988919, 33.795271194180359 ], [ 7.715527593898094, 33.816150976604675 ], [ 7.725669202504188, 33.822116628725908 ], [ 7.734617680686037, 33.842996411150217 ], [ 7.739986767595146, 33.847172367635082 ], [ 7.744162724080009, 33.847768932847202 ] ] } },
{ "type": "Feature", "properties": { "average_dip": "(20,10,50)", "average_rake": "", "catalog_id": "NAF_59", "catalog_name": "GEM_N_Africa", "dip_dir": "N", "lower_seis_depth": null, "name": "", "net_slip_rate": "", "slip_type": "Reverse", "upper_seis_depth": null, "downthrown_side_id": null, "reference": "Said et al., 2011 Tectonophysics", "epistemic_quality": "1", "accuracy": "50000", "activity_confidence": "1", "fs_name": "Chotts Thrust", "last_movement": "", "downthrown_side_dir": "S", "vert_sep_rate": "", "strike_slip_rate": "", "exposure_quality": "1", "shortening_rate": "None", "notes": "blind", "index_right": 72, "NAME_EN": "Tunisia" }, "geometry": { "type": "LineString", "coordinates": [ [ 7.626341094685674, 33.828380563453194 ], [ 7.671083485594915, 33.844189541574458 ], [ 7.683611355049503, 33.85134832411994 ], [ 7.713439615655663, 33.848365498059323 ], [ 7.737003941534529, 33.849260345877504 ], [ 7.768025332564936, 33.858507106665414 ], [ 7.796362180140789, 33.872526389150309 ], [ 7.808890049595376, 33.872824671756369 ], [ 7.887338374989578, 33.864472758786647 ], [ 7.944012070141282, 33.861788215332112 ], [ 7.992632134929323, 33.867157302241218 ], [ 8.051095525717397, 33.876702345635188 ], [ 8.089275699293282, 33.886247389029158 ], [ 8.119700525111565, 33.897582128059497 ], [ 8.127157590263105, 33.90354778018073 ], [ 8.144457981414678, 33.928603519089904 ], [ 8.177269068081454, 33.944412497211168 ], [ 8.207395611293677, 33.954255823211213 ] ] } },
{ "type": "Feature", "properties": { "average_dip": "(20,10,50)", "average_rake": "", "catalog_id": "NAF_60", "catalog_name": "GEM_N_Africa", "dip_dir": "N", "lower_seis_depth": null, "name": "Chotts Thrust", "net_slip_rate": "", "slip_type": "Reverse", "upper_seis_depth": null, "downthrown_side_id": null, "reference": "Said et al., 2011", "epistemic_quality": "1", "accuracy": "50000", "activity_confidence": "1", "fs_name": "Chotts Thrust", "last_movement": "", "downthrown_side_dir": "S", "vert_sep_rate": "", "strike_slip_rate": "", "exposure_quality": "1", "shortening_rate": "(0.1, 0.05, 0.2)", "notes": "", "index_right": 72, "NAME_EN": "Tunisia" }, "geometry": { "type": "LineString", "coordinates": [ [ 8.174882807232963, 33.981399540362816 ], [ 8.191586633172413, 33.980206409938575 ], [ 8.199938546142139, 33.982592670787064 ], [ 8.210080154748233, 33.986172062059808 ], [ 8.231556502384668, 33.999296496726515 ], [ 8.25601567608172, 34.010034670544734 ], [ 8.273316067233294, 34.01301749660535 ], [ 8.299564936566714, 34.023755670423569 ], [ 8.304934023475827, 34.028975616029641 ], [ 8.30925912126372, 34.030914452969043 ], [ 8.335060566688048, 34.037178387696336 ], [ 8.364292262082085, 34.041205202878167 ], [ 8.382189218445781, 34.048662268029709 ], [ 8.396208500930676, 34.057610746211559 ], [ 8.45810214168846, 34.0650678113631 ], [ 8.488079543597649, 34.066111800484308 ], [ 8.518355228112902, 34.064322104847939 ], [ 8.544902380052386, 34.059847865757014 ], [ 8.573090086325207, 34.060444430969142 ], [ 8.626780955416294, 34.067752354817642 ], [ 8.638115694446634, 34.064620387453999 ], [ 8.641695085719375, 34.061488420090349 ], [ 8.653477248658808, 34.058953017938826 ], [ 8.686884900537708, 34.055821050575183 ], [ 8.713133769871128, 34.050750246272131 ], [ 8.730434161022702, 34.050004539756976 ], [ 8.747734552174276, 34.052092517999412 ], [ 8.766526356356154, 34.059997007060041 ], [ 8.771597160659201, 34.063576398332778 ], [ 8.785616443144097, 34.068348920029763 ], [ 8.795758051750191, 34.069542050454011 ], [ 8.806496225568408, 34.069243767847944 ], [ 8.822006921083611, 34.066260941787334 ], [ 8.847957507810971, 34.066559224393394 ], [ 8.898367268235383, 34.058803876635793 ], [ 8.926704115811235, 34.059400441847913 ], [ 8.941319963508253, 34.055224485363048 ], [ 8.969955093690169, 34.052241659302439 ], [ 8.989641745690236, 34.05313650712062 ], [ 9.013206071569101, 34.059400441847913 ], [ 9.032296158357044, 34.068348920029763 ] ] } },
{ "type": "Feature", "properties": { "average_dip": "(20,10,50)", "average_rake": "", "catalog_id": "NAF_63", "catalog_name": "GEM_N_Africa", "dip_dir": "N", "lower_seis_depth": null, "name": "", "net_slip_rate": "", "slip_type": "Reverse", "upper_seis_depth": null, "downthrown_side_id": null, "reference": "DEM", "epistemic_quality": "2", "accuracy": "30000", "activity_confidence": "2", "fs_name": "", "last_movement": "", "downthrown_side_dir": "S", "vert_sep_rate": "", "strike_slip_rate": "", "exposure_quality": "2", "shortening_rate": "(0.1, 0.01, 0.2)", "notes": "", "index_right": 72, "NAME_EN": "Tunisia" }, "geometry": { "type": "LineString", "coordinates": [ [ 7.622314279503846, 34.40854023224302 ], [ 7.642448355413004, 34.40242543881876 ], [ 7.662880713928224, 34.391687265000542 ], [ 7.66504326282217, 34.389002721545985 ], [ 7.67332060514038, 34.386094466136882 ], [ 7.69196326801923, 34.38698931395507 ], [ 7.731038289413299, 34.383559063985359 ], [ 7.764893365201291, 34.382515074864138 ], [ 7.799345006201407, 34.385945324833848 ], [ 7.802476973565052, 34.388182444379311 ], [ 7.809039190898408, 34.389077292197499 ], [ 7.826488723353012, 34.38758587916719 ], [ 7.836481190656075, 34.389822998712653 ] ] } },
{ "type": "Feature", "properties": { "average_dip": "(20,10,50)", "average_rake": "", "catalog_id": "NAF_64", "catalog_name": "GEM_N_Africa", "dip_dir": "N", "lower_seis_depth": null, "name": "El Guentass Thrust", "net_slip_rate": "", "slip_type": "Reverse", "upper_seis_depth": null, "downthrown_side_id": null, "reference": "DEM", "epistemic_quality": "1", "accuracy": "30000", "activity_confidence": "1", "fs_name": "El Guentass Thrust", "last_movement": "", "downthrown_side_dir": "S", "vert_sep_rate": "", "strike_slip_rate": "", "exposure_quality": "1", "shortening_rate": "(0.1, 0.01, 0.2)", "notes": "", "index_right": 72, "NAME_EN": "Tunisia" }, "geometry": { "type": "LineString", "coordinates": [ [ 7.68107595289798, 34.373268314076242 ], [ 7.68674332241315, 34.369092357591377 ], [ 7.702254017928354, 34.363126705470144 ], [ 7.717764713443557, 34.360889585924681 ], [ 7.736407376322408, 34.360889585924681 ], [ 7.762805386958859, 34.364170694591365 ], [ 7.826637864656043, 34.363574129379238 ], [ 7.837226897171229, 34.36521468371258 ], [ 7.87205139142892, 34.358652466379219 ], [ 7.884952114141084, 34.357832189212552 ], [ 7.889202641277462, 34.356415346833757 ], [ 7.901283086822957, 34.34731772734888 ], [ 7.915376939959368, 34.332105314439737 ], [ 7.928948798535171, 34.324648249288195 ], [ 7.96235645041407, 34.311672955924514 ], [ 7.991513575156593, 34.310032401591172 ], [ 8.002624602232387, 34.31144924396996 ], [ 8.023206102050638, 34.318757167818468 ], [ 8.046323004020412, 34.324051684076068 ], [ 8.060305001179552, 34.325654953083657 ], [ 8.101579856793323, 34.322821268326074 ], [ 8.146918812914688, 34.322224703113953 ], [ 8.189424084278466, 34.326698942204871 ], [ 8.212690127551271, 34.326698942204871 ], [ 8.238789855581663, 34.330800328038208 ], [ 8.277119170460578, 34.329830909568507 ], [ 8.297924382233376, 34.33266459432609 ], [ 8.33416571886986, 34.334006866053372 ], [ 8.366678522930574, 34.348026148538267 ], [ 8.385172044506394, 34.352500387629192 ], [ 8.412315761658, 34.354588365871628 ] ] } },
{ "type": "Feature", "properties": { "average_dip": "(50,40,60)", "average_rake": "", "catalog_id": "NAF_77", "catalog_name": "GEM_N_Africa", "dip_dir": "SW", "lower_seis_depth": null, "name": "Khmouda Fault", "net_slip_rate": "", "slip_type": "Normal", "upper_seis_depth": null, "downthrown_side_id": null, "reference": "DEM", "epistemic_quality": "2", "accuracy": "50000", "activity_confidence": "1", "fs_name": "Kasserine Graben", "last_movement": "", "downthrown_side_dir": "SW", "vert_sep_rate": "", "strike_slip_rate": "", "exposure_quality": "1", "shortening_rate": "", "notes": "Neogene? graben. Looks active, but slow.", "index_right": 72, "NAME_EN": "Tunisia" }, "geometry": { "type": "LineString", "coordinates": [ [ 8.606353929299061, 35.397100070127202 ], [ 8.607733966420669, 35.394857509804588 ], [ 8.649997603269881, 35.376572017943296 ], [ 8.672250701855791, 35.369844336975461 ], [ 8.713134301583397, 35.343106117744327 ], [ 8.726417158878863, 35.324303111962429 ], [ 8.727279682079867, 35.317920440275003 ], [ 8.72952224240248, 35.314297842830783 ], [ 8.737112446571317, 35.307225152582546 ], [ 8.744357641459754, 35.294114799927279 ], [ 8.750222799226583, 35.272551719902175 ], [ 8.749877789946181, 35.26133891828912 ], [ 8.752810368829596, 35.250298621316261 ], [ 8.758158012675823, 35.240810866105214 ] ] } },
{ "type": "Feature", "properties": { "average_dip": "(50,40,60)", "average_rake": "", "catalog_id": "NAF_78", "catalog_name": "GEM_N_Africa", "dip_dir": "NE", "lower_seis_depth": null, "name": "Jebel Ech Chambi Fault", "net_slip_rate": "", "slip_type": "Normal", "upper_seis_depth": null, "downthrown_side_id": null, "reference": "DEM", "epistemic_quality": "1", "accuracy": "30000", "activity_confidence": "1", "fs_name": "Kasserine Graben", "last_movement": "", "downthrown_side_dir": "NE", "vert_sep_rate": "", "strike_slip_rate": "", "exposure_quality": "1", "shortening_rate": "", "notes": "", "index_right": 72, "NAME_EN": "Tunisia" }, "geometry": { "type": "LineString", "coordinates": [ [ 8.702956527811546, 35.247193537792654 ], [ 8.724002093916051, 35.233738175856985 ], [ 8.732454821285893, 35.226837990248953 ], [ 8.737112446571317, 35.220800327841921 ], [ 8.763333151881849, 35.202687340620827 ], [ 8.766610740045664, 35.197339696774598 ], [ 8.772303393172294, 35.193544594690181 ] ] } },
{ "type": "Feature", "properties": { "average_dip": "(50,40,80)", "average_rake": "", "catalog_id": "NAF_79", "catalog_name": "GEM_N_Africa", "dip_dir": "N", "lower_seis_depth": null, "name": "Kasserine Fault", "net_slip_rate": "", "slip_type": "Dextral-Normal", "upper_seis_depth": null, "downthrown_side_id": null, "reference": "DEM", "epistemic_quality": "1", "accuracy": "50000", "activity_confidence": "1", "fs_name": "Kasserine Graben", "last_movement": "", "downthrown_side_dir": "N", "vert_sep_rate": "", "strike_slip_rate": "", "exposure_quality": "1", "shortening_rate": "", "notes": "", "index_right": 72, "NAME_EN": "Tunisia" }, "geometry": { "type": "LineString", "coordinates": [ [ 8.734352372328102, 35.195097136452006 ], [ 8.748152743544171, 35.186126895161564 ], [ 8.764540684363253, 35.183108063958031 ], [ 8.786103764388361, 35.172412776265581 ], [ 8.80973690009588, 35.166030104578148 ], [ 8.878911260816427, 35.156369844726896 ], [ 8.92945512039528, 35.153092256563092 ], [ 8.996904434713819, 35.144294519912847 ], [ 9.032612895235397, 35.132219195098791 ], [ 9.081086699131841, 35.12411147700935 ] ] } },
{ "type": "Feature", "properties": { "average_dip": "(50,40,70)", "average_rake": "", "catalog_id": "NAF_80", "catalog_name": "GEM_N_Africa", "dip_dir": "NE", "lower_seis_depth": null, "name": "", "net_slip_rate": "", "slip_type": "Dextral-Normal", "upper_seis_depth": null, "downthrown_side_id": null, "reference": "DEM", "epistemic_quality": "2", "accuracy": "50000", "activity_confidence": "2", "fs_name": "Kasserine Graben", "last_movement": "", "downthrown_side_dir": "NE", "vert_sep_rate": "", "strike_slip_rate": "", "exposure_quality": "2", "shortening_rate": "", "notes": "", "index_right": 72, "NAME_EN": "Tunisia" }, "geometry": { "type": "LineString", "coordinates": [ [ 8.470420272820782, 35.323699345721757 ], [ 8.476630439868012, 35.311969030188095 ], [ 8.488360755401672, 35.295408584728811 ], [ 8.50009107093533, 35.29092346408359 ], [ 8.507681275104169, 35.284713297036362 ], [ 8.531141906171486, 35.272292962941897 ], [ 8.541837193863939, 35.264012740212252 ], [ 8.568747917735275, 35.249177341154983 ], [ 8.585998381755362, 35.23710201634092 ], [ 8.590138493120183, 35.232616895695699 ], [ 8.60359385505585, 35.226406728648463 ], [ 8.619464281954329, 35.225026691526857 ], [ 8.647755042947271, 35.21709147807762 ] ] } },
{ "type": "Feature", "properties": { "average_dip": "(50,40,70)", "average_rake": "", "catalog_id": "NAF_82", "catalog_name": "GEM_N_Africa", "dip_dir": "W", "lower_seis_depth": null, "name": "", "net_slip_rate": "", "slip_type": "Normal", "upper_seis_depth": null, "downthrown_side_id": null, "reference": "DEM", "epistemic_quality": "2", "accuracy": "30000", "activity_confidence": "2", "fs_name": "Sabibah Graben", "last_movement": "", "downthrown_side_dir": "W", "vert_sep_rate": "", "strike_slip_rate": "", "exposure_quality": "2", "shortening_rate": "", "notes": "", "index_right": 72, "NAME_EN": "Tunisia" }, "geometry": { "type": "LineString", "coordinates": [ [ 9.040893117965039, 35.781009146894235 ], [ 9.046240761811266, 35.765138719995754 ], [ 9.053140947419299, 35.751855862700289 ], [ 9.067631337196172, 35.735985435801808 ], [ 9.071426439280591, 35.727532708431966 ], [ 9.072288962481595, 35.721150036744532 ], [ 9.077464101687623, 35.714767365057099 ], [ 9.080396680571036, 35.707867179449067 ], [ 9.108514936923775, 35.680611446297334 ], [ 9.1134313191695, 35.660945917314436 ], [ 9.118088944454923, 35.650336881942081 ], [ 9.118261449095124, 35.64723179841846 ], [ 9.112741300608697, 35.64516174273605 ], [ 9.114293842370504, 35.637399033927011 ], [ 9.12119402797854, 35.624116176631546 ], [ 9.127749204306172, 35.616525972462711 ], [ 9.141549575522241, 35.589615248591379 ], [ 9.152244863214694, 35.580645007300937 ] ] } },
{ "type": "Feature", "properties": { "average_dip": "(50,40,70)", "average_rake": "", "catalog_id": "NAF_83", "catalog_name": "GEM_N_Africa", "dip_dir": "E", "lower_seis_depth": null, "name": "", "net_slip_rate": "", "slip_type": "Normal", "upper_seis_depth": null, "downthrown_side_id": null, "reference": "DEM", "epistemic_quality": "2", "accuracy": "70000", "activity_confidence": "2", "fs_name": "Sabibah Graben", "last_movement": "", "downthrown_side_dir": "E", "vert_sep_rate": "", "strike_slip_rate": "", "exposure_quality": "2", "shortening_rate": "", "notes": "Maybe active... Was certainly active in Neogene, but Quaternary activity uncertain.", "index_right": 72, "NAME_EN": "Tunisia" }, "geometry": { "type": "LineString", "coordinates": [ [ 8.999060742716326, 35.667242336681767 ], [ 9.010446048969584, 35.655857030428514 ], [ 9.026316475868063, 35.634466455043608 ], [ 9.022521373783643, 35.591685304273788 ], [ 9.027006494428866, 35.57201977529089 ], [ 9.025281448026858, 35.559944450476834 ], [ 9.031491615074088, 35.545799069980362 ], [ 9.037011763560516, 35.537863856531118 ], [ 9.043911949168551, 35.531653689483889 ], [ 9.060817403908237, 35.504397956332156 ], [ 9.073237738002698, 35.496462742882912 ], [ 9.091178220583588, 35.479557288143226 ] ] } },
{ "type": "Feature", "properties": { "average_dip": "(50,30,70)", "average_rake": "", "catalog_id": "NAF_84", "catalog_name": "GEM_N_Africa", "dip_dir": "W", "lower_seis_depth": null, "name": "N-S Axial Fault", "net_slip_rate": "", "slip_type": "Sinistral-Reverse", "upper_seis_depth": null, "downthrown_side_id": null, "reference": "Soumaya et al., 2015 Tectonics", "epistemic_quality": "1", "accuracy": "200000", "activity_confidence": "1", "fs_name": "N-S Axial Fault", "last_movement": "", "downthrown_side_dir": "E", "vert_sep_rate": "", "strike_slip_rate": "", "exposure_quality": "2", "shortening_rate": "", "notes": "Blind oblique-reverse (?) fault under major regional fold. A fair amount of associated seismicity, but it looks like an inverted (or reactivated) basement structure.  It's in a lot of papers but no good surface break.", "index_right": 72, "NAME_EN": "Tunisia" }, "geometry": { "type": "LineString", "coordinates": [ [ 10.136901349481237, 36.380031509991767 ], [ 10.077559753252139, 36.338630396343554 ], [ 10.043058825211967, 36.301369394060167 ], [ 10.009937934293401, 36.273768651628032 ], [ 9.990617414590904, 36.247547946317496 ], [ 9.954736449429124, 36.20614683266929 ], [ 9.936795966848234, 36.168885830385904 ], [ 9.913335335780916, 36.137144976588942 ], [ 9.89849993672364, 36.113339336241225 ], [ 9.882974519105563, 36.094018816538728 ], [ 9.853648730271416, 36.061932953461366 ], [ 9.838468321933739, 36.041232396637263 ], [ 9.822942904315662, 36.008801524279505 ], [ 9.801552328930754, 35.958085160060456 ], [ 9.787751957714685, 35.930484417628314 ], [ 9.762911289525761, 35.885633211176092 ], [ 9.747730881188083, 35.861482561547973 ], [ 9.730480417167998, 35.826291614946996 ], [ 9.720130138755945, 35.787650575542003 ], [ 9.718750101634338, 35.751769610380222 ], [ 9.70908984178309, 35.693808051272718 ] ] } },
{ "type": "Feature", "properties": { "average_dip": "(60,40,80)", "average_rake": "", "catalog_id": "NAF_85", "catalog_name": "GEM_N_Africa", "dip_dir": "W", "lower_seis_depth": null, "name": "N-S Axial Fault", "net_slip_rate": "", "slip_type": "Sinistral-Reverse", "upper_seis_depth": null, "downthrown_side_id": null, "reference": "Soumaya et al., 2015", "epistemic_quality": "1", "accuracy": "250000", "activity_confidence": "1", "fs_name": "N-S Axial Fault", "last_movement": "", "downthrown_side_dir": "E", "vert_sep_rate": "", "strike_slip_rate": "", "exposure_quality": "2", "shortening_rate": "", "notes": "Blind reverse-oblique (?) fault below well-defined anticline. Lots of associated moderate seismicity but kinematics and geometry a little unclear.", "index_right": 72, "NAME_EN": "Tunisia" }, "geometry": { "type": "LineString", "coordinates": [ [ 9.749800936870495, 35.468171981889995 ], [ 9.711159897465501, 35.432291016728215 ], [ 9.705639748979074, 35.415730571268931 ], [ 9.702879674735859, 35.399170125809647 ], [ 9.701499637614253, 35.360529086404654 ], [ 9.704259711857466, 35.337068455337338 ], [ 9.704259711857466, 35.316367898513235 ], [ 9.698739563371038, 35.261166413648958 ], [ 9.690459340641397, 35.2101050401495 ], [ 9.694599452006218, 35.157663629528436 ], [ 9.686319229276576, 35.132822961339514 ], [ 9.672518858060506, 35.105222218907372 ], [ 9.666998709574079, 35.059680993894347 ], [ 9.665618672452473, 35.023800028732566 ], [ 9.661478561087652, 34.989299100692392 ], [ 9.655958412601224, 34.967218506746683 ], [ 9.654578375479618, 34.936857690071328 ], [ 9.639397967141941, 34.898216650666335 ], [ 9.618697410317838, 34.858195574139735 ], [ 9.61317726183141, 34.785053606694568 ], [ 9.603517001980162, 34.738132344559936 ], [ 9.597996853493733, 34.725712010465472 ] ] } }
]
}
