{
"type": "FeatureCollection",
"name": "faults_el_salvador",
"crs": { "type": "name", "properties": { "name": "urn:ogc:def:crs:OGC:1.3:CRS84" } },
"features": [
{ "type": "Feature", "properties": { "average_dip": "(50,40,70)", "average_rake": null, "catalog_id": "CA_44.0", "catalog_name": "GEM_Central_Am_Carib", "dip_dir": "W", "lower_seis_depth": null, "name": "Metapan Fault", "net_slip_rate": null, "slip_type": "Normal", "upper_seis_depth": null, "downthrown_side_id": null, "reference": "Guzman-Speziale", "epistemic_quality": "2", "accuracy": "100000", "activity_confidence": null, "fs_name": "Ipala Graben", "last_movement": null, "downthrown_side_dir": "W", "vert_sep_rate": null, "strike_slip_rate": null, "exposure_quality": "2", "shortening_rate": "None", "notes": null, "index_right": 116, "NAME_EN": "El Salvador" }, "geometry": { "type": "LineString", "coordinates": [ [ -89.456416327340818, 14.493893383651672 ], [ -89.45926853248352, 14.474878682700318 ], [ -89.455465592293251, 14.459191554415453 ], [ -89.456891694864595, 14.43875075089275 ], [ -89.43787699391325, 14.412605537084639 ], [ -89.437401626389459, 14.40404892165653 ], [ -89.430746481056502, 14.380993596753015 ], [ -89.389864874011096, 14.33678441704112 ], [ -89.380357523535423, 14.320621921232471 ], [ -89.368473335440825, 14.304934792947606 ], [ -89.3660964978219, 14.298279647614631 ], [ -89.356589147346227, 14.290198399710306 ], [ -89.356113779822451, 14.28069104923463 ], [ -89.347081796870555, 14.265479288473548 ] ] } },
{ "type": "Feature", "properties": { "average_dip": "(50,40,70)", "average_rake": null, "catalog_id": "CA_45.0", "catalog_name": "GEM_Central_Am_Carib", "dip_dir": "W", "lower_seis_depth": null, "name": "Ocotepeque Fault", "net_slip_rate": null, "slip_type": "Normal", "upper_seis_depth": null, "downthrown_side_id": null, "reference": "Guzman-Speziale 2001", "epistemic_quality": "2", "accuracy": "100000", "activity_confidence": null, "fs_name": "Esquipulas Graben", "last_movement": null, "downthrown_side_dir": "W", "vert_sep_rate": null, "strike_slip_rate": null, "exposure_quality": "2", "shortening_rate": "None", "notes": null, "index_right": 116, "NAME_EN": "El Salvador" }, "geometry": { "type": "LineString", "coordinates": [ [ -89.290513061540253, 14.633413751882223 ], [ -89.295266736778089, 14.609170008169247 ], [ -89.292889899159178, 14.59823655512222 ], [ -89.28718548887376, 14.588729204646544 ], [ -89.273399830684042, 14.577320384075733 ], [ -89.26579395030349, 14.57446817893303 ], [ -89.25533586478025, 14.567813033600057 ], [ -89.248205351923488, 14.560207153219515 ], [ -89.231567488591054, 14.537389512077892 ], [ -89.227289180877008, 14.522653118840594 ], [ -89.222535505639172, 14.516473341031405 ], [ -89.213028155163485, 14.511719665793567 ], [ -89.19401345421214, 14.50601525550816 ], [ -89.186407573831602, 14.493655699889782 ], [ -89.1835553686889, 14.478443939128701 ], [ -89.1835553686889, 14.467985853605455 ], [ -89.172621915641869, 14.447545050082752 ], [ -89.170720445546735, 14.43993916970221 ], [ -89.172146548118079, 14.423301306369778 ], [ -89.174523385737004, 14.419498366179507 ], [ -89.175474120784571, 14.412843220846534 ], [ -89.171671180594302, 14.385271904467073 ], [ -89.171908864356169, 14.362216579563556 ], [ -89.167392872880228, 14.349143972659501 ], [ -89.167155189118333, 14.330842322993824 ], [ -89.148853539452659, 14.30398405790004 ], [ -89.144337547976704, 14.293050604853011 ], [ -89.146239018071853, 14.28520704071058 ], [ -89.141960710357793, 14.276175057758687 ] ] } },
{ "type": "Feature", "properties": { "average_dip": "50,70,40)", "average_rake": "(90,,)", "catalog_id": "CA_71.0", "catalog_name": "GEM_Central_Am_Carib", "dip_dir": "E", "lower_seis_depth": null, "name": "El Tigre Fault", "net_slip_rate": null, "slip_type": "Normal", "upper_seis_depth": null, "downthrown_side_id": null, "reference": "Staller et al., 2016", "epistemic_quality": "2", "accuracy": "100000", "activity_confidence": "1", "fs_name": null, "last_movement": null, "downthrown_side_dir": "E", "vert_sep_rate": null, "strike_slip_rate": null, "exposure_quality": "2", "shortening_rate": "None", "notes": null, "index_right": 116, "NAME_EN": "El Salvador" }, "geometry": { "type": "LineString", "coordinates": [ [ -89.897773242556667, 14.021980519536527 ], [ -89.894580698838325, 14.011666147523425 ], [ -89.898509983414741, 14.003807578370585 ], [ -89.919875468299026, 13.974583524333461 ], [ -89.92208569087326, 13.955182681737385 ], [ -89.924295913447494, 13.952726878877124 ] ] } },
{ "type": "Feature", "properties": { "average_dip": "(50,40,70)", "average_rake": "(90,,)", "catalog_id": "CA_72.0", "catalog_name": "GEM_Central_Am_Carib", "dip_dir": "E", "lower_seis_depth": null, "name": "Las Chinamas Fault", "net_slip_rate": null, "slip_type": "Normal", "upper_seis_depth": null, "downthrown_side_id": null, "reference": "Staller et al.., 2016", "epistemic_quality": "2", "accuracy": "100000", "activity_confidence": "1", "fs_name": null, "last_movement": null, "downthrown_side_dir": "E", "vert_sep_rate": null, "strike_slip_rate": null, "exposure_quality": "2", "shortening_rate": "None", "notes": null, "index_right": 116, "NAME_EN": "El Salvador" }, "geometry": { "type": "LineString", "coordinates": [ [ -89.881319363392905, 14.023454001252686 ], [ -89.882792845109066, 14.012402888381503 ], [ -89.880337042248797, 14.004789899514689 ], [ -89.880828202820851, 13.999141552936086 ], [ -89.902439267991156, 13.970163079184987 ] ] } },
{ "type": "Feature", "properties": { "average_dip": "(50,40,70)", "average_rake": "(90,,)", "catalog_id": "CA_73.0", "catalog_name": "GEM_Central_Am_Carib", "dip_dir": "E", "lower_seis_depth": null, "name": "Palo Pique Fault", "net_slip_rate": null, "slip_type": "Normal", "upper_seis_depth": null, "downthrown_side_id": null, "reference": "Staller et al., 2016", "epistemic_quality": "2", "accuracy": "100000", "activity_confidence": "1", "fs_name": null, "last_movement": null, "downthrown_side_dir": "E", "vert_sep_rate": null, "strike_slip_rate": null, "exposure_quality": "2", "shortening_rate": "None", "notes": null, "index_right": 116, "NAME_EN": "El Salvador" }, "geometry": { "type": "LineString", "coordinates": [ [ -89.895655112589679, 13.896059227876563 ], [ -89.894672791445572, 13.907355921033771 ], [ -89.897865335163914, 13.916687971902768 ], [ -89.89712859430584, 13.921353997337267 ], [ -89.899093236594055, 13.925037701627661 ], [ -89.898847656308021, 13.928475825632029 ], [ -89.881657036286185, 13.956471978239021 ], [ -89.879937974284005, 13.968014251682256 ], [ -89.877236591137716, 13.973908178546885 ], [ -89.867167799410637, 13.98545045199012 ] ] } },
{ "type": "Feature", "properties": { "average_dip": "(50,40,70)", "average_rake": "(90,,)", "catalog_id": "CA_74.0", "catalog_name": "GEM_Central_Am_Carib", "dip_dir": "E", "lower_seis_depth": null, "name": "El Espino Fault", "net_slip_rate": null, "slip_type": "Normal", "upper_seis_depth": null, "downthrown_side_id": null, "reference": "Staller et al., 2016", "epistemic_quality": "2", "accuracy": "100000", "activity_confidence": "1", "fs_name": null, "last_movement": null, "downthrown_side_dir": "E", "vert_sep_rate": null, "strike_slip_rate": null, "exposure_quality": "2", "shortening_rate": "None", "notes": null, "index_right": 116, "NAME_EN": "El Salvador" }, "geometry": { "type": "LineString", "coordinates": [ [ -89.852924142821109, 14.006815936874405 ], [ -89.857590168255612, 13.999448528293616 ], [ -89.860045971115881, 13.991098798568723 ], [ -89.859800390829847, 13.981766747699726 ], [ -89.858081328827666, 13.977346302551254 ], [ -89.861765033118061, 13.962365905103653 ], [ -89.872816145989248, 13.946157606225919 ], [ -89.878464492567844, 13.932650690494475 ], [ -89.878464492567844, 13.914968909900585 ], [ -89.875763109421555, 13.8936034250163 ] ] } },
{ "type": "Feature", "properties": { "average_dip": "(50,40,70)", "average_rake": "(90,,)", "catalog_id": "CA_75.0", "catalog_name": "GEM_Central_Am_Carib", "dip_dir": "E", "lower_seis_depth": null, "name": "Ahuachapan Fault", "net_slip_rate": null, "slip_type": "Normal", "upper_seis_depth": null, "downthrown_side_id": null, "reference": "Staller et al., 2016", "epistemic_quality": "2", "accuracy": "100000", "activity_confidence": "1", "fs_name": null, "last_movement": null, "downthrown_side_dir": "E", "vert_sep_rate": null, "strike_slip_rate": null, "exposure_quality": "2", "shortening_rate": "None", "notes": null, "index_right": 116, "NAME_EN": "El Salvador" }, "geometry": { "type": "LineString", "coordinates": [ [ -89.825173570500155, 14.007798258018509 ], [ -89.826401471930282, 13.991589959140777 ], [ -89.833277719939019, 13.974644919404964 ], [ -89.844083252524172, 13.95991010224339 ], [ -89.847766956814567, 13.947876668228103 ], [ -89.872570565703214, 13.914477749328531 ], [ -89.873061726275267, 13.898269450450799 ] ] } },
{ "type": "Feature", "properties": { "average_dip": "(50,40,70)", "average_rake": "(90,,)", "catalog_id": "CA_76.0", "catalog_name": "GEM_Central_Am_Carib", "dip_dir": "E", "lower_seis_depth": null, "name": "Ashapuco Fault", "net_slip_rate": null, "slip_type": "Normal", "upper_seis_depth": null, "downthrown_side_id": null, "reference": "Staller et al., 2016", "epistemic_quality": "2", "accuracy": "100000", "activity_confidence": "1", "fs_name": null, "last_movement": null, "downthrown_side_dir": "E", "vert_sep_rate": null, "strike_slip_rate": null, "exposure_quality": "2", "shortening_rate": "None", "notes": null, "index_right": 116, "NAME_EN": "El Salvador" }, "geometry": { "type": "LineString", "coordinates": [ [ -89.848749277958632, 13.912021946468267 ], [ -89.840153967947714, 13.921108417051238 ], [ -89.830576336792689, 13.935106493354736 ], [ -89.823208928211912, 13.950086890802337 ], [ -89.820753125351644, 13.97022447425649 ], [ -89.817806161919336, 13.972189116544699 ], [ -89.817560581633302, 13.986187192848197 ], [ -89.814613618200994, 13.991098798568721 ], [ -89.813385716770853, 14.00755267773248 ], [ -89.809210851908404, 14.019094951175715 ] ] } },
{ "type": "Feature", "properties": { "average_dip": "(50,40,70)", "average_rake": "(-90,,)", "catalog_id": "CA_89.0", "catalog_name": "GEM_Central_Am_Carib", "dip_dir": "E", "lower_seis_depth": null, "name": "San Vicente Fault", "net_slip_rate": null, "slip_type": "Normal", "upper_seis_depth": null, "downthrown_side_id": null, "reference": "Staller et al., 2016", "epistemic_quality": "2", "accuracy": "100000", "activity_confidence": null, "fs_name": null, "last_movement": null, "downthrown_side_dir": "E", "vert_sep_rate": null, "strike_slip_rate": null, "exposure_quality": "2", "shortening_rate": "None", "notes": null, "index_right": 116, "NAME_EN": "El Salvador" }, "geometry": { "type": "LineString", "coordinates": [ [ -89.668094280049345, 14.25786038426466 ], [ -89.671532404053707, 14.248528333395662 ], [ -89.66416499547293, 14.207762005915304 ], [ -89.664656156044984, 14.183695137884731 ], [ -89.662691513756769, 14.140964168116161 ], [ -89.654341784031871, 14.111985694365064 ], [ -89.646974375451094, 14.045679017137974 ], [ -89.648447857167241, 14.018174025103034 ] ] } },
{ "type": "Feature", "properties": { "average_dip": "(50,40,70)", "average_rake": "(-90,,)", "catalog_id": "CA_90.0", "catalog_name": "GEM_Central_Am_Carib", "dip_dir": "E", "lower_seis_depth": null, "name": "Santa Ana Fault", "net_slip_rate": null, "slip_type": "Normal", "upper_seis_depth": null, "downthrown_side_id": null, "reference": "Staller et al., 2016", "epistemic_quality": "1", "accuracy": "100000", "activity_confidence": "1", "fs_name": null, "last_movement": null, "downthrown_side_dir": "E", "vert_sep_rate": null, "strike_slip_rate": null, "exposure_quality": "1", "shortening_rate": "None", "notes": null, "index_right": 116, "NAME_EN": "El Salvador" }, "geometry": { "type": "LineString", "coordinates": [ [ -89.627327952568962, 13.915030304972007 ], [ -89.626591211710888, 13.901523389240561 ], [ -89.619223803130097, 13.859283580044046 ], [ -89.619960543988185, 13.849214788316969 ], [ -89.618241481986004, 13.835462292299498 ], [ -89.610628493119179, 13.819499573707793 ], [ -89.606208047970711, 13.81434238770124 ] ] } },
{ "type": "Feature", "properties": { "average_dip": "(60,40,70)", "average_rake": "(-90,,)", "catalog_id": "CA_91.0", "catalog_name": "GEM_Central_Am_Carib", "dip_dir": "E", "lower_seis_depth": null, "name": "Santa Lucia Fault", "net_slip_rate": null, "slip_type": "Normal", "upper_seis_depth": null, "downthrown_side_id": null, "reference": null, "epistemic_quality": "1", "accuracy": "100000", "activity_confidence": "1", "fs_name": null, "last_movement": null, "downthrown_side_dir": "E", "vert_sep_rate": null, "strike_slip_rate": null, "exposure_quality": "1", "shortening_rate": "None", "notes": null, "index_right": 116, "NAME_EN": "El Salvador" }, "geometry": { "type": "LineString", "coordinates": [ [ -89.480225361239093, 13.929212566490005 ], [ -89.475068175232551, 13.922336318481269 ], [ -89.455421752350446, 13.877395126138463 ], [ -89.451246887487997, 13.821402820924478 ], [ -89.448791084627743, 13.813789832057664 ] ] } },
{ "type": "Feature", "properties": { "average_dip": "(90,60,90)", "average_rake": null, "catalog_id": "CA_92.0", "catalog_name": "GEM_Central_Am_Carib", "dip_dir": "S", "lower_seis_depth": null, "name": "Comecayo Fault", "net_slip_rate": "(0.5, 0., 1.)", "slip_type": "Dextral", "upper_seis_depth": null, "downthrown_side_id": null, "reference": "Staller et al., 2016", "epistemic_quality": "1", "accuracy": "100000", "activity_confidence": "1", "fs_name": null, "last_movement": null, "downthrown_side_dir": "S", "vert_sep_rate": null, "strike_slip_rate": null, "exposure_quality": "1", "shortening_rate": null, "notes": null, "index_right": 116, "NAME_EN": "El Salvador" }, "geometry": { "type": "LineString", "coordinates": [ [ -89.486978819104877, 13.997238305719277 ], [ -89.469788199083041, 13.997483886005304 ], [ -89.399061076707468, 13.98790625485028 ], [ -89.386045321548082, 13.988151835136305 ], [ -89.359031490085201, 13.982257908271675 ] ] } },
{ "type": "Feature", "properties": { "average_dip": "(50,40,90)", "average_rake": "(-90,-90,-135)", "catalog_id": "CA_93.0", "catalog_name": "GEM_Central_Am_Carib", "dip_dir": "NE", "lower_seis_depth": null, "name": "Talcualuya Fault", "net_slip_rate": "(0.1, 0., 1.)", "slip_type": "Normal", "upper_seis_depth": null, "downthrown_side_id": null, "reference": "DEM", "epistemic_quality": "2", "accuracy": "100000", "activity_confidence": "1", "fs_name": null, "last_movement": null, "downthrown_side_dir": "NE", "vert_sep_rate": null, "strike_slip_rate": null, "exposure_quality": "2", "shortening_rate": null, "notes": null, "index_right": 116, "NAME_EN": "El Salvador" }, "geometry": { "type": "LineString", "coordinates": [ [ -89.373029566388666, 13.972803067259663 ], [ -89.358970095013618, 13.951253397160853 ], [ -89.338586931273426, 13.932343715136831 ], [ -89.332140448765244, 13.930808838349167 ], [ -89.314090297742268, 13.906741970318592 ] ] } },
{ "type": "Feature", "properties": { "average_dip": "(90,,)", "average_rake": null, "catalog_id": "CA_94.0", "catalog_name": "GEM_Central_Am_Carib", "dip_dir": null, "lower_seis_depth": null, "name": "Guaycume Fault", "net_slip_rate": null, "slip_type": "Dextral", "upper_seis_depth": null, "downthrown_side_id": null, "reference": "Staller et al., 2016", "epistemic_quality": "2", "accuracy": "100000", "activity_confidence": "1", "fs_name": null, "last_movement": null, "downthrown_side_dir": null, "vert_sep_rate": null, "strike_slip_rate": "(0.1, 0., 1)", "exposure_quality": "2", "shortening_rate": null, "notes": null, "index_right": 116, "NAME_EN": "El Salvador" }, "geometry": { "type": "LineString", "coordinates": [ [ -89.292356442428868, 13.888814609438663 ], [ -89.214261911472519, 13.863765420263984 ], [ -89.162690051406997, 13.84313667623778 ], [ -89.121923723926642, 13.83134882250852 ], [ -89.110627030769436, 13.831839983080572 ] ] } },
{ "type": "Feature", "properties": { "average_dip": "(90,,)", "average_rake": null, "catalog_id": "CA_95.0", "catalog_name": "GEM_Central_Am_Carib", "dip_dir": null, "lower_seis_depth": null, "name": "San Vicente Fault", "net_slip_rate": "(5,3,8)", "slip_type": "Dextral", "upper_seis_depth": null, "downthrown_side_id": null, "reference": "Staller et al., 2016; Canora et al., 2012", "epistemic_quality": "1", "accuracy": "100000", "activity_confidence": "1", "fs_name": "El Salvador Fault Zone", "last_movement": "2001 AD", "downthrown_side_dir": null, "vert_sep_rate": null, "strike_slip_rate": null, "exposure_quality": "1", "shortening_rate": null, "notes": null, "index_right": 116, "NAME_EN": "El Salvador" }, "geometry": { "type": "LineString", "coordinates": [ [ -88.968558835303114, 13.670493735161324 ], [ -88.953087277283458, 13.6684063027301 ], [ -88.946456609560741, 13.665704919583812 ], [ -88.897831712927541, 13.661652844864378 ], [ -88.849575186723399, 13.664231437867656 ], [ -88.839138024567276, 13.66324911672355 ], [ -88.809545600101117, 13.667669561872023 ], [ -88.800090759089102, 13.666687240727917 ] ] } },
{ "type": "Feature", "properties": { "average_dip": "(75,50,90)", "average_rake": "(-155,-135,-180)", "catalog_id": "CA_96.0", "catalog_name": "GEM_Central_Am_Carib", "dip_dir": "S", "lower_seis_depth": null, "name": "Apastapeque Fault", "net_slip_rate": "(5,3,9)", "slip_type": "Dextral-Normal", "upper_seis_depth": null, "downthrown_side_id": null, "reference": "Staller et al., 2016; Canora et al., 2012", "epistemic_quality": "1", "accuracy": "100000", "activity_confidence": "1", "fs_name": null, "last_movement": "2001 AD", "downthrown_side_dir": "S", "vert_sep_rate": null, "strike_slip_rate": null, "exposure_quality": "1", "shortening_rate": null, "notes": null, "index_right": 116, "NAME_EN": "El Salvador" }, "geometry": { "type": "LineString", "coordinates": [ [ -88.797266585799605, 13.668651883016105 ], [ -88.776883422059427, 13.663249116723527 ], [ -88.735380353720998, 13.648514299561953 ], [ -88.68994800080614, 13.63819992754885 ], [ -88.680861530223169, 13.63427064297243 ], [ -88.669810417351982, 13.632797161256272 ] ] } },
{ "type": "Feature", "properties": { "average_dip": "(80,65,90)", "average_rake": "(-165,135,-180)", "catalog_id": "CA_97.0", "catalog_name": "GEM_Central_Am_Carib", "dip_dir": "S", "lower_seis_depth": null, "name": "Berlin Fault", "net_slip_rate": "(7,4,11)", "slip_type": "Dextral-Normal", "upper_seis_depth": null, "downthrown_side_id": null, "reference": "Corti et al., 2004; Staller et al., 2016", "epistemic_quality": "1", "accuracy": "100000", "activity_confidence": "1", "fs_name": null, "last_movement": null, "downthrown_side_dir": "S", "vert_sep_rate": null, "strike_slip_rate": null, "exposure_quality": "1", "shortening_rate": null, "notes": null, "index_right": 116, "NAME_EN": "El Salvador" }, "geometry": { "type": "LineString", "coordinates": [ [ -88.585699169387993, 13.577418806757352 ], [ -88.527251061313734, 13.565876533314119 ], [ -88.513744145582294, 13.567595595316302 ], [ -88.49962327913579, 13.56710443474425 ], [ -88.492010290268965, 13.568823496746434 ], [ -88.46751365673785, 13.561578878308659 ], [ -88.384016359488939, 13.556298902159092 ], [ -88.358967170314259, 13.550650555580487 ], [ -88.340303068576262, 13.549422654150357 ], [ -88.317709682261849, 13.550650555580487 ], [ -88.307395310248737, 13.548194752720226 ], [ -88.292660493087169, 13.547458011862147 ] ] } },
{ "type": "Feature", "properties": { "average_dip": "(90,,)", "average_rake": null, "catalog_id": "CA_98.0", "catalog_name": "GEM_Central_Am_Carib", "dip_dir": null, "lower_seis_depth": null, "name": "San Miguel Fault", "net_slip_rate": null, "slip_type": "Dextral", "upper_seis_depth": null, "downthrown_side_id": null, "reference": "Staller et al., 2016; Corti et al., 2005", "epistemic_quality": "1", "accuracy": "100000", "activity_confidence": "1", "fs_name": "El Salvador Fault ZOne", "last_movement": null, "downthrown_side_dir": null, "vert_sep_rate": null, "strike_slip_rate": "(5,2,10)", "exposure_quality": "2", "shortening_rate": null, "notes": null, "index_right": 116, "NAME_EN": "El Salvador" }, "geometry": { "type": "LineString", "coordinates": [ [ -88.251771375463719, 13.539108282137251 ], [ -88.216898974847993, 13.530267391840306 ], [ -88.109334809568495, 13.518970698683098 ], [ -87.959039674520426, 13.517988377538993 ], [ -87.839687655511668, 13.504727042093576 ] ] } }
]
}
