{
"type": "FeatureCollection",
"name": "faults_canada",
"crs": { "type": "name", "properties": { "name": "urn:ogc:def:crs:OGC:1.3:CRS84" } },
"features": [
{ "type": "Feature", "properties": { "average_dip": null, "average_rake": null, "catalog_id": "GFE_68401", "catalog_name": "GEM Faulted Earth", "dip_dir": null, "lower_seis_depth": null, "name": "Central Muldrow-Alsek section", "net_slip_rate": "(3.0, 1.0, 5.0)", "slip_type": "Strike-Slip", "upper_seis_depth": "(0.0,,)", "downthrown_side_id": null, "reference": null, "epistemic_quality": null, "accuracy": "126000", "activity_confidence": "1", "fs_name": "Denali fault", "last_movement": "(,15000,)", "downthrown_side_dir": null, "vert_sep_rate": null, "strike_slip_rate": null, "exposure_quality": null, "shortening_rate": null, "notes": null, "index_right": 155, "NAME_EN": "Canada" }, "geometry": { "type": "LineString", "coordinates": [ [ -140.323877509502012, 61.897417284403197 ], [ -140.296488472490012, 61.884542259168697 ], [ -140.249348857737004, 61.859279837127502 ] ] } },
{ "type": "Feature", "properties": { "average_dip": null, "average_rake": null, "catalog_id": "GFE_68402", "catalog_name": "GEM Faulted Earth", "dip_dir": null, "lower_seis_depth": null, "name": "Central Muldrow-Alsek section", "net_slip_rate": "(3.0, 1.0, 5.0)", "slip_type": "Strike-Slip", "upper_seis_depth": "(0.0,,)", "downthrown_side_id": null, "reference": null, "epistemic_quality": null, "accuracy": "126000", "activity_confidence": "1", "fs_name": "Denali fault", "last_movement": "(,15000,)", "downthrown_side_dir": null, "vert_sep_rate": null, "strike_slip_rate": null, "exposure_quality": null, "shortening_rate": null, "notes": null, "index_right": 155, "NAME_EN": "Canada" }, "geometry": { "type": "LineString", "coordinates": [ [ -139.679390574915004, 61.588767250735799 ], [ -139.619657579019986, 61.561906520953102 ] ] } },
{ "type": "Feature", "properties": { "average_dip": null, "average_rake": null, "catalog_id": "GFE_68403", "catalog_name": "GEM Faulted Earth", "dip_dir": null, "lower_seis_depth": null, "name": "Central Muldrow-Alsek section", "net_slip_rate": "(3.0, 1.0, 5.0)", "slip_type": "Strike-Slip", "upper_seis_depth": "(0.0,,)", "downthrown_side_id": null, "reference": null, "epistemic_quality": null, "accuracy": "126000", "activity_confidence": "1", "fs_name": "Denali fault", "last_movement": "(,15000,)", "downthrown_side_dir": null, "vert_sep_rate": null, "strike_slip_rate": null, "exposure_quality": null, "shortening_rate": null, "notes": null, "index_right": 155, "NAME_EN": "Canada" }, "geometry": { "type": "LineString", "coordinates": [ [ -139.790564497005988, 61.641338501645301 ], [ -139.86209928976001, 61.673943609011403 ], [ -139.913230252929992, 61.699963756777301 ], [ -139.961935437932993, 61.720019411285101 ], [ -140.083861588952999, 61.777126061698702 ] ] } },
{ "type": "Feature", "properties": { "average_dip": null, "average_rake": null, "catalog_id": "GFE_68404", "catalog_name": "GEM Faulted Earth", "dip_dir": null, "lower_seis_depth": null, "name": "Central Muldrow-Alsek section", "net_slip_rate": "(3.0, 1.0, 5.0)", "slip_type": "Strike-Slip", "upper_seis_depth": "(0.0,,)", "downthrown_side_id": null, "reference": null, "epistemic_quality": null, "accuracy": "126000", "activity_confidence": "1", "fs_name": "Denali fault", "last_movement": "(,15000,)", "downthrown_side_dir": null, "vert_sep_rate": null, "strike_slip_rate": null, "exposure_quality": null, "shortening_rate": null, "notes": null, "index_right": 155, "NAME_EN": "Canada" }, "geometry": { "type": "LineString", "coordinates": [ [ -139.780069623565993, 61.635608995596002 ], [ -139.72260747211601, 61.606781672459 ], [ -139.686134694870987, 61.5905544592122 ] ] } },
{ "type": "Feature", "properties": { "average_dip": null, "average_rake": null, "catalog_id": "GFE_68422", "catalog_name": "GEM Faulted Earth", "dip_dir": null, "lower_seis_depth": null, "name": "Central Muldrow-Alsek section", "net_slip_rate": "(3.0, 1.0, 5.0)", "slip_type": "Strike-Slip", "upper_seis_depth": "(0.0,,)", "downthrown_side_id": null, "reference": null, "epistemic_quality": null, "accuracy": "126000", "activity_confidence": "1", "fs_name": "Denali fault", "last_movement": "(,15000,)", "downthrown_side_dir": null, "vert_sep_rate": null, "strike_slip_rate": null, "exposure_quality": null, "shortening_rate": null, "notes": null, "index_right": 155, "NAME_EN": "Canada" }, "geometry": { "type": "LineString", "coordinates": [ [ -139.686134694870987, 61.5905544592122 ], [ -139.679390574915004, 61.588767250735799 ] ] } },
{ "type": "Feature", "properties": { "average_dip": null, "average_rake": null, "catalog_id": "GFE_68405", "catalog_name": "GEM Faulted Earth", "dip_dir": null, "lower_seis_depth": null, "name": "Central Muldrow-Alsek section", "net_slip_rate": "(3.0, 1.0, 5.0)", "slip_type": "Strike-Slip", "upper_seis_depth": "(0.0,,)", "downthrown_side_id": null, "reference": null, "epistemic_quality": null, "accuracy": "126000", "activity_confidence": "1", "fs_name": "Denali fault", "last_movement": "(,15000,)", "downthrown_side_dir": null, "vert_sep_rate": null, "strike_slip_rate": null, "exposure_quality": null, "shortening_rate": null, "notes": null, "index_right": 155, "NAME_EN": "Canada" }, "geometry": { "type": "LineString", "coordinates": [ [ -140.810601673234999, 62.092504198904301 ], [ -140.713569997960008, 62.0615216589893 ], [ -140.650258592287997, 62.037940795896901 ], [ -140.465141207021986, 61.960609313895503 ], [ -140.333701150584005, 61.9024001669776 ] ] } },
{ "type": "Feature", "properties": { "average_dip": null, "average_rake": null, "catalog_id": "GFE_68412", "catalog_name": "GEM Faulted Earth", "dip_dir": null, "lower_seis_depth": null, "name": "Central Muldrow-Alsek section", "net_slip_rate": "(3.0, 1.0, 5.0)", "slip_type": "Strike-Slip", "upper_seis_depth": "(0.0,,)", "downthrown_side_id": null, "reference": null, "epistemic_quality": null, "accuracy": "126000", "activity_confidence": "1", "fs_name": "Denali fault", "last_movement": "(,15000,)", "downthrown_side_dir": null, "vert_sep_rate": null, "strike_slip_rate": null, "exposure_quality": null, "shortening_rate": null, "notes": null, "index_right": 155, "NAME_EN": "Canada" }, "geometry": { "type": "LineString", "coordinates": [ [ -140.205908155109, 61.838412325165997 ], [ -140.248574604351006, 61.858897823576598 ] ] } },
{ "type": "Feature", "properties": { "average_dip": null, "average_rake": null, "catalog_id": "GFE_68413", "catalog_name": "GEM Faulted Earth", "dip_dir": null, "lower_seis_depth": null, "name": "Central Muldrow-Alsek section", "net_slip_rate": "(3.0, 1.0, 5.0)", "slip_type": "Strike-Slip", "upper_seis_depth": "(0.0,,)", "downthrown_side_id": null, "reference": null, "epistemic_quality": null, "accuracy": "126000", "activity_confidence": "1", "fs_name": "Denali fault", "last_movement": "(,15000,)", "downthrown_side_dir": null, "vert_sep_rate": null, "strike_slip_rate": null, "exposure_quality": null, "shortening_rate": null, "notes": null, "index_right": 155, "NAME_EN": "Canada" }, "geometry": { "type": "LineString", "coordinates": [ [ -140.100893702169998, 61.785672326585903 ], [ -140.129968864684002, 61.801552716220499 ], [ -140.205908155109, 61.838412325165997 ] ] } },
{ "type": "Feature", "properties": { "average_dip": null, "average_rake": null, "catalog_id": "GFE_68415", "catalog_name": "GEM Faulted Earth", "dip_dir": null, "lower_seis_depth": null, "name": "Central Muldrow-Alsek section", "net_slip_rate": "(3.0, 1.0, 5.0)", "slip_type": "Strike-Slip", "upper_seis_depth": "(0.0,,)", "downthrown_side_id": null, "reference": null, "epistemic_quality": null, "accuracy": "126000", "activity_confidence": "1", "fs_name": "Denali fault", "last_movement": "(,15000,)", "downthrown_side_dir": null, "vert_sep_rate": null, "strike_slip_rate": null, "exposure_quality": null, "shortening_rate": null, "notes": null, "index_right": 155, "NAME_EN": "Canada" }, "geometry": { "type": "LineString", "coordinates": [ [ -140.944612770515988, 62.130231162958502 ], [ -141.012362949942997, 62.155317575259602 ] ] } },
{ "type": "Feature", "properties": { "average_dip": null, "average_rake": null, "catalog_id": "GFE_68416", "catalog_name": "GEM Faulted Earth", "dip_dir": null, "lower_seis_depth": null, "name": "Central Muldrow-Alsek section", "net_slip_rate": "(3.0, 1.0, 5.0)", "slip_type": "Strike-Slip", "upper_seis_depth": "(0.0,,)", "downthrown_side_id": null, "reference": null, "epistemic_quality": null, "accuracy": "126000", "activity_confidence": "1", "fs_name": "Denali fault", "last_movement": "(,15000,)", "downthrown_side_dir": null, "vert_sep_rate": null, "strike_slip_rate": null, "exposure_quality": null, "shortening_rate": null, "notes": null, "index_right": 155, "NAME_EN": "Canada" }, "geometry": { "type": "LineString", "coordinates": [ [ -140.941697782483999, 62.129456196854903 ], [ -140.810601673234999, 62.092504198904301 ] ] } },
{ "type": "Feature", "properties": { "average_dip": null, "average_rake": null, "catalog_id": "GFE_68419", "catalog_name": "GEM Faulted Earth", "dip_dir": null, "lower_seis_depth": null, "name": "Central Muldrow-Alsek section", "net_slip_rate": "(3.0, 1.0, 5.0)", "slip_type": "Strike-Slip", "upper_seis_depth": "(0.0,,)", "downthrown_side_id": null, "reference": null, "epistemic_quality": null, "accuracy": "126000", "activity_confidence": "1", "fs_name": "Denali fault", "last_movement": "(,15000,)", "downthrown_side_dir": null, "vert_sep_rate": null, "strike_slip_rate": null, "exposure_quality": null, "shortening_rate": null, "notes": null, "index_right": 155, "NAME_EN": "Canada" }, "geometry": { "type": "LineString", "coordinates": [ [ -139.790564497005988, 61.641338501645301 ], [ -139.780069623565993, 61.635608995596002 ] ] } },
{ "type": "Feature", "properties": { "average_dip": null, "average_rake": null, "catalog_id": "GFE_68420", "catalog_name": "GEM Faulted Earth", "dip_dir": null, "lower_seis_depth": null, "name": "Central Muldrow-Alsek section", "net_slip_rate": "(3.0, 1.0, 5.0)", "slip_type": "Strike-Slip", "upper_seis_depth": "(0.0,,)", "downthrown_side_id": null, "reference": null, "epistemic_quality": null, "accuracy": "126000", "activity_confidence": "1", "fs_name": "Denali fault", "last_movement": "(,15000,)", "downthrown_side_dir": null, "vert_sep_rate": null, "strike_slip_rate": null, "exposure_quality": null, "shortening_rate": null, "notes": null, "index_right": 155, "NAME_EN": "Canada" }, "geometry": { "type": "LineString", "coordinates": [ [ -140.944612770515988, 62.130231162958502 ], [ -140.941697782483999, 62.129456196854903 ] ] } },
{ "type": "Feature", "properties": { "average_dip": null, "average_rake": null, "catalog_id": "GFE_68423", "catalog_name": "GEM Faulted Earth", "dip_dir": null, "lower_seis_depth": null, "name": "Central Muldrow-Alsek section", "net_slip_rate": "(3.0, 1.0, 5.0)", "slip_type": "Strike-Slip", "upper_seis_depth": "(0.0,,)", "downthrown_side_id": null, "reference": null, "epistemic_quality": null, "accuracy": "126000", "activity_confidence": "1", "fs_name": "Denali fault", "last_movement": "(,15000,)", "downthrown_side_dir": null, "vert_sep_rate": null, "strike_slip_rate": null, "exposure_quality": null, "shortening_rate": null, "notes": null, "index_right": 155, "NAME_EN": "Canada" }, "geometry": { "type": "LineString", "coordinates": [ [ -140.099689359454999, 61.785028765603499 ], [ -140.083861539417995, 61.777126059191197 ] ] } },
{ "type": "Feature", "properties": { "average_dip": null, "average_rake": null, "catalog_id": "GFE_68425", "catalog_name": "GEM Faulted Earth", "dip_dir": null, "lower_seis_depth": null, "name": "Central Muldrow-Alsek section", "net_slip_rate": "(3.0, 1.0, 5.0)", "slip_type": "Strike-Slip", "upper_seis_depth": "(0.0,,)", "downthrown_side_id": null, "reference": null, "epistemic_quality": null, "accuracy": "126000", "activity_confidence": "1", "fs_name": "Denali fault", "last_movement": "(,15000,)", "downthrown_side_dir": null, "vert_sep_rate": null, "strike_slip_rate": null, "exposure_quality": null, "shortening_rate": null, "notes": null, "index_right": 155, "NAME_EN": "Canada" }, "geometry": { "type": "LineString", "coordinates": [ [ -140.333701150584005, 61.9024001669776 ], [ -140.323877509502012, 61.897417284403197 ] ] } },
{ "type": "Feature", "properties": { "average_dip": null, "average_rake": null, "catalog_id": "GFE_68426", "catalog_name": "GEM Faulted Earth", "dip_dir": null, "lower_seis_depth": null, "name": "Central Muldrow-Alsek section", "net_slip_rate": "(3.0, 1.0, 5.0)", "slip_type": "Strike-Slip", "upper_seis_depth": "(0.0,,)", "downthrown_side_id": null, "reference": null, "epistemic_quality": null, "accuracy": "126000", "activity_confidence": "1", "fs_name": "Denali fault", "last_movement": "(,15000,)", "downthrown_side_dir": null, "vert_sep_rate": null, "strike_slip_rate": null, "exposure_quality": null, "shortening_rate": null, "notes": null, "index_right": 155, "NAME_EN": "Canada" }, "geometry": { "type": "LineString", "coordinates": [ [ -140.100893702169998, 61.785672326585903 ], [ -140.099689359454999, 61.785028765603499 ] ] } },
{ "type": "Feature", "properties": { "average_dip": null, "average_rake": null, "catalog_id": "GFE_91036", "catalog_name": "GEM Faulted Earth", "dip_dir": null, "lower_seis_depth": null, "name": "East Muldrow-Alsek section", "net_slip_rate": "(3.0, 1.0, 5.0)", "slip_type": "Strike-Slip", "upper_seis_depth": "(0.0,,)", "downthrown_side_id": null, "reference": null, "epistemic_quality": null, "accuracy": "126000", "activity_confidence": "1", "fs_name": "Denali fault", "last_movement": "(,15000,)", "downthrown_side_dir": null, "vert_sep_rate": null, "strike_slip_rate": null, "exposure_quality": null, "shortening_rate": null, "notes": null, "index_right": 155, "NAME_EN": "Canada" }, "geometry": { "type": "LineString", "coordinates": [ [ -139.229874607112009, 61.414557696619198 ], [ -139.22687599578299, 61.413426450324003 ] ] } },
{ "type": "Feature", "properties": { "average_dip": null, "average_rake": null, "catalog_id": "GFE_90914", "catalog_name": "GEM Faulted Earth", "dip_dir": null, "lower_seis_depth": null, "name": null, "net_slip_rate": null, "slip_type": "Strike-Slip", "upper_seis_depth": "(0.0,,)", "downthrown_side_id": null, "reference": null, "epistemic_quality": null, "accuracy": "500000", "activity_confidence": "1", "fs_name": "Tintina fault zone", "last_movement": null, "downthrown_side_dir": null, "vert_sep_rate": null, "strike_slip_rate": null, "exposure_quality": null, "shortening_rate": null, "notes": null, "index_right": 155, "NAME_EN": "Canada" }, "geometry": { "type": "LineString", "coordinates": [ [ -140.998962853302004, 64.721101334229701 ], [ -141.085440899903006, 64.745324238021993 ], [ -141.187975921603993, 64.778077291134295 ] ] } },
{ "type": "Feature", "properties": { "average_dip": null, "average_rake": null, "catalog_id": "GFE_91037", "catalog_name": "GEM Faulted Earth", "dip_dir": null, "lower_seis_depth": null, "name": "East Muldrow-Alsek section", "net_slip_rate": "(3.0, 1.0, 5.0)", "slip_type": "Strike-Slip", "upper_seis_depth": "(0.0,,)", "downthrown_side_id": null, "reference": null, "epistemic_quality": null, "accuracy": "126000", "activity_confidence": "1", "fs_name": "Denali fault", "last_movement": "(,15000,)", "downthrown_side_dir": null, "vert_sep_rate": null, "strike_slip_rate": null, "exposure_quality": null, "shortening_rate": null, "notes": null, "index_right": 155, "NAME_EN": "Canada" }, "geometry": { "type": "LineString", "coordinates": [ [ -139.144746797213003, 61.371262177409797 ], [ -139.106766055272999, 61.352995940664897 ] ] } },
{ "type": "Feature", "properties": { "average_dip": null, "average_rake": null, "catalog_id": "GFE_91038", "catalog_name": "GEM Faulted Earth", "dip_dir": null, "lower_seis_depth": null, "name": "East Muldrow-Alsek section", "net_slip_rate": "(3.0, 1.0, 5.0)", "slip_type": "Strike-Slip", "upper_seis_depth": "(0.0,,)", "downthrown_side_id": null, "reference": null, "epistemic_quality": null, "accuracy": "126000", "activity_confidence": "1", "fs_name": "Denali fault", "last_movement": "(,15000,)", "downthrown_side_dir": null, "vert_sep_rate": null, "strike_slip_rate": null, "exposure_quality": null, "shortening_rate": null, "notes": null, "index_right": 155, "NAME_EN": "Canada" }, "geometry": { "type": "LineString", "coordinates": [ [ -139.176126129703988, 61.389580662655497 ], [ -139.148708977860991, 61.373583000984297 ] ] } },
{ "type": "Feature", "properties": { "average_dip": null, "average_rake": null, "catalog_id": "GFE_91039", "catalog_name": "GEM Faulted Earth", "dip_dir": null, "lower_seis_depth": null, "name": "East Muldrow-Alsek section", "net_slip_rate": "(3.0, 1.0, 5.0)", "slip_type": "Strike-Slip", "upper_seis_depth": "(0.0,,)", "downthrown_side_id": null, "reference": null, "epistemic_quality": null, "accuracy": "126000", "activity_confidence": "1", "fs_name": "Denali fault", "last_movement": "(,15000,)", "downthrown_side_dir": null, "vert_sep_rate": null, "strike_slip_rate": null, "exposure_quality": null, "shortening_rate": null, "notes": null, "index_right": 155, "NAME_EN": "Canada" }, "geometry": { "type": "LineString", "coordinates": [ [ -139.176126504, 61.389580684309699 ], [ -139.226875816614012, 61.413426440032097 ] ] } },
{ "type": "Feature", "properties": { "average_dip": null, "average_rake": null, "catalog_id": "GFE_91040", "catalog_name": "GEM Faulted Earth", "dip_dir": null, "lower_seis_depth": null, "name": "East Muldrow-Alsek section", "net_slip_rate": "(3.0, 1.0, 5.0)", "slip_type": "Strike-Slip", "upper_seis_depth": "(0.0,,)", "downthrown_side_id": null, "reference": null, "epistemic_quality": null, "accuracy": "126000", "activity_confidence": "1", "fs_name": "Denali fault", "last_movement": "(,15000,)", "downthrown_side_dir": null, "vert_sep_rate": null, "strike_slip_rate": null, "exposure_quality": null, "shortening_rate": null, "notes": null, "index_right": 155, "NAME_EN": "Canada" }, "geometry": { "type": "LineString", "coordinates": [ [ -139.229874411645994, 61.414557685395899 ], [ -139.285630173556996, 61.4393464955903 ] ] } },
{ "type": "Feature", "properties": { "average_dip": null, "average_rake": null, "catalog_id": "GFE_91041", "catalog_name": "GEM Faulted Earth", "dip_dir": null, "lower_seis_depth": null, "name": "East Muldrow-Alsek section", "net_slip_rate": "(3.0, 1.0, 5.0)", "slip_type": "Strike-Slip", "upper_seis_depth": "(0.0,,)", "downthrown_side_id": null, "reference": null, "epistemic_quality": null, "accuracy": "126000", "activity_confidence": "1", "fs_name": "Denali fault", "last_movement": "(,15000,)", "downthrown_side_dir": null, "vert_sep_rate": null, "strike_slip_rate": null, "exposure_quality": null, "shortening_rate": null, "notes": null, "index_right": 155, "NAME_EN": "Canada" }, "geometry": { "type": "LineString", "coordinates": [ [ -139.422970012666013, 61.493089887791299 ], [ -139.420350309407013, 61.491875607452101 ] ] } },
{ "type": "Feature", "properties": { "average_dip": null, "average_rake": null, "catalog_id": "GFE_91042", "catalog_name": "GEM Faulted Earth", "dip_dir": null, "lower_seis_depth": null, "name": "East Muldrow-Alsek section", "net_slip_rate": "(3.0, 1.0, 5.0)", "slip_type": "Strike-Slip", "upper_seis_depth": "(0.0,,)", "downthrown_side_id": null, "reference": null, "epistemic_quality": null, "accuracy": "126000", "activity_confidence": "1", "fs_name": "Denali fault", "last_movement": "(,15000,)", "downthrown_side_dir": null, "vert_sep_rate": null, "strike_slip_rate": null, "exposure_quality": null, "shortening_rate": null, "notes": null, "index_right": 155, "NAME_EN": "Canada" }, "geometry": { "type": "LineString", "coordinates": [ [ -139.106765876500987, 61.352995930220899 ], [ -139.068761815158012, 61.335543309516098 ], [ -138.998706254105997, 61.299676129379101 ] ] } },
{ "type": "Feature", "properties": { "average_dip": null, "average_rake": null, "catalog_id": "GFE_91043", "catalog_name": "GEM Faulted Earth", "dip_dir": null, "lower_seis_depth": null, "name": "East Muldrow-Alsek section", "net_slip_rate": "(3.0, 1.0, 5.0)", "slip_type": "Strike-Slip", "upper_seis_depth": "(0.0,,)", "downthrown_side_id": null, "reference": null, "epistemic_quality": null, "accuracy": "126000", "activity_confidence": "1", "fs_name": "Denali fault", "last_movement": "(,15000,)", "downthrown_side_dir": null, "vert_sep_rate": null, "strike_slip_rate": null, "exposure_quality": null, "shortening_rate": null, "notes": null, "index_right": 155, "NAME_EN": "Canada" }, "geometry": { "type": "LineString", "coordinates": [ [ -139.148709156769002, 61.373583011375203 ], [ -139.144746992368994, 61.371262188750698 ] ] } },
{ "type": "Feature", "properties": { "average_dip": null, "average_rake": null, "catalog_id": "GFE_91044", "catalog_name": "GEM Faulted Earth", "dip_dir": null, "lower_seis_depth": null, "name": "East Muldrow-Alsek section", "net_slip_rate": "(3.0, 1.0, 5.0)", "slip_type": "Strike-Slip", "upper_seis_depth": "(0.0,,)", "downthrown_side_id": null, "reference": null, "epistemic_quality": null, "accuracy": "126000", "activity_confidence": "1", "fs_name": "Denali fault", "last_movement": "(,15000,)", "downthrown_side_dir": null, "vert_sep_rate": null, "strike_slip_rate": null, "exposure_quality": null, "shortening_rate": null, "notes": null, "index_right": 155, "NAME_EN": "Canada" }, "geometry": { "type": "LineString", "coordinates": [ [ -138.408291875302012, 61.013006790791501 ], [ -138.395044683538998, 61.007160828518302 ] ] } },
{ "type": "Feature", "properties": { "average_dip": null, "average_rake": null, "catalog_id": "GFE_91060", "catalog_name": "GEM Faulted Earth", "dip_dir": null, "lower_seis_depth": null, "name": "East Muldrow-Alsek section", "net_slip_rate": "(3.0, 1.0, 5.0)", "slip_type": "Strike-Slip", "upper_seis_depth": "(0.0,,)", "downthrown_side_id": null, "reference": null, "epistemic_quality": null, "accuracy": "126000", "activity_confidence": "1", "fs_name": "Denali fault", "last_movement": "(,15000,)", "downthrown_side_dir": null, "vert_sep_rate": null, "strike_slip_rate": null, "exposure_quality": null, "shortening_rate": null, "notes": null, "index_right": 155, "NAME_EN": "Canada" }, "geometry": { "type": "LineString", "coordinates": [ [ -138.975377074914007, 61.289231578102701 ], [ -138.891764635307993, 61.254943689942799 ], [ -138.720686032582989, 61.174692866973999 ], [ -138.686243211467001, 61.162095662693503 ], [ -138.589383401800006, 61.117299842713898 ], [ -138.509555898461002, 61.084823322283299 ] ] } },
{ "type": "Feature", "properties": { "average_dip": null, "average_rake": null, "catalog_id": "GFE_91061", "catalog_name": "GEM Faulted Earth", "dip_dir": null, "lower_seis_depth": null, "name": "East Muldrow-Alsek section", "net_slip_rate": "(3.0, 1.0, 5.0)", "slip_type": "Strike-Slip", "upper_seis_depth": "(0.0,,)", "downthrown_side_id": null, "reference": null, "epistemic_quality": null, "accuracy": "126000", "activity_confidence": "1", "fs_name": "Denali fault", "last_movement": "(,15000,)", "downthrown_side_dir": null, "vert_sep_rate": null, "strike_slip_rate": null, "exposure_quality": null, "shortening_rate": null, "notes": null, "index_right": 155, "NAME_EN": "Canada" }, "geometry": { "type": "LineString", "coordinates": [ [ -139.285630173556996, 61.4393464955903 ], [ -139.333049275679997, 61.459483497059303 ] ] } },
{ "type": "Feature", "properties": { "average_dip": null, "average_rake": null, "catalog_id": "GFE_91062", "catalog_name": "GEM Faulted Earth", "dip_dir": null, "lower_seis_depth": null, "name": "East Muldrow-Alsek section", "net_slip_rate": "(3.0, 1.0, 5.0)", "slip_type": "Strike-Slip", "upper_seis_depth": "(0.0,,)", "downthrown_side_id": null, "reference": null, "epistemic_quality": null, "accuracy": "126000", "activity_confidence": "1", "fs_name": "Denali fault", "last_movement": "(,15000,)", "downthrown_side_dir": null, "vert_sep_rate": null, "strike_slip_rate": null, "exposure_quality": null, "shortening_rate": null, "notes": null, "index_right": 155, "NAME_EN": "Canada" }, "geometry": { "type": "LineString", "coordinates": [ [ -139.333049275679997, 61.459483497059303 ], [ -139.349278713113989, 61.4655000020676 ] ] } },
{ "type": "Feature", "properties": { "average_dip": null, "average_rake": null, "catalog_id": "GFE_91063", "catalog_name": "GEM Faulted Earth", "dip_dir": null, "lower_seis_depth": null, "name": "East Muldrow-Alsek section", "net_slip_rate": "(3.0, 1.0, 5.0)", "slip_type": "Strike-Slip", "upper_seis_depth": "(0.0,,)", "downthrown_side_id": null, "reference": null, "epistemic_quality": null, "accuracy": "126000", "activity_confidence": "1", "fs_name": "Denali fault", "last_movement": "(,15000,)", "downthrown_side_dir": null, "vert_sep_rate": null, "strike_slip_rate": null, "exposure_quality": null, "shortening_rate": null, "notes": null, "index_right": 155, "NAME_EN": "Canada" }, "geometry": { "type": "LineString", "coordinates": [ [ -139.349278713113989, 61.4655000020676 ], [ -139.371315195974006, 61.474865368927198 ], [ -139.420350309407013, 61.491875607452101 ] ] } },
{ "type": "Feature", "properties": { "average_dip": null, "average_rake": null, "catalog_id": "GFE_91064", "catalog_name": "GEM Faulted Earth", "dip_dir": null, "lower_seis_depth": null, "name": "East Muldrow-Alsek section", "net_slip_rate": "(3.0, 1.0, 5.0)", "slip_type": "Strike-Slip", "upper_seis_depth": "(0.0,,)", "downthrown_side_id": null, "reference": null, "epistemic_quality": null, "accuracy": "126000", "activity_confidence": "1", "fs_name": "Denali fault", "last_movement": "(,15000,)", "downthrown_side_dir": null, "vert_sep_rate": null, "strike_slip_rate": null, "exposure_quality": null, "shortening_rate": null, "notes": null, "index_right": 155, "NAME_EN": "Canada" }, "geometry": { "type": "LineString", "coordinates": [ [ -139.422970012666013, 61.493089887791299 ], [ -139.474007035077989, 61.515676124313799 ], [ -139.513748751802012, 61.535638338998602 ] ] } },
{ "type": "Feature", "properties": { "average_dip": null, "average_rake": null, "catalog_id": "GFE_91065", "catalog_name": "GEM Faulted Earth", "dip_dir": null, "lower_seis_depth": null, "name": "East Muldrow-Alsek section", "net_slip_rate": "(3.0, 1.0, 5.0)", "slip_type": "Strike-Slip", "upper_seis_depth": "(0.0,,)", "downthrown_side_id": null, "reference": null, "epistemic_quality": null, "accuracy": "500000", "activity_confidence": "1", "fs_name": "Denali fault", "last_movement": "(,15000,)", "downthrown_side_dir": null, "vert_sep_rate": null, "strike_slip_rate": null, "exposure_quality": null, "shortening_rate": null, "notes": null, "index_right": 155, "NAME_EN": "Canada" }, "geometry": { "type": "LineString", "coordinates": [ [ -138.507079730864007, 61.073759242258703 ], [ -138.307280595206009, 60.974927972537898 ], [ -138.173907717240013, 60.914091221358497 ], [ -137.982330446842013, 60.807334421864603 ], [ -137.912134194997009, 60.765216671117301 ], [ -137.807519485249003, 60.6553712256569 ] ] } },
{ "type": "Feature", "properties": { "average_dip": null, "average_rake": null, "catalog_id": "GFE_91066", "catalog_name": "GEM Faulted Earth", "dip_dir": null, "lower_seis_depth": null, "name": "East Muldrow-Alsek section", "net_slip_rate": "(3.0, 1.0, 5.0)", "slip_type": "Strike-Slip", "upper_seis_depth": "(0.0,,)", "downthrown_side_id": null, "reference": null, "epistemic_quality": null, "accuracy": "126000", "activity_confidence": "1", "fs_name": "Denali fault", "last_movement": "(,15000,)", "downthrown_side_dir": null, "vert_sep_rate": null, "strike_slip_rate": null, "exposure_quality": null, "shortening_rate": null, "notes": null, "index_right": 155, "NAME_EN": "Canada" }, "geometry": { "type": "LineString", "coordinates": [ [ -138.978921177442004, 61.290820842466303 ], [ -138.975377074914007, 61.289231578102701 ] ] } },
{ "type": "Feature", "properties": { "average_dip": null, "average_rake": null, "catalog_id": "GFE_91067", "catalog_name": "GEM Faulted Earth", "dip_dir": null, "lower_seis_depth": null, "name": "East Muldrow-Alsek section", "net_slip_rate": "(3.0, 1.0, 5.0)", "slip_type": "Strike-Slip", "upper_seis_depth": "(0.0,,)", "downthrown_side_id": null, "reference": null, "epistemic_quality": null, "accuracy": "126000", "activity_confidence": "1", "fs_name": "Denali fault", "last_movement": "(,15000,)", "downthrown_side_dir": null, "vert_sep_rate": null, "strike_slip_rate": null, "exposure_quality": null, "shortening_rate": null, "notes": null, "index_right": 155, "NAME_EN": "Canada" }, "geometry": { "type": "LineString", "coordinates": [ [ -138.998706254105997, 61.299676129379101 ], [ -138.978921177442004, 61.290820842466303 ] ] } },
{ "type": "Feature", "properties": { "average_dip": null, "average_rake": null, "catalog_id": "GFE_31236", "catalog_name": "GEM Faulted Earth", "dip_dir": "360", "lower_seis_depth": null, "name": null, "net_slip_rate": null, "slip_type": "Reverse", "upper_seis_depth": "(0.0,,)", "downthrown_side_id": null, "reference": null, "epistemic_quality": null, "accuracy": "200000", "activity_confidence": "1", "fs_name": "Chugach-St. Elias fault", "last_movement": null, "downthrown_side_dir": null, "vert_sep_rate": null, "strike_slip_rate": null, "exposure_quality": null, "shortening_rate": null, "notes": null, "index_right": 155, "NAME_EN": "Canada" }, "geometry": { "type": "LineString", "coordinates": [ [ -140.326658576618001, 60.210781785605697 ], [ -140.358265153110011, 60.223232861329798 ], [ -140.393155529349002, 60.233768386527501 ], [ -140.427361780528003, 60.242388362097998 ], [ -140.492490482239987, 60.2555235619824 ] ] } },
{ "type": "Feature", "properties": { "average_dip": null, "average_rake": null, "catalog_id": "GFE_31237", "catalog_name": "GEM Faulted Earth", "dip_dir": "360", "lower_seis_depth": null, "name": null, "net_slip_rate": null, "slip_type": "Reverse", "upper_seis_depth": "(0.0,,)", "downthrown_side_id": null, "reference": null, "epistemic_quality": null, "accuracy": "200000", "activity_confidence": "1", "fs_name": "Chugach-St. Elias fault", "last_movement": null, "downthrown_side_dir": null, "vert_sep_rate": null, "strike_slip_rate": null, "exposure_quality": null, "shortening_rate": null, "notes": null, "index_right": 155, "NAME_EN": "Canada" }, "geometry": { "type": "LineString", "coordinates": [ [ -140.728667087198005, 60.257562319626899 ], [ -140.759714410393997, 60.248514242488703 ], [ -140.799987223582008, 60.247449763566102 ], [ -140.807615994291012, 60.245320803921999 ], [ -140.812938392500996, 60.241595124994603 ], [ -140.832808678915001, 60.238756513035199 ], [ -140.845582434980003, 60.239466166249997 ] ] } },
{ "type": "Feature", "properties": { "average_dip": null, "average_rake": null, "catalog_id": "GFE_31246", "catalog_name": "GEM Faulted Earth", "dip_dir": "360", "lower_seis_depth": null, "name": null, "net_slip_rate": "(3.0, 1.0, 5.0)", "slip_type": "Reverse", "upper_seis_depth": "(0.0,,)", "downthrown_side_id": null, "reference": null, "epistemic_quality": null, "accuracy": "200000", "activity_confidence": "1", "fs_name": "Coal Glacier fault", "last_movement": "(,750000,)", "downthrown_side_dir": null, "vert_sep_rate": null, "strike_slip_rate": null, "exposure_quality": null, "shortening_rate": null, "notes": null, "index_right": 155, "NAME_EN": "Canada" }, "geometry": { "type": "LineString", "coordinates": [ [ -141.000464222554001, 60.217112093584902 ], [ -140.880000609597005, 60.229353609289802 ], [ -140.826244388027987, 60.229708435897102 ], [ -140.784729682163999, 60.2385790992819 ], [ -140.755279078251988, 60.240885471779997 ], [ -140.742505323084998, 60.243901497492701 ], [ -140.716070744885997, 60.255433359982902 ] ] } },
{ "type": "Feature", "properties": { "average_dip": null, "average_rake": null, "catalog_id": "GFE_41067", "catalog_name": "GEM Faulted Earth", "dip_dir": null, "lower_seis_depth": null, "name": "Dalton section", "net_slip_rate": "(3.0, 1.0, 5.0)", "slip_type": "Strike-Slip", "upper_seis_depth": "(0.0,,)", "downthrown_side_id": null, "reference": null, "epistemic_quality": null, "accuracy": "500000", "activity_confidence": "1", "fs_name": "Denali fault", "last_movement": "(,15000,)", "downthrown_side_dir": null, "vert_sep_rate": null, "strike_slip_rate": null, "exposure_quality": null, "shortening_rate": null, "notes": null, "index_right": 155, "NAME_EN": "Canada" }, "geometry": { "type": "LineString", "coordinates": [ [ -137.807519485249003, 60.6553712256569 ], [ -137.745418097538987, 60.593235854366498 ], [ -137.719094502871997, 60.570422072561797 ], [ -137.512015560198989, 60.468637507656098 ], [ -137.394436838312998, 60.393176536517899 ], [ -137.210171677445004, 60.266823283376503 ], [ -137.04696539195001, 60.148367108275302 ], [ -136.829357011588996, 59.986915730110702 ], [ -136.660886007701009, 59.876356633049902 ], [ -136.49066009738101, 59.778081881006301 ], [ -136.362551937808007, 59.699111097905401 ], [ -136.221130187933994, 59.607252977963803 ] ] } },
{ "type": "Feature", "properties": { "average_dip": null, "average_rake": null, "catalog_id": "GFE_41076", "catalog_name": "GEM Faulted Earth", "dip_dir": null, "lower_seis_depth": null, "name": null, "net_slip_rate": null, "slip_type": "Strike-Slip", "upper_seis_depth": "(0.0,,)", "downthrown_side_id": null, "reference": null, "epistemic_quality": null, "accuracy": "1000000", "activity_confidence": "1", "fs_name": "Art Lewis Glacier fault", "last_movement": null, "downthrown_side_dir": null, "vert_sep_rate": null, "strike_slip_rate": null, "exposure_quality": null, "shortening_rate": null, "notes": null, "index_right": 155, "NAME_EN": "Canada" }, "geometry": { "type": "LineString", "coordinates": [ [ -138.540859811553986, 59.528125796466703 ], [ -138.569923913838011, 59.567273363542498 ], [ -138.598691443998007, 59.597523756119301 ], [ -138.648219047988988, 59.663659417916101 ], [ -138.703974673770006, 59.729498507589298 ], [ -138.781231804139992, 59.803493341002799 ], [ -138.834021705087991, 59.865328702061603 ], [ -138.914541132414001, 59.935616379883498 ], [ -138.946719246042989, 59.9664599167075 ] ] } },
{ "type": "Feature", "properties": { "average_dip": null, "average_rake": null, "catalog_id": "GFE_41078", "catalog_name": "GEM Faulted Earth", "dip_dir": null, "lower_seis_depth": null, "name": null, "net_slip_rate": null, "slip_type": "Strike-Slip", "upper_seis_depth": "(0.0,,)", "downthrown_side_id": null, "reference": null, "epistemic_quality": null, "accuracy": "1000000", "activity_confidence": "1", "fs_name": "Art Lewis Glacier fault", "last_movement": null, "downthrown_side_dir": null, "vert_sep_rate": null, "strike_slip_rate": null, "exposure_quality": null, "shortening_rate": null, "notes": null, "index_right": 155, "NAME_EN": "Canada" }, "geometry": { "type": "LineString", "coordinates": [ [ -139.164190553537992, 60.141535216024899 ], [ -139.186933884252994, 60.159118296291602 ], [ -139.226304692734999, 60.200018067335698 ], [ -139.363911402548013, 60.313734723611503 ], [ -139.391241623649989, 60.338389258430198 ], [ -139.395255153075993, 60.344122871638902 ] ] } }
]
}
