{
"type": "FeatureCollection",
"name": "faults_vietnam",
"crs": { "type": "name", "properties": { "name": "urn:ogc:def:crs:OGC:1.3:CRS84" } },
"features": [
{ "type": "Feature", "properties": { "average_dip": null, "average_rake": null, "catalog_id": "GAF_115", "catalog_name": "HimaTibetMap", "dip_dir": null, "lower_seis_depth": null, "name": null, "net_slip_rate": null, "slip_type": "Dextral", "upper_seis_depth": null, "downthrown_side_id": null, "reference": null, "epistemic_quality": null, "accuracy": null, "activity_confidence": null, "fs_name": null, "last_movement": null, "downthrown_side_dir": null, "vert_sep_rate": null, "strike_slip_rate": null, "exposure_quality": "1", "shortening_rate": null, "notes": null, "index_right": 55, "NAME_EN": "Vietnam" }, "geometry": { "type": "LineString", "coordinates": [ [ 103.886473627129106, 21.783889366292058 ], [ 104.084903230238496, 21.540362126112353 ], [ 104.229215668863517, 21.332912995588902 ], [ 104.382547634902579, 21.233698194034204 ], [ 104.544899128355723, 21.197620084377952 ], [ 104.671172512152609, 21.188600556963891 ], [ 104.779406841121371, 21.143502919893574 ], [ 104.851563060433875, 21.089385755409197 ], [ 104.914699752332311, 21.026249063510754 ] ] } },
{ "type": "Feature", "properties": { "average_dip": null, "average_rake": null, "catalog_id": "GAF_123", "catalog_name": "HimaTibetMap", "dip_dir": null, "lower_seis_depth": null, "name": null, "net_slip_rate": null, "slip_type": "Dextral", "upper_seis_depth": null, "downthrown_side_id": null, "reference": null, "epistemic_quality": null, "accuracy": null, "activity_confidence": null, "fs_name": null, "last_movement": null, "downthrown_side_dir": null, "vert_sep_rate": null, "strike_slip_rate": null, "exposure_quality": "1", "shortening_rate": null, "notes": null, "index_right": 55, "NAME_EN": "Vietnam" }, "geometry": { "type": "LineString", "coordinates": [ [ 104.157059449551014, 19.384695074151256 ], [ 105.690379109941745, 18.762347682580899 ] ] } },
{ "type": "Feature", "properties": { "average_dip": "(90.0,,)", "average_rake": "(180.0,,)", "catalog_id": "EOS_AF0000", "catalog_name": "EOS_SE_Asia", "dip_dir": null, "lower_seis_depth": "(15.0,,)", "name": null, "net_slip_rate": null, "slip_type": "Dextral", "upper_seis_depth": "(1.0,,)", "downthrown_side_id": null, "reference": null, "epistemic_quality": null, "accuracy": null, "activity_confidence": null, "fs_name": null, "last_movement": null, "downthrown_side_dir": null, "vert_sep_rate": null, "strike_slip_rate": null, "exposure_quality": null, "shortening_rate": null, "notes": null, "index_right": 55, "NAME_EN": "Vietnam" }, "geometry": { "type": "LineString", "coordinates": [ [ 103.225, 23.075 ], [ 103.254, 23.069 ], [ 103.309, 23.044 ], [ 103.402, 22.996 ], [ 103.441, 22.971 ], [ 103.467, 22.957 ], [ 103.503, 22.921 ], [ 103.548, 22.89 ], [ 103.59, 22.851 ], [ 103.617, 22.832 ], [ 103.642, 22.804 ], [ 103.708, 22.744 ], [ 103.756, 22.703 ], [ 103.819, 22.634 ], [ 103.874, 22.58 ], [ 103.937, 22.531 ], [ 104.03, 22.451 ], [ 104.066, 22.418 ], [ 104.117, 22.376 ], [ 104.198, 22.313 ], [ 104.292, 22.236 ], [ 104.371, 22.167 ], [ 104.445, 22.095 ], [ 104.559, 21.994 ], [ 104.581, 21.98 ], [ 104.709, 21.869 ], [ 106.292, 20.153 ] ] } },
{ "type": "Feature", "properties": { "average_dip": "(90.0,,)", "average_rake": "(0.0,,)", "catalog_id": "EOS_AF0079", "catalog_name": "EOS_SE_Asia", "dip_dir": null, "lower_seis_depth": "(15.0,,)", "name": null, "net_slip_rate": null, "slip_type": "Sinistral", "upper_seis_depth": "(1.0,,)", "downthrown_side_id": null, "reference": null, "epistemic_quality": null, "accuracy": null, "activity_confidence": null, "fs_name": null, "last_movement": null, "downthrown_side_dir": null, "vert_sep_rate": null, "strike_slip_rate": null, "exposure_quality": null, "shortening_rate": null, "notes": null, "index_right": 55, "NAME_EN": "Vietnam" }, "geometry": { "type": "LineString", "coordinates": [ [ 103.196, 22.387 ], [ 103.189, 22.36 ], [ 103.188, 22.346 ], [ 103.185, 22.335 ], [ 103.184, 22.32 ], [ 103.177, 22.278 ], [ 103.175, 22.243 ], [ 103.164, 22.129 ], [ 103.159, 22.028 ], [ 103.138, 21.924 ], [ 103.12, 21.805 ], [ 103.093, 21.77 ], [ 103.071, 21.677 ], [ 103.028, 21.587 ], [ 103.021, 21.559 ], [ 103.016, 21.383 ], [ 103.027, 21.274 ] ] } },
{ "type": "Feature", "properties": { "average_dip": "(90.0,,)", "average_rake": "(0.0,,)", "catalog_id": "EOS_AF0080", "catalog_name": "EOS_SE_Asia", "dip_dir": null, "lower_seis_depth": "(15.0,,)", "name": null, "net_slip_rate": null, "slip_type": "Sinistral", "upper_seis_depth": "(1.0,,)", "downthrown_side_id": null, "reference": null, "epistemic_quality": null, "accuracy": null, "activity_confidence": null, "fs_name": null, "last_movement": null, "downthrown_side_dir": null, "vert_sep_rate": null, "strike_slip_rate": null, "exposure_quality": null, "shortening_rate": null, "notes": null, "index_right": 55, "NAME_EN": "Vietnam" }, "geometry": { "type": "LineString", "coordinates": [ [ 102.972, 21.515 ], [ 102.956, 21.492 ], [ 102.933, 21.454 ], [ 102.92, 21.438 ], [ 102.889, 21.407 ], [ 102.858, 21.363 ], [ 102.853, 21.341 ], [ 102.851, 21.309 ], [ 102.823, 21.261 ] ] } },
{ "type": "Feature", "properties": { "average_dip": "(90.0,,)", "average_rake": "(180.0,,)", "catalog_id": "EOS_AF0093", "catalog_name": "EOS_SE_Asia", "dip_dir": null, "lower_seis_depth": "(15.0,,)", "name": null, "net_slip_rate": null, "slip_type": "Dextral", "upper_seis_depth": "(1.0,,)", "downthrown_side_id": null, "reference": null, "epistemic_quality": null, "accuracy": null, "activity_confidence": null, "fs_name": null, "last_movement": null, "downthrown_side_dir": null, "vert_sep_rate": null, "strike_slip_rate": null, "exposure_quality": null, "shortening_rate": null, "notes": null, "index_right": 55, "NAME_EN": "Vietnam" }, "geometry": { "type": "LineString", "coordinates": [ [ 103.383, 21.753 ], [ 103.394, 21.72 ], [ 103.401, 21.708 ], [ 103.405, 21.686 ], [ 103.409, 21.676 ], [ 103.411, 21.664 ], [ 103.412, 21.631 ], [ 103.415, 21.621 ], [ 103.416, 21.595 ], [ 103.422, 21.571 ], [ 103.431, 21.544 ], [ 103.435, 21.538 ], [ 103.455, 21.484 ], [ 103.471, 21.45 ], [ 103.502, 21.407 ], [ 103.529, 21.355 ], [ 103.55, 21.307 ], [ 103.595, 21.231 ] ] } },
{ "type": "Feature", "properties": { "average_dip": "(90.0,,)", "average_rake": "(180.0,,)", "catalog_id": "EOS_AF0100", "catalog_name": "EOS_SE_Asia", "dip_dir": null, "lower_seis_depth": "(15.0,,)", "name": null, "net_slip_rate": null, "slip_type": "Dextral", "upper_seis_depth": "(1.0,,)", "downthrown_side_id": null, "reference": null, "epistemic_quality": null, "accuracy": null, "activity_confidence": null, "fs_name": null, "last_movement": null, "downthrown_side_dir": null, "vert_sep_rate": null, "strike_slip_rate": null, "exposure_quality": null, "shortening_rate": null, "notes": null, "index_right": 55, "NAME_EN": "Vietnam" }, "geometry": { "type": "LineString", "coordinates": [ [ 102.573, 22.176 ], [ 102.538, 22.205 ], [ 102.5, 22.233 ], [ 102.458, 22.267 ], [ 102.432, 22.291 ], [ 102.399, 22.312 ], [ 102.347, 22.351 ], [ 102.313, 22.371 ], [ 102.283, 22.379 ], [ 102.259, 22.375 ] ] } },
{ "type": "Feature", "properties": { "average_dip": "(90.0,,)", "average_rake": "(180.0,,)", "catalog_id": "EOS_AF0102", "catalog_name": "EOS_SE_Asia", "dip_dir": null, "lower_seis_depth": "(15.0,,)", "name": null, "net_slip_rate": null, "slip_type": "Dextral", "upper_seis_depth": "(1.0,,)", "downthrown_side_id": null, "reference": null, "epistemic_quality": null, "accuracy": null, "activity_confidence": null, "fs_name": null, "last_movement": null, "downthrown_side_dir": null, "vert_sep_rate": null, "strike_slip_rate": null, "exposure_quality": null, "shortening_rate": null, "notes": null, "index_right": 55, "NAME_EN": "Vietnam" }, "geometry": { "type": "LineString", "coordinates": [ [ 102.667, 22.425 ], [ 102.681, 22.416 ], [ 102.721, 22.403 ], [ 102.76, 22.398 ], [ 102.797, 22.385 ], [ 102.824, 22.367 ], [ 102.844, 22.361 ], [ 102.896, 22.338 ], [ 103.02, 22.279 ], [ 103.062, 22.256 ] ] } },
{ "type": "Feature", "properties": { "average_dip": "(90.0,,)", "average_rake": "(180.0,,)", "catalog_id": "EOS_AF0243", "catalog_name": "EOS_SE_Asia", "dip_dir": null, "lower_seis_depth": "(15.0,,)", "name": null, "net_slip_rate": null, "slip_type": "Dextral", "upper_seis_depth": "(1.0,,)", "downthrown_side_id": null, "reference": null, "epistemic_quality": null, "accuracy": null, "activity_confidence": null, "fs_name": null, "last_movement": null, "downthrown_side_dir": null, "vert_sep_rate": null, "strike_slip_rate": null, "exposure_quality": null, "shortening_rate": null, "notes": null, "index_right": 55, "NAME_EN": "Vietnam" }, "geometry": { "type": "LineString", "coordinates": [ [ 104.012, 19.402 ], [ 104.046, 19.401 ], [ 104.143, 19.392 ], [ 104.178, 19.385 ], [ 104.318, 19.335 ], [ 104.559, 19.23 ] ] } },
{ "type": "Feature", "properties": { "average_dip": "(90.0,,)", "average_rake": "(180.0,,)", "catalog_id": "EOS_AF0244", "catalog_name": "EOS_SE_Asia", "dip_dir": null, "lower_seis_depth": "(15.0,,)", "name": null, "net_slip_rate": null, "slip_type": "Dextral", "upper_seis_depth": "(1.0,,)", "downthrown_side_id": null, "reference": null, "epistemic_quality": null, "accuracy": null, "activity_confidence": null, "fs_name": null, "last_movement": null, "downthrown_side_dir": null, "vert_sep_rate": null, "strike_slip_rate": null, "exposure_quality": null, "shortening_rate": null, "notes": null, "index_right": 55, "NAME_EN": "Vietnam" }, "geometry": { "type": "LineString", "coordinates": [ [ 104.219, 19.393 ], [ 104.3, 19.374 ], [ 104.36, 19.364 ], [ 104.374, 19.359 ], [ 104.413, 19.35 ], [ 104.454, 19.343 ], [ 104.471, 19.337 ], [ 104.486, 19.336 ], [ 104.524, 19.329 ], [ 104.641, 19.292 ], [ 104.75, 19.28 ], [ 104.846, 19.255 ], [ 104.903, 19.236 ], [ 104.991, 19.22 ] ] } },
{ "type": "Feature", "properties": { "average_dip": "(90.0,,)", "average_rake": "(180.0,,)", "catalog_id": "EOS_AF0365", "catalog_name": "EOS_SE_Asia", "dip_dir": null, "lower_seis_depth": "(15.0,,)", "name": null, "net_slip_rate": null, "slip_type": "Dextral", "upper_seis_depth": "(1.0,,)", "downthrown_side_id": null, "reference": null, "epistemic_quality": null, "accuracy": null, "activity_confidence": null, "fs_name": null, "last_movement": null, "downthrown_side_dir": null, "vert_sep_rate": null, "strike_slip_rate": null, "exposure_quality": null, "shortening_rate": null, "notes": null, "index_right": 55, "NAME_EN": "Vietnam" }, "geometry": { "type": "LineString", "coordinates": [ [ 103.528, 22.443 ], [ 103.575, 22.427 ], [ 103.6, 22.415 ], [ 103.632, 22.406 ], [ 103.653, 22.398 ], [ 103.691, 22.391 ], [ 103.794, 22.355 ], [ 103.825, 22.333 ], [ 103.863, 22.312 ], [ 103.9, 22.296 ], [ 103.968, 22.262 ], [ 104.002, 22.24 ], [ 104.035, 22.216 ], [ 104.069, 22.184 ] ] } },
{ "type": "Feature", "properties": { "average_dip": "(90.0,,)", "average_rake": "(180.0,,)", "catalog_id": "EOS_AF0366", "catalog_name": "EOS_SE_Asia", "dip_dir": null, "lower_seis_depth": "(15.0,,)", "name": null, "net_slip_rate": null, "slip_type": "Dextral", "upper_seis_depth": "(1.0,,)", "downthrown_side_id": null, "reference": null, "epistemic_quality": null, "accuracy": null, "activity_confidence": null, "fs_name": null, "last_movement": null, "downthrown_side_dir": null, "vert_sep_rate": null, "strike_slip_rate": null, "exposure_quality": null, "shortening_rate": null, "notes": null, "index_right": 55, "NAME_EN": "Vietnam" }, "geometry": { "type": "LineString", "coordinates": [ [ 103.645, 22.367 ], [ 103.721, 22.344 ], [ 103.767, 22.327 ], [ 103.805, 22.308 ], [ 103.834, 22.281 ], [ 103.857, 22.253 ], [ 103.871, 22.233 ], [ 103.896, 22.207 ] ] } },
{ "type": "Feature", "properties": { "average_dip": "(90.0,,)", "average_rake": "(180.0,,)", "catalog_id": "EOS_AF0369", "catalog_name": "EOS_SE_Asia", "dip_dir": null, "lower_seis_depth": "(15.0,,)", "name": null, "net_slip_rate": null, "slip_type": "Dextral", "upper_seis_depth": "(1.0,,)", "downthrown_side_id": null, "reference": null, "epistemic_quality": null, "accuracy": null, "activity_confidence": null, "fs_name": null, "last_movement": null, "downthrown_side_dir": null, "vert_sep_rate": null, "strike_slip_rate": null, "exposure_quality": null, "shortening_rate": null, "notes": null, "index_right": 55, "NAME_EN": "Vietnam" }, "geometry": { "type": "LineString", "coordinates": [ [ 104.46, 23.01 ], [ 104.556, 23.027 ], [ 104.583, 23.03 ], [ 104.619, 23.028 ], [ 104.659, 23.016 ], [ 104.792, 22.961 ], [ 104.889, 22.903 ], [ 105.003, 22.849 ], [ 105.207, 22.767 ], [ 105.334, 22.734 ], [ 105.368, 22.729 ] ] } },
{ "type": "Feature", "properties": { "average_dip": "(90.0,,)", "average_rake": "(0.0,,)", "catalog_id": "EOS_AF0378", "catalog_name": "EOS_SE_Asia", "dip_dir": null, "lower_seis_depth": "(15.0,,)", "name": null, "net_slip_rate": null, "slip_type": "Sinistral", "upper_seis_depth": "(1.0,,)", "downthrown_side_id": null, "reference": null, "epistemic_quality": null, "accuracy": null, "activity_confidence": null, "fs_name": null, "last_movement": null, "downthrown_side_dir": null, "vert_sep_rate": null, "strike_slip_rate": null, "exposure_quality": null, "shortening_rate": null, "notes": null, "index_right": 55, "NAME_EN": "Vietnam" }, "geometry": { "type": "LineString", "coordinates": [ [ 102.787, 21.928 ], [ 102.807, 21.885 ], [ 102.832, 21.82 ], [ 102.838, 21.787 ], [ 102.839, 21.722 ], [ 102.836, 21.699 ], [ 102.821, 21.621 ], [ 102.814, 21.593 ] ] } },
{ "type": "Feature", "properties": { "average_dip": "(90.0,,)", "average_rake": "(180.0,,)", "catalog_id": "EOS_AF0382", "catalog_name": "EOS_SE_Asia", "dip_dir": null, "lower_seis_depth": "(15.0,,)", "name": null, "net_slip_rate": null, "slip_type": "Dextral", "upper_seis_depth": "(1.0,,)", "downthrown_side_id": null, "reference": null, "epistemic_quality": null, "accuracy": null, "activity_confidence": null, "fs_name": null, "last_movement": null, "downthrown_side_dir": null, "vert_sep_rate": null, "strike_slip_rate": null, "exposure_quality": null, "shortening_rate": null, "notes": null, "index_right": 55, "NAME_EN": "Vietnam" }, "geometry": { "type": "LineString", "coordinates": [ [ 102.155, 22.736 ], [ 102.187, 22.722 ], [ 102.225, 22.697 ], [ 102.271, 22.673 ], [ 102.362, 22.651 ], [ 102.393, 22.641 ], [ 102.439, 22.62 ], [ 102.461, 22.607 ], [ 102.498, 22.58 ], [ 102.624, 22.465 ] ] } },
{ "type": "Feature", "properties": { "average_dip": "(90.0,,)", "average_rake": "(180.0,,)", "catalog_id": "EOS_AF0384", "catalog_name": "EOS_SE_Asia", "dip_dir": null, "lower_seis_depth": "(15.0,,)", "name": null, "net_slip_rate": null, "slip_type": "Dextral", "upper_seis_depth": "(1.0,,)", "downthrown_side_id": null, "reference": null, "epistemic_quality": null, "accuracy": null, "activity_confidence": null, "fs_name": null, "last_movement": null, "downthrown_side_dir": null, "vert_sep_rate": null, "strike_slip_rate": null, "exposure_quality": null, "shortening_rate": null, "notes": null, "index_right": 55, "NAME_EN": "Vietnam" }, "geometry": { "type": "LineString", "coordinates": [ [ 106.256, 22.688 ], [ 106.3, 22.614 ], [ 106.331, 22.546 ], [ 106.339, 22.494 ], [ 106.428, 22.296 ], [ 106.496, 22.208 ], [ 106.549, 22.16 ], [ 106.608, 22.06 ], [ 106.669, 21.977 ], [ 106.737, 21.898 ], [ 106.806, 21.835 ], [ 106.876, 21.78 ], [ 106.92, 21.742 ], [ 106.971, 21.691 ], [ 107.014, 21.634 ], [ 107.044, 21.599 ], [ 107.127, 21.521 ], [ 107.161, 21.481 ], [ 107.211, 21.432 ], [ 107.271, 21.39 ], [ 107.326, 21.364 ], [ 107.408, 21.329 ], [ 107.462, 21.317 ] ] } },
{ "type": "Feature", "properties": { "average_dip": "(90.0,,)", "average_rake": "(180.0,,)", "catalog_id": "EOS_AF0385", "catalog_name": "EOS_SE_Asia", "dip_dir": null, "lower_seis_depth": "(15.0,,)", "name": null, "net_slip_rate": null, "slip_type": "Dextral", "upper_seis_depth": "(1.0,,)", "downthrown_side_id": null, "reference": null, "epistemic_quality": null, "accuracy": null, "activity_confidence": null, "fs_name": null, "last_movement": null, "downthrown_side_dir": null, "vert_sep_rate": null, "strike_slip_rate": null, "exposure_quality": null, "shortening_rate": null, "notes": null, "index_right": 55, "NAME_EN": "Vietnam" }, "geometry": { "type": "LineString", "coordinates": [ [ 105.687, 23.431 ], [ 105.729, 23.408 ], [ 105.775, 23.378 ], [ 105.815, 23.327 ], [ 105.844, 23.283 ], [ 105.874, 23.226 ], [ 105.899, 23.16 ], [ 105.917, 23.105 ], [ 106.01, 22.901 ], [ 106.04, 22.842 ], [ 106.08, 22.78 ], [ 106.122, 22.731 ], [ 106.162, 22.696 ], [ 106.199, 22.659 ], [ 106.217, 22.628 ], [ 106.237, 22.556 ], [ 106.285, 22.472 ] ] } },
{ "type": "Feature", "properties": { "average_dip": "(90.0,,)", "average_rake": "(180.0,,)", "catalog_id": "EOS_AF0387", "catalog_name": "EOS_SE_Asia", "dip_dir": null, "lower_seis_depth": "(15.0,,)", "name": null, "net_slip_rate": null, "slip_type": "Dextral", "upper_seis_depth": "(1.0,,)", "downthrown_side_id": null, "reference": null, "epistemic_quality": null, "accuracy": null, "activity_confidence": null, "fs_name": null, "last_movement": null, "downthrown_side_dir": null, "vert_sep_rate": null, "strike_slip_rate": null, "exposure_quality": null, "shortening_rate": null, "notes": null, "index_right": 55, "NAME_EN": "Vietnam" }, "geometry": { "type": "LineString", "coordinates": [ [ 104.072, 22.511 ], [ 104.198, 22.414 ], [ 104.355, 22.301 ], [ 104.417, 22.26 ], [ 104.512, 22.217 ], [ 104.592, 22.174 ], [ 104.666, 22.116 ], [ 104.939, 21.821 ], [ 105.01, 21.739 ], [ 105.064, 21.681 ] ] } },
{ "type": "Feature", "properties": { "average_dip": "(90.0,,)", "average_rake": "(180.0,,)", "catalog_id": "EOS_AF0388", "catalog_name": "EOS_SE_Asia", "dip_dir": null, "lower_seis_depth": "(15.0,,)", "name": null, "net_slip_rate": null, "slip_type": "Dextral", "upper_seis_depth": "(1.0,,)", "downthrown_side_id": null, "reference": null, "epistemic_quality": null, "accuracy": null, "activity_confidence": null, "fs_name": null, "last_movement": null, "downthrown_side_dir": null, "vert_sep_rate": null, "strike_slip_rate": null, "exposure_quality": null, "shortening_rate": null, "notes": null, "index_right": 55, "NAME_EN": "Vietnam" }, "geometry": { "type": "LineString", "coordinates": [ [ 105.663, 22.894 ], [ 105.693, 22.81 ], [ 105.703, 22.771 ], [ 105.701, 22.728 ], [ 105.716, 22.687 ], [ 105.732, 22.635 ], [ 105.79, 22.55 ], [ 105.833, 22.47 ], [ 105.881, 22.404 ], [ 105.904, 22.344 ], [ 105.917, 22.271 ], [ 105.931, 22.224 ], [ 105.927, 22.179 ], [ 105.889, 22.085 ], [ 105.861, 22.034 ], [ 105.84, 21.979 ], [ 105.804, 21.923 ], [ 105.784, 21.885 ] ] } },
{ "type": "Feature", "properties": { "average_dip": "(90.0,,)", "average_rake": "(180.0,,)", "catalog_id": "EOS_AF0389", "catalog_name": "EOS_SE_Asia", "dip_dir": null, "lower_seis_depth": "(15.0,,)", "name": null, "net_slip_rate": null, "slip_type": "Dextral", "upper_seis_depth": "(1.0,,)", "downthrown_side_id": null, "reference": null, "epistemic_quality": null, "accuracy": null, "activity_confidence": null, "fs_name": null, "last_movement": null, "downthrown_side_dir": null, "vert_sep_rate": null, "strike_slip_rate": null, "exposure_quality": null, "shortening_rate": null, "notes": null, "index_right": 55, "NAME_EN": "Vietnam" }, "geometry": { "type": "LineString", "coordinates": [ [ 105.842, 23.356 ], [ 105.92, 23.329 ], [ 105.979, 23.3 ], [ 106.027, 23.269 ], [ 106.112, 23.184 ], [ 106.172, 23.139 ], [ 106.248, 23.089 ], [ 106.309, 23.052 ], [ 106.353, 23.014 ], [ 106.388, 22.974 ], [ 106.429, 22.941 ], [ 106.485, 22.911 ], [ 106.611, 22.834 ] ] } },
{ "type": "Feature", "properties": { "average_dip": "(90.0,,)", "average_rake": "(180.0,,)", "catalog_id": "EOS_AF0390", "catalog_name": "EOS_SE_Asia", "dip_dir": null, "lower_seis_depth": "(15.0,,)", "name": null, "net_slip_rate": null, "slip_type": "Dextral", "upper_seis_depth": "(1.0,,)", "downthrown_side_id": null, "reference": null, "epistemic_quality": null, "accuracy": null, "activity_confidence": null, "fs_name": null, "last_movement": null, "downthrown_side_dir": null, "vert_sep_rate": null, "strike_slip_rate": null, "exposure_quality": null, "shortening_rate": null, "notes": null, "index_right": 55, "NAME_EN": "Vietnam" }, "geometry": { "type": "LineString", "coordinates": [ [ 103.997, 21.661 ], [ 104.03, 21.653 ], [ 104.103, 21.631 ], [ 104.131, 21.62 ], [ 104.161, 21.604 ], [ 104.181, 21.596 ], [ 104.219, 21.59 ], [ 104.235, 21.586 ], [ 104.279, 21.564 ], [ 104.301, 21.549 ], [ 104.312, 21.538 ], [ 104.331, 21.528 ], [ 104.378, 21.518 ], [ 104.43, 21.515 ], [ 104.456, 21.516 ], [ 104.503, 21.532 ], [ 104.562, 21.561 ] ] } },
{ "type": "Feature", "properties": { "average_dip": "(90.0,,)", "average_rake": "(180.0,,)", "catalog_id": "EOS_AF0391", "catalog_name": "EOS_SE_Asia", "dip_dir": null, "lower_seis_depth": "(15.0,,)", "name": null, "net_slip_rate": null, "slip_type": "Dextral", "upper_seis_depth": "(1.0,,)", "downthrown_side_id": null, "reference": null, "epistemic_quality": null, "accuracy": null, "activity_confidence": null, "fs_name": null, "last_movement": null, "downthrown_side_dir": null, "vert_sep_rate": null, "strike_slip_rate": null, "exposure_quality": null, "shortening_rate": null, "notes": null, "index_right": 55, "NAME_EN": "Vietnam" }, "geometry": { "type": "LineString", "coordinates": [ [ 103.253, 21.935 ], [ 103.283, 21.85 ], [ 103.304, 21.802 ], [ 103.36, 21.693 ], [ 103.364, 21.665 ], [ 103.359, 21.613 ], [ 103.367, 21.571 ], [ 103.374, 21.554 ] ] } },
{ "type": "Feature", "properties": { "average_dip": "(90.0,,)", "average_rake": "(180.0,,)", "catalog_id": "EOS_AF0393", "catalog_name": "EOS_SE_Asia", "dip_dir": null, "lower_seis_depth": "(15.0,,)", "name": null, "net_slip_rate": null, "slip_type": "Dextral", "upper_seis_depth": "(1.0,,)", "downthrown_side_id": null, "reference": null, "epistemic_quality": null, "accuracy": null, "activity_confidence": null, "fs_name": null, "last_movement": null, "downthrown_side_dir": null, "vert_sep_rate": null, "strike_slip_rate": null, "exposure_quality": null, "shortening_rate": null, "notes": null, "index_right": 55, "NAME_EN": "Vietnam" }, "geometry": { "type": "LineString", "coordinates": [ [ 103.644, 20.878 ], [ 103.817, 20.814 ], [ 103.844, 20.802 ], [ 103.891, 20.791 ], [ 103.903, 20.793 ] ] } },
{ "type": "Feature", "properties": { "average_dip": "(90.0,,)", "average_rake": "(0.0,,)", "catalog_id": "EOS_AF0394", "catalog_name": "EOS_SE_Asia", "dip_dir": null, "lower_seis_depth": "(15.0,,)", "name": null, "net_slip_rate": null, "slip_type": "Sinistral", "upper_seis_depth": "(1.0,,)", "downthrown_side_id": null, "reference": null, "epistemic_quality": null, "accuracy": null, "activity_confidence": null, "fs_name": null, "last_movement": null, "downthrown_side_dir": null, "vert_sep_rate": null, "strike_slip_rate": null, "exposure_quality": null, "shortening_rate": null, "notes": null, "index_right": 55, "NAME_EN": "Vietnam" }, "geometry": { "type": "LineString", "coordinates": [ [ 103.03, 21.265 ], [ 103.034, 21.242 ], [ 103.043, 21.209 ], [ 103.07, 21.124 ], [ 103.106, 21.046 ], [ 103.125, 21.012 ], [ 103.157, 20.981 ], [ 103.198, 20.961 ], [ 103.235, 20.944 ], [ 103.263, 20.939 ], [ 103.312, 20.918 ], [ 103.325, 20.918 ] ] } },
{ "type": "Feature", "properties": { "average_dip": "(90.0,,)", "average_rake": "(180.0,,)", "catalog_id": "EOS_AF0395", "catalog_name": "EOS_SE_Asia", "dip_dir": null, "lower_seis_depth": "(15.0,,)", "name": null, "net_slip_rate": null, "slip_type": "Dextral", "upper_seis_depth": "(1.0,,)", "downthrown_side_id": null, "reference": null, "epistemic_quality": null, "accuracy": null, "activity_confidence": null, "fs_name": null, "last_movement": null, "downthrown_side_dir": null, "vert_sep_rate": null, "strike_slip_rate": null, "exposure_quality": null, "shortening_rate": null, "notes": null, "index_right": 55, "NAME_EN": "Vietnam" }, "geometry": { "type": "LineString", "coordinates": [ [ 104.404, 20.498 ], [ 104.469, 20.489 ], [ 104.551, 20.472 ], [ 104.632, 20.459 ], [ 104.709, 20.444 ], [ 104.745, 20.452 ], [ 104.784, 20.446 ], [ 104.821, 20.434 ], [ 104.837, 20.431 ] ] } },
{ "type": "Feature", "properties": { "average_dip": "(90.0,,)", "average_rake": "(180.0,,)", "catalog_id": "EOS_AF0396", "catalog_name": "EOS_SE_Asia", "dip_dir": null, "lower_seis_depth": "(15.0,,)", "name": null, "net_slip_rate": null, "slip_type": "Dextral", "upper_seis_depth": "(1.0,,)", "downthrown_side_id": null, "reference": null, "epistemic_quality": null, "accuracy": null, "activity_confidence": null, "fs_name": null, "last_movement": null, "downthrown_side_dir": null, "vert_sep_rate": null, "strike_slip_rate": null, "exposure_quality": null, "shortening_rate": null, "notes": null, "index_right": 55, "NAME_EN": "Vietnam" }, "geometry": { "type": "LineString", "coordinates": [ [ 103.923, 20.621 ], [ 103.97, 20.603 ], [ 104.006, 20.587 ], [ 104.142, 20.541 ], [ 104.403, 20.413 ], [ 104.475, 20.396 ], [ 104.552, 20.395 ], [ 104.623, 20.397 ], [ 104.696, 20.404 ], [ 104.794, 20.427 ], [ 104.837, 20.431 ] ] } },
{ "type": "Feature", "properties": { "average_dip": "(90.0,,)", "average_rake": "(180.0,,)", "catalog_id": "EOS_AF0397", "catalog_name": "EOS_SE_Asia", "dip_dir": null, "lower_seis_depth": "(15.0,,)", "name": null, "net_slip_rate": null, "slip_type": "Dextral", "upper_seis_depth": "(1.0,,)", "downthrown_side_id": null, "reference": null, "epistemic_quality": null, "accuracy": null, "activity_confidence": null, "fs_name": null, "last_movement": null, "downthrown_side_dir": null, "vert_sep_rate": null, "strike_slip_rate": null, "exposure_quality": null, "shortening_rate": null, "notes": null, "index_right": 55, "NAME_EN": "Vietnam" }, "geometry": { "type": "LineString", "coordinates": [ [ 103.538, 21.005 ], [ 103.598, 20.979 ], [ 103.659, 20.956 ], [ 103.748, 20.917 ], [ 103.857, 20.846 ], [ 103.891, 20.819 ], [ 103.907, 20.798 ] ] } },
{ "type": "Feature", "properties": { "average_dip": "(90.0,,)", "average_rake": "(180.0,,)", "catalog_id": "EOS_AF0402", "catalog_name": "EOS_SE_Asia", "dip_dir": null, "lower_seis_depth": "(15.0,,)", "name": null, "net_slip_rate": null, "slip_type": "Dextral", "upper_seis_depth": "(1.0,,)", "downthrown_side_id": null, "reference": null, "epistemic_quality": null, "accuracy": null, "activity_confidence": null, "fs_name": null, "last_movement": null, "downthrown_side_dir": null, "vert_sep_rate": null, "strike_slip_rate": null, "exposure_quality": null, "shortening_rate": null, "notes": null, "index_right": 55, "NAME_EN": "Vietnam" }, "geometry": { "type": "LineString", "coordinates": [ [ 104.038, 21.02 ], [ 103.98, 21.053 ], [ 103.928, 21.08 ], [ 103.91, 21.091 ], [ 103.893, 21.105 ], [ 103.848, 21.132 ], [ 103.829, 21.146 ], [ 103.801, 21.16 ], [ 103.766, 21.176 ], [ 103.739, 21.181 ], [ 103.708, 21.193 ], [ 103.66, 21.205 ], [ 103.638, 21.22 ], [ 103.615, 21.251 ], [ 103.596, 21.282 ] ] } },
{ "type": "Feature", "properties": { "average_dip": "(90.0,,)", "average_rake": "(180.0,,)", "catalog_id": "EOS_AF0406", "catalog_name": "EOS_SE_Asia", "dip_dir": null, "lower_seis_depth": "(15.0,,)", "name": null, "net_slip_rate": null, "slip_type": "Dextral", "upper_seis_depth": "(1.0,,)", "downthrown_side_id": null, "reference": null, "epistemic_quality": null, "accuracy": null, "activity_confidence": null, "fs_name": null, "last_movement": null, "downthrown_side_dir": null, "vert_sep_rate": null, "strike_slip_rate": null, "exposure_quality": null, "shortening_rate": null, "notes": null, "index_right": 55, "NAME_EN": "Vietnam" }, "geometry": { "type": "LineString", "coordinates": [ [ 103.813, 19.286 ], [ 103.836, 19.297 ], [ 103.855, 19.302 ], [ 103.897, 19.307 ], [ 103.946, 19.302 ], [ 104.009, 19.291 ], [ 104.055, 19.276 ], [ 104.117, 19.261 ], [ 104.152, 19.259 ], [ 104.16, 19.262 ] ] } },
{ "type": "Feature", "properties": { "average_dip": "(90.0,,)", "average_rake": "(180.0,,)", "catalog_id": "EOS_AF0408", "catalog_name": "EOS_SE_Asia", "dip_dir": null, "lower_seis_depth": "(15.0,,)", "name": null, "net_slip_rate": null, "slip_type": "Dextral", "upper_seis_depth": "(1.0,,)", "downthrown_side_id": null, "reference": null, "epistemic_quality": null, "accuracy": null, "activity_confidence": null, "fs_name": null, "last_movement": null, "downthrown_side_dir": null, "vert_sep_rate": null, "strike_slip_rate": null, "exposure_quality": null, "shortening_rate": null, "notes": null, "index_right": 55, "NAME_EN": "Vietnam" }, "geometry": { "type": "LineString", "coordinates": [ [ 104.389, 19.259 ], [ 104.447, 19.238 ], [ 104.581, 19.184 ], [ 104.641, 19.162 ], [ 104.691, 19.148 ] ] } },
{ "type": "Feature", "properties": { "average_dip": "(90.0,,)", "average_rake": "(0.0,,)", "catalog_id": "EOS_AF0409", "catalog_name": "EOS_SE_Asia", "dip_dir": null, "lower_seis_depth": "(15.0,,)", "name": null, "net_slip_rate": null, "slip_type": "Sinistral", "upper_seis_depth": "(1.0,,)", "downthrown_side_id": null, "reference": null, "epistemic_quality": null, "accuracy": null, "activity_confidence": null, "fs_name": null, "last_movement": null, "downthrown_side_dir": null, "vert_sep_rate": null, "strike_slip_rate": null, "exposure_quality": null, "shortening_rate": null, "notes": null, "index_right": 55, "NAME_EN": "Vietnam" }, "geometry": { "type": "LineString", "coordinates": [ [ 104.13, 23.206 ], [ 104.11, 23.175 ], [ 104.073, 23.105 ], [ 104.062, 23.08 ], [ 104.056, 23.052 ], [ 104.055, 23.02 ], [ 104.044, 22.971 ], [ 104.028, 22.879 ], [ 104.025, 22.847 ], [ 104.01, 22.778 ], [ 104.004, 22.743 ], [ 103.999, 22.681 ], [ 104.002, 22.624 ], [ 104.009, 22.599 ], [ 104.009, 22.58 ] ] } },
{ "type": "Feature", "properties": { "average_dip": "(90.0,,)", "average_rake": "(180.0,,)", "catalog_id": "EOS_AF0410", "catalog_name": "EOS_SE_Asia", "dip_dir": null, "lower_seis_depth": "(15.0,,)", "name": null, "net_slip_rate": null, "slip_type": "Dextral", "upper_seis_depth": "(1.0,,)", "downthrown_side_id": null, "reference": null, "epistemic_quality": null, "accuracy": null, "activity_confidence": null, "fs_name": null, "last_movement": null, "downthrown_side_dir": null, "vert_sep_rate": null, "strike_slip_rate": null, "exposure_quality": null, "shortening_rate": null, "notes": null, "index_right": 55, "NAME_EN": "Vietnam" }, "geometry": { "type": "LineString", "coordinates": [ [ 104.175, 20.366 ], [ 104.198, 20.366 ], [ 104.23, 20.363 ], [ 104.298, 20.35 ], [ 104.325, 20.343 ], [ 104.447, 20.318 ], [ 104.506, 20.313 ], [ 104.559, 20.306 ], [ 104.634, 20.304 ], [ 104.69, 20.308 ], [ 104.793, 20.307 ], [ 104.855, 20.312 ], [ 104.881, 20.309 ], [ 104.909, 20.302 ], [ 104.942, 20.291 ], [ 105.002, 20.268 ] ] } },
{ "type": "Feature", "properties": { "average_dip": "(90.0,,)", "average_rake": "(180.0,,)", "catalog_id": "EOS_AF0411", "catalog_name": "EOS_SE_Asia", "dip_dir": null, "lower_seis_depth": "(15.0,,)", "name": null, "net_slip_rate": null, "slip_type": "Dextral", "upper_seis_depth": "(1.0,,)", "downthrown_side_id": null, "reference": null, "epistemic_quality": null, "accuracy": null, "activity_confidence": null, "fs_name": null, "last_movement": null, "downthrown_side_dir": null, "vert_sep_rate": null, "strike_slip_rate": null, "exposure_quality": null, "shortening_rate": null, "notes": null, "index_right": 55, "NAME_EN": "Vietnam" }, "geometry": { "type": "LineString", "coordinates": [ [ 105.174, 22.767 ], [ 105.255, 22.682 ], [ 105.346, 22.603 ], [ 105.389, 22.57 ], [ 105.422, 22.548 ], [ 105.448, 22.524 ], [ 105.498, 22.485 ], [ 105.554, 22.448 ] ] } },
{ "type": "Feature", "properties": { "average_dip": "(90.0,,)", "average_rake": "(0.0,,)", "catalog_id": "EOS_AF0412", "catalog_name": "EOS_SE_Asia", "dip_dir": null, "lower_seis_depth": "(15.0,,)", "name": null, "net_slip_rate": null, "slip_type": "Sinistral", "upper_seis_depth": "(1.0,,)", "downthrown_side_id": null, "reference": null, "epistemic_quality": null, "accuracy": null, "activity_confidence": null, "fs_name": null, "last_movement": null, "downthrown_side_dir": null, "vert_sep_rate": null, "strike_slip_rate": null, "exposure_quality": null, "shortening_rate": null, "notes": null, "index_right": 55, "NAME_EN": "Vietnam" }, "geometry": { "type": "LineString", "coordinates": [ [ 104.251, 22.552 ], [ 104.314, 22.659 ], [ 104.353, 22.717 ], [ 104.387, 22.767 ], [ 104.425, 22.814 ], [ 104.464, 22.866 ], [ 104.49, 22.905 ], [ 104.51, 22.948 ] ] } },
{ "type": "Feature", "properties": { "average_dip": "(90.0,,)", "average_rake": "(0.0,,)", "catalog_id": "EOS_AF0413", "catalog_name": "EOS_SE_Asia", "dip_dir": null, "lower_seis_depth": "(15.0,,)", "name": null, "net_slip_rate": null, "slip_type": "Sinistral", "upper_seis_depth": "(1.0,,)", "downthrown_side_id": null, "reference": null, "epistemic_quality": null, "accuracy": null, "activity_confidence": null, "fs_name": null, "last_movement": null, "downthrown_side_dir": null, "vert_sep_rate": null, "strike_slip_rate": null, "exposure_quality": null, "shortening_rate": null, "notes": null, "index_right": 55, "NAME_EN": "Vietnam" }, "geometry": { "type": "LineString", "coordinates": [ [ 104.41, 23.096 ], [ 104.378, 23.04 ], [ 104.312, 22.902 ], [ 104.284, 22.852 ], [ 104.266, 22.807 ], [ 104.239, 22.752 ], [ 104.213, 22.683 ], [ 104.195, 22.603 ], [ 104.185, 22.541 ], [ 104.183, 22.512 ], [ 104.185, 22.467 ] ] } },
{ "type": "Feature", "properties": { "average_dip": "(90.0,,)", "average_rake": "(180.0,,)", "catalog_id": "EOS_AF0418", "catalog_name": "EOS_SE_Asia", "dip_dir": null, "lower_seis_depth": "(15.0,,)", "name": null, "net_slip_rate": null, "slip_type": "Dextral", "upper_seis_depth": "(1.0,,)", "downthrown_side_id": null, "reference": null, "epistemic_quality": null, "accuracy": null, "activity_confidence": null, "fs_name": null, "last_movement": null, "downthrown_side_dir": null, "vert_sep_rate": null, "strike_slip_rate": null, "exposure_quality": null, "shortening_rate": null, "notes": null, "index_right": 55, "NAME_EN": "Vietnam" }, "geometry": { "type": "LineString", "coordinates": [ [ 104.502, 20.755 ], [ 104.53, 20.747 ], [ 104.548, 20.738 ], [ 104.698, 20.714 ], [ 104.735, 20.713 ], [ 104.795, 20.708 ], [ 104.812, 20.71 ], [ 104.849, 20.71 ], [ 104.894, 20.704 ], [ 104.908, 20.696 ], [ 104.939, 20.671 ], [ 104.959, 20.652 ] ] } },
{ "type": "Feature", "properties": { "average_dip": "(90.0,,)", "average_rake": "(180.0,,)", "catalog_id": "EOS_AF0419", "catalog_name": "EOS_SE_Asia", "dip_dir": null, "lower_seis_depth": "(15.0,,)", "name": null, "net_slip_rate": null, "slip_type": "Dextral", "upper_seis_depth": "(1.0,,)", "downthrown_side_id": null, "reference": null, "epistemic_quality": null, "accuracy": null, "activity_confidence": null, "fs_name": null, "last_movement": null, "downthrown_side_dir": null, "vert_sep_rate": null, "strike_slip_rate": null, "exposure_quality": null, "shortening_rate": null, "notes": null, "index_right": 55, "NAME_EN": "Vietnam" }, "geometry": { "type": "LineString", "coordinates": [ [ 106.135, 17.047 ], [ 106.172, 17.035 ], [ 106.237, 17.021 ], [ 106.259, 17.019 ], [ 106.278, 17.021 ], [ 106.31, 17.017 ], [ 106.371, 16.993 ], [ 106.448, 16.957 ], [ 106.48, 16.939 ], [ 106.508, 16.926 ], [ 106.653, 16.867 ], [ 106.687, 16.856 ], [ 106.71, 16.846 ], [ 106.731, 16.839 ] ] } },
{ "type": "Feature", "properties": { "average_dip": "(90.0,,)", "average_rake": "(180.0,,)", "catalog_id": "EOS_AF0420", "catalog_name": "EOS_SE_Asia", "dip_dir": null, "lower_seis_depth": "(15.0,,)", "name": null, "net_slip_rate": null, "slip_type": "Dextral", "upper_seis_depth": "(1.0,,)", "downthrown_side_id": null, "reference": null, "epistemic_quality": null, "accuracy": null, "activity_confidence": null, "fs_name": null, "last_movement": null, "downthrown_side_dir": null, "vert_sep_rate": null, "strike_slip_rate": null, "exposure_quality": null, "shortening_rate": null, "notes": null, "index_right": 55, "NAME_EN": "Vietnam" }, "geometry": { "type": "LineString", "coordinates": [ [ 106.692, 16.818 ], [ 106.705, 16.829 ], [ 106.718, 16.835 ], [ 106.737, 16.838 ], [ 106.761, 16.836 ], [ 106.785, 16.833 ], [ 106.813, 16.825 ], [ 106.905, 16.791 ], [ 106.93, 16.784 ], [ 106.967, 16.78 ], [ 106.998, 16.783 ] ] } },
{ "type": "Feature", "properties": { "average_dip": "(90.0,,)", "average_rake": "(180.0,,)", "catalog_id": "EOS_AF0421", "catalog_name": "EOS_SE_Asia", "dip_dir": null, "lower_seis_depth": "(15.0,,)", "name": null, "net_slip_rate": null, "slip_type": "Dextral", "upper_seis_depth": "(1.0,,)", "downthrown_side_id": null, "reference": null, "epistemic_quality": null, "accuracy": null, "activity_confidence": null, "fs_name": null, "last_movement": null, "downthrown_side_dir": null, "vert_sep_rate": null, "strike_slip_rate": null, "exposure_quality": null, "shortening_rate": null, "notes": null, "index_right": 55, "NAME_EN": "Vietnam" }, "geometry": { "type": "LineString", "coordinates": [ [ 107.083, 16.435 ], [ 107.1, 16.404 ], [ 107.13, 16.37 ], [ 107.162, 16.34 ], [ 107.228, 16.283 ], [ 107.279, 16.222 ], [ 107.311, 16.178 ], [ 107.344, 16.122 ], [ 107.375, 16.077 ], [ 107.398, 16.046 ], [ 107.428, 16.014 ], [ 107.432, 15.956 ], [ 107.44, 15.926 ], [ 107.449, 15.913 ], [ 107.482, 15.887 ] ] } },
{ "type": "Feature", "properties": { "average_dip": "(90.0,,)", "average_rake": "(180.0,,)", "catalog_id": "EOS_AF0423", "catalog_name": "EOS_SE_Asia", "dip_dir": null, "lower_seis_depth": "(15.0,,)", "name": null, "net_slip_rate": null, "slip_type": "Dextral", "upper_seis_depth": "(1.0,,)", "downthrown_side_id": null, "reference": null, "epistemic_quality": null, "accuracy": null, "activity_confidence": null, "fs_name": null, "last_movement": null, "downthrown_side_dir": null, "vert_sep_rate": null, "strike_slip_rate": null, "exposure_quality": null, "shortening_rate": null, "notes": null, "index_right": 55, "NAME_EN": "Vietnam" }, "geometry": { "type": "LineString", "coordinates": [ [ 103.863, 22.106 ], [ 103.888, 22.101 ], [ 104.005, 22.058 ], [ 104.028, 22.048 ], [ 104.041, 22.026 ], [ 104.067, 21.99 ], [ 104.083, 21.977 ], [ 104.12, 21.96 ], [ 104.189, 21.933 ], [ 104.2, 21.925 ], [ 104.223, 21.917 ], [ 104.248, 21.914 ], [ 104.274, 21.92 ], [ 104.301, 21.924 ] ] } },
{ "type": "Feature", "properties": { "average_dip": "(90.0,,)", "average_rake": "(180.0,,)", "catalog_id": "EOS_AF0424", "catalog_name": "EOS_SE_Asia", "dip_dir": null, "lower_seis_depth": "(15.0,,)", "name": null, "net_slip_rate": null, "slip_type": "Dextral", "upper_seis_depth": "(1.0,,)", "downthrown_side_id": null, "reference": null, "epistemic_quality": null, "accuracy": null, "activity_confidence": null, "fs_name": null, "last_movement": null, "downthrown_side_dir": null, "vert_sep_rate": null, "strike_slip_rate": null, "exposure_quality": null, "shortening_rate": null, "notes": null, "index_right": 55, "NAME_EN": "Vietnam" }, "geometry": { "type": "LineString", "coordinates": [ [ 105.2, 20.45 ], [ 105.204, 20.409 ], [ 105.206, 20.297 ], [ 105.212, 20.245 ], [ 105.223, 20.2 ], [ 105.226, 20.129 ], [ 105.226, 20.078 ], [ 105.24, 19.983 ], [ 105.242, 19.841 ] ] } },
{ "type": "Feature", "properties": { "average_dip": "(90.0,,)", "average_rake": "(180.0,,)", "catalog_id": "EOS_AF0425", "catalog_name": "EOS_SE_Asia", "dip_dir": null, "lower_seis_depth": "(15.0,,)", "name": null, "net_slip_rate": null, "slip_type": "Dextral", "upper_seis_depth": "(1.0,,)", "downthrown_side_id": null, "reference": null, "epistemic_quality": null, "accuracy": null, "activity_confidence": null, "fs_name": null, "last_movement": null, "downthrown_side_dir": null, "vert_sep_rate": null, "strike_slip_rate": null, "exposure_quality": null, "shortening_rate": null, "notes": null, "index_right": 55, "NAME_EN": "Vietnam" }, "geometry": { "type": "LineString", "coordinates": [ [ 104.946, 18.634 ], [ 105.003, 18.607 ], [ 105.092, 18.589 ], [ 105.124, 18.58 ], [ 105.191, 18.574 ], [ 105.257, 18.572 ] ] } },
{ "type": "Feature", "properties": { "average_dip": "(90.0,,)", "average_rake": "(180.0,,)", "catalog_id": "EOS_AF0426", "catalog_name": "EOS_SE_Asia", "dip_dir": null, "lower_seis_depth": "(15.0,,)", "name": null, "net_slip_rate": null, "slip_type": "Dextral", "upper_seis_depth": "(1.0,,)", "downthrown_side_id": null, "reference": null, "epistemic_quality": null, "accuracy": null, "activity_confidence": null, "fs_name": null, "last_movement": null, "downthrown_side_dir": null, "vert_sep_rate": null, "strike_slip_rate": null, "exposure_quality": null, "shortening_rate": null, "notes": null, "index_right": 55, "NAME_EN": "Vietnam" }, "geometry": { "type": "LineString", "coordinates": [ [ 107.141, 16.423 ], [ 107.263, 16.407 ], [ 107.294, 16.4 ], [ 107.334, 16.384 ], [ 107.364, 16.377 ], [ 107.49, 16.329 ] ] } },
{ "type": "Feature", "properties": { "average_dip": "(90.0,,)", "average_rake": "(180.0,,)", "catalog_id": "EOS_AF0427", "catalog_name": "EOS_SE_Asia", "dip_dir": null, "lower_seis_depth": "(15.0,,)", "name": null, "net_slip_rate": null, "slip_type": "Dextral", "upper_seis_depth": "(1.0,,)", "downthrown_side_id": null, "reference": null, "epistemic_quality": null, "accuracy": null, "activity_confidence": null, "fs_name": null, "last_movement": null, "downthrown_side_dir": null, "vert_sep_rate": null, "strike_slip_rate": null, "exposure_quality": null, "shortening_rate": null, "notes": null, "index_right": 55, "NAME_EN": "Vietnam" }, "geometry": { "type": "LineString", "coordinates": [ [ 106.707, 16.683 ], [ 106.764, 16.665 ], [ 106.816, 16.646 ], [ 106.846, 16.638 ], [ 106.859, 16.631 ], [ 106.869, 16.618 ], [ 106.893, 16.604 ], [ 107.059, 16.543 ], [ 107.145, 16.519 ], [ 107.169, 16.517 ], [ 107.19, 16.522 ], [ 107.227, 16.521 ], [ 107.267, 16.516 ], [ 107.313, 16.503 ] ] } },
{ "type": "Feature", "properties": { "average_dip": "(90.0,,)", "average_rake": "(180.0,,)", "catalog_id": "EOS_AF0428", "catalog_name": "EOS_SE_Asia", "dip_dir": null, "lower_seis_depth": "(15.0,,)", "name": null, "net_slip_rate": null, "slip_type": "Dextral", "upper_seis_depth": "(1.0,,)", "downthrown_side_id": null, "reference": null, "epistemic_quality": null, "accuracy": null, "activity_confidence": null, "fs_name": null, "last_movement": null, "downthrown_side_dir": null, "vert_sep_rate": null, "strike_slip_rate": null, "exposure_quality": null, "shortening_rate": null, "notes": null, "index_right": 55, "NAME_EN": "Vietnam" }, "geometry": { "type": "LineString", "coordinates": [ [ 107.583, 15.412 ], [ 107.582, 15.435 ], [ 107.572, 15.495 ], [ 107.563, 15.522 ], [ 107.556, 15.552 ], [ 107.554, 15.58 ], [ 107.556, 15.606 ], [ 107.563, 15.63 ], [ 107.569, 15.683 ], [ 107.573, 15.693 ], [ 107.576, 15.711 ], [ 107.574, 15.734 ], [ 107.577, 15.753 ], [ 107.563, 15.815 ], [ 107.559, 15.887 ] ] } },
{ "type": "Feature", "properties": { "average_dip": "(90.0,,)", "average_rake": "(180.0,,)", "catalog_id": "EOS_AF0429", "catalog_name": "EOS_SE_Asia", "dip_dir": null, "lower_seis_depth": "(15.0,,)", "name": null, "net_slip_rate": null, "slip_type": "Dextral", "upper_seis_depth": "(1.0,,)", "downthrown_side_id": null, "reference": null, "epistemic_quality": null, "accuracy": null, "activity_confidence": null, "fs_name": null, "last_movement": null, "downthrown_side_dir": null, "vert_sep_rate": null, "strike_slip_rate": null, "exposure_quality": null, "shortening_rate": null, "notes": null, "index_right": 55, "NAME_EN": "Vietnam" }, "geometry": { "type": "LineString", "coordinates": [ [ 107.417, 15.439 ], [ 107.498, 15.43 ], [ 107.547, 15.421 ], [ 107.583, 15.412 ], [ 107.617, 15.408 ], [ 107.7, 15.373 ], [ 107.733, 15.363 ], [ 107.79, 15.342 ], [ 107.817, 15.338 ], [ 107.841, 15.336 ], [ 107.868, 15.331 ], [ 107.936, 15.332 ], [ 107.988, 15.33 ], [ 108.049, 15.33 ], [ 108.119, 15.319 ], [ 108.176, 15.303 ], [ 108.205, 15.3 ], [ 108.225, 15.301 ], [ 108.245, 15.309 ], [ 108.265, 15.313 ], [ 108.321, 15.313 ], [ 108.44, 15.302 ], [ 108.488, 15.293 ], [ 108.507, 15.287 ] ] } }
]
}
