{
"type": "FeatureCollection",
"name": "faults_algeria",
"crs": { "type": "name", "properties": { "name": "urn:ogc:def:crs:OGC:1.3:CRS84" } },
"features": [
{ "type": "Feature", "properties": { "average_dip": "(20,10,30)", "average_rake": "", "catalog_id": "NAF_33", "catalog_name": "GEM_N_Africa", "dip_dir": "N", "lower_seis_depth": null, "name": "", "net_slip_rate": "", "slip_type": "Reverse", "upper_seis_depth": null, "downthrown_side_id": null, "reference": "DEM", "epistemic_quality": "2", "accuracy": "60000", "activity_confidence": "2", "fs_name": "", "last_movement": "", "downthrown_side_dir": "S", "vert_sep_rate": "", "strike_slip_rate": "", "exposure_quality": "2", "shortening_rate": "(0.1, 0., 0.2)", "notes": "", "index_right": 121, "NAME_EN": "Algeria" }, "geometry": { "type": "LineString", "coordinates": [ [ -2.356737413949389, 35.022415139915481 ], [ -2.349513356262929, 35.025511164638246 ], [ -2.342633301323444, 35.026199170132195 ], [ -2.317521100794323, 35.0234471481564 ], [ -2.298944952457712, 35.025511164638246 ], [ -2.259040633808698, 35.022759142662451 ], [ -2.234960441520499, 35.026199170132195 ], [ -2.217760304171787, 35.026887175626143 ], [ -2.200216164076099, 35.024135153650349 ] ] } },
{ "type": "Feature", "properties": { "average_dip": "(32,25,40)", "average_rake": "", "catalog_id": "NAF_34", "catalog_name": "GEM_N_Africa", "dip_dir": "N", "lower_seis_depth": null, "name": "", "net_slip_rate": "", "slip_type": "Reverse", "upper_seis_depth": null, "downthrown_side_id": null, "reference": "Belabbes et al., 2009 J. Seismol", "epistemic_quality": "1", "accuracy": "150000", "activity_confidence": "1", "fs_name": "", "last_movement": "1999", "downthrown_side_dir": "S", "vert_sep_rate": "", "strike_slip_rate": "", "exposure_quality": "2", "shortening_rate": "(0.1, 0.01, 0.2)", "notes": "Hosted the 1999 Ain Temouchent earthquake; good InSAR study.", "index_right": 121, "NAME_EN": "Algeria" }, "geometry": { "type": "LineString", "coordinates": [ [ -1.399721771866988, 35.075047560202556 ], [ -1.381145623530378, 35.079863598660197 ], [ -1.363945486181664, 35.08811966458758 ], [ -1.338489282905569, 35.103943790948399 ], [ -1.319913134568959, 35.117703900827365 ], [ -1.299960975244451, 35.126647972248698 ], [ -1.266936711534922, 35.149352153548996 ], [ -1.222904359922216, 35.172056334849302 ], [ -1.205704222573503, 35.177560378800891 ], [ -1.167175914912386, 35.197512538125395 ], [ -1.157543837997106, 35.207144615040676 ] ] } },
{ "type": "Feature", "properties": { "average_dip": "", "average_rake": "", "catalog_id": "NAF_35", "catalog_name": "GEM_N_Africa", "dip_dir": "", "lower_seis_depth": null, "name": "Oran Anticline", "net_slip_rate": "", "slip_type": "Anticline", "upper_seis_depth": null, "downthrown_side_id": null, "reference": "DEM", "epistemic_quality": "1", "accuracy": "200000", "activity_confidence": "1", "fs_name": "", "last_movement": "", "downthrown_side_dir": "", "vert_sep_rate": "", "strike_slip_rate": "", "exposure_quality": "1", "shortening_rate": "", "notes": "", "index_right": 121, "NAME_EN": "Algeria" }, "geometry": { "type": "LineString", "coordinates": [ [ -1.239760494523956, 35.482002809873109 ], [ -1.191600109947559, 35.505394996667363 ], [ -1.153071802286441, 35.521907128522123 ], [ -1.095279340794765, 35.542547293340583 ], [ -1.003086604605662, 35.578323579025906 ], [ -0.975566384847721, 35.594835710880666 ], [ -0.92465397829553, 35.61822789767492 ], [ -0.891629714586001, 35.638868062493373 ], [ -0.86410949482806, 35.649876150396551 ], [ -0.79393293444531, 35.685652436081874 ], [ -0.730636429002046, 35.703540578924539 ], [ -0.631563637873458, 35.753764979982783 ], [ -0.598539374163929, 35.780597194246774 ], [ -0.507722648962723, 35.822565529377627 ], [ -0.478826418216885, 35.839077661232388 ], [ -0.440298110555768, 35.85834181506295 ], [ -0.408649857834135, 35.872101924941916 ], [ -0.370121550173018, 35.891366078772478 ], [ -0.348105374366665, 35.906502199639341 ], [ -0.309577066705547, 35.936774441373082 ], [ -0.266920726080739, 35.962918650143124 ] ] } },
{ "type": "Feature", "properties": { "average_dip": "", "average_rake": "", "catalog_id": "NAF_36", "catalog_name": "GEM_N_Africa", "dip_dir": "", "lower_seis_depth": null, "name": "", "net_slip_rate": "", "slip_type": "Anticline", "upper_seis_depth": null, "downthrown_side_id": null, "reference": "", "epistemic_quality": "0", "accuracy": "150000", "activity_confidence": "1", "fs_name": "", "last_movement": "", "downthrown_side_dir": "", "vert_sep_rate": "", "strike_slip_rate": "", "exposure_quality": "0", "shortening_rate": "", "notes": "", "index_right": 121, "NAME_EN": "Algeria" }, "geometry": { "type": "LineString", "coordinates": [ [ -0.569901145478321, 35.581247602375178 ], [ -0.552701008129608, 35.592255690278357 ], [ -0.512108683986645, 35.61083183861497 ], [ -0.492844530156086, 35.617023888060501 ], [ -0.44881217854338, 35.625967959481834 ], [ -0.427484008230976, 35.633536019915269 ], [ -0.390331711557756, 35.654176184733721 ] ] } },
{ "type": "Feature", "properties": { "average_dip": "(20,10,35)", "average_rake": "", "catalog_id": "NAF_37", "catalog_name": "GEM_N_Africa", "dip_dir": "S", "lower_seis_depth": null, "name": "", "net_slip_rate": "", "slip_type": "Reverse", "upper_seis_depth": null, "downthrown_side_id": null, "reference": "DEM", "epistemic_quality": "2", "accuracy": "60000", "activity_confidence": "2", "fs_name": "", "last_movement": "", "downthrown_side_dir": "N", "vert_sep_rate": "", "strike_slip_rate": "", "exposure_quality": "1", "shortening_rate": "", "notes": "Looks like an active thrust w/ a rapidly-subsiding hanging-wall basin. No clear scarps but the HW is so smooth and there are no fans so it looks like the HW is dropping fast.", "index_right": 121, "NAME_EN": "Algeria" }, "geometry": { "type": "LineString", "coordinates": [ [ -0.834733987530273, 35.334728697056228 ], [ -0.829961465833259, 35.340396066571429 ], [ -0.812959357287648, 35.347853131723014 ], [ -0.783429379287375, 35.352923936026095 ], [ -0.777165444560045, 35.355310196874598 ], [ -0.772094640256968, 35.358293022935236 ], [ -0.767620401166017, 35.36604837069288 ], [ -0.755689096923483, 35.372908870632337 ], [ -0.751811423044659, 35.377979674935411 ], [ -0.728545379771717, 35.384840174874874 ], [ -0.724667705892894, 35.383647044450619 ], [ -0.71363124946855, 35.392297240026458 ], [ -0.68082016280158, 35.406018239905372 ], [ -0.667994010740856, 35.403035413844734 ], [ -0.648605641346737, 35.411089044208445 ], [ -0.646219380498231, 35.41854610936003 ], [ -0.641148576195153, 35.424810044087359 ], [ -0.636674337104203, 35.435249935299581 ], [ -0.635779489286013, 35.440022456996594 ], [ -0.637569184922393, 35.445689826511796 ], [ -0.636077771892076, 35.450164065602749 ], [ -0.628620706740492, 35.457322848148259 ], [ -0.606547793891804, 35.460902239421024 ], [ -0.586861141891622, 35.467166174148353 ], [ -0.574929837649088, 35.468061021966541 ], [ -0.532275424982028, 35.488344239178851 ], [ -0.529292598921394, 35.487747673966723 ] ] } },
{ "type": "Feature", "properties": { "average_dip": "(20,10,35)", "average_rake": "", "catalog_id": "NAF_38", "catalog_name": "GEM_N_Africa", "dip_dir": "S", "lower_seis_depth": null, "name": "Mohammadia Thrust", "net_slip_rate": "", "slip_type": "Reverse", "upper_seis_depth": null, "downthrown_side_id": null, "reference": "DEM", "epistemic_quality": "2", "accuracy": "50000", "activity_confidence": "1", "fs_name": "", "last_movement": "", "downthrown_side_dir": "N", "vert_sep_rate": "", "strike_slip_rate": "", "exposure_quality": "1", "shortening_rate": "(0.2, 0., 1.)", "notes": "Some signs of warping of Quaternary seds at rangefront, but otherwise looks like  a thrust w/ a rapidly-subsiding foreland. Links up w/ other thrusts and folds (blind thrusts) in many places.", "index_right": 121, "NAME_EN": "Algeria" }, "geometry": { "type": "LineString", "coordinates": [ [ -0.215452690685272, 35.509258976598915 ], [ -0.201135125594315, 35.511645237447411 ], [ -0.191590082200344, 35.518804019992885 ], [ -0.162358386806307, 35.525067954720186 ], [ -0.144163147836549, 35.531331889447479 ], [ -0.136109517472886, 35.528349063386862 ], [ -0.12387993062436, 35.528647345992923 ], [ -0.097631061290939, 35.54177178065963 ], [ -0.088682583109091, 35.55072025884148 ], [ -0.06810108329084, 35.565037823932435 ], [ -0.049309279108959, 35.571898323871856 ], [ -0.01411193159369, 35.573091454296105 ], [ 0.000802198709391, 35.577565693387022 ], [ 0.025261372406442, 35.579951954235518 ], [ 0.037192676648906, 35.582636497690075 ], [ 0.055089633012603, 35.58144336726582 ], [ 0.066424372042943, 35.582636497690061 ], [ 0.083724763194516, 35.592181541084031 ], [ 0.097594904376381, 35.59769976929617 ], [ 0.109227926012784, 35.614851019144709 ], [ 0.116834132467355, 35.62141323647807 ], [ 0.131002556255281, 35.629914290750826 ], [ 0.145469262649269, 35.644082714538747 ], [ 0.165752479861458, 35.653776899235766 ], [ 0.180368327558476, 35.666006486084292 ], [ 0.193492762225187, 35.668392746932781 ], [ 0.214074262043437, 35.683306877235864 ], [ 0.221829609801039, 35.699712420569249 ], [ 0.230181522770764, 35.708362616145038 ], [ 0.23495404446775, 35.7164162465087 ], [ 0.240919696588982, 35.721188768205685 ], [ 0.247481913922337, 35.740875420205739 ], [ 0.257026957316308, 35.748929050569402 ], [ 0.259413218164801, 35.754298137478514 ], [ 0.274327348467882, 35.769808832993718 ], [ 0.28148613101336, 35.780547006811936 ], [ 0.284170674467914, 35.789495484993779 ], [ 0.29640026131644, 35.812463245660524 ], [ 0.30743671774072, 35.827079093357547 ], [ 0.32980791319534, 35.847958875781856 ], [ 0.331001043619586, 35.853626245297029 ], [ 0.338756391377188, 35.865259266933428 ], [ 0.344125478286297, 35.870628353842555 ], [ 0.351880826043899, 35.873014614691044 ] ] } },
{ "type": "Feature", "properties": { "average_dip": "(15,5,30)", "average_rake": "", "catalog_id": "NAF_39", "catalog_name": "GEM_N_Africa", "dip_dir": "S", "lower_seis_depth": null, "name": "", "net_slip_rate": "", "slip_type": "Reverse", "upper_seis_depth": null, "downthrown_side_id": null, "reference": "DEM", "epistemic_quality": "1", "accuracy": "60000", "activity_confidence": "1", "fs_name": "", "last_movement": "", "downthrown_side_dir": "N", "vert_sep_rate": "", "strike_slip_rate": "", "exposure_quality": "1", "shortening_rate": "", "notes": "", "index_right": 121, "NAME_EN": "Algeria" }, "geometry": { "type": "LineString", "coordinates": [ [ 0.16992843634632, 35.721188768205678 ], [ 0.186035697073647, 35.742068550629988 ], [ 0.194685892649433, 35.748630767963348 ], [ 0.198861849134296, 35.757877528751258 ], [ 0.200651544770665, 35.771598528630086 ], [ 0.203932653437343, 35.775177919902831 ], [ 0.218548501134361, 35.78681094153923 ], [ 0.24807847913446, 35.803813050084742 ], [ 0.261202913801171, 35.827675658569667 ], [ 0.264185739861787, 35.841098375842442 ], [ 0.269554826770896, 35.850643419236413 ], [ 0.278503304952744, 35.856609071357646 ], [ 0.284170674467914, 35.863171288690999 ], [ 0.30564702210435, 35.880471679842572 ], [ 0.31489378289226, 35.883454505903188 ], [ 0.319666304589245, 35.882559658085007 ], [ 0.342634065255989, 35.893596114509286 ], [ 0.376638282347012, 35.9004566144487 ], [ 0.383200499680367, 35.899561766630519 ], [ 0.3930438256804, 35.903439440509302 ], [ 0.396026651741016, 35.905527418751738 ], [ 0.399904325619817, 35.912686201297213 ], [ 0.415713303741082, 35.9252140707518 ], [ 0.424065216710807, 35.941321331479131 ], [ 0.430925716650224, 35.945497287963988 ] ] } },
{ "type": "Feature", "properties": { "average_dip": "(25,10,50)", "average_rake": "", "catalog_id": "NAF_40", "catalog_name": "GEM_N_Africa", "dip_dir": "N", "lower_seis_depth": null, "name": "", "net_slip_rate": "", "slip_type": "Reverse", "upper_seis_depth": null, "downthrown_side_id": null, "reference": "DEM", "epistemic_quality": "1", "accuracy": "50000", "activity_confidence": "1", "fs_name": "", "last_movement": "", "downthrown_side_dir": "S", "vert_sep_rate": "", "strike_slip_rate": "", "exposure_quality": "1", "shortening_rate": "", "notes": "", "index_right": 121, "NAME_EN": "Algeria" }, "geometry": { "type": "LineString", "coordinates": [ [ 0.454639183832121, 35.928942603327577 ], [ 0.464333368529123, 35.933416842418495 ], [ 0.48610799877162, 35.939979059751856 ], [ 0.515041411559595, 35.957876016115549 ], [ 0.530104683165706, 35.977115244206523 ], [ 0.539948009165739, 35.997995026630839 ], [ 0.550387900377896, 36.002170983115697 ], [ 0.576338487105255, 36.007241787418749 ], [ 0.591252617408335, 36.006794363509648 ], [ 0.617501486741757, 36.009478906964205 ], [ 0.651803986438841, 36.020217080782423 ], [ 0.672385486257092, 36.024393037267288 ], [ 0.703108594681437, 36.018427385146055 ], [ 0.738156800893676, 36.022752482933953 ], [ 0.767686778893774, 36.020664504691524 ], [ 0.803778974227228, 36.025287885085476 ], [ 0.825702745772756, 36.031402678509743 ], [ 0.850161919469808, 36.048703069661315 ], [ 0.861347517197118, 36.0476590805401 ], [ 0.86537433237895, 36.043781406661303 ], [ 0.878946190954752, 36.040052874085532 ], [ 0.906686473318482, 36.050194482691616 ], [ 0.928311962257948, 36.054817863085574 ], [ 0.946954625136799, 36.061380080418928 ] ] } },
{ "type": "Feature", "properties": { "average_dip": "(20,10,60)", "average_rake": "", "catalog_id": "NAF_41", "catalog_name": "GEM_N_Africa", "dip_dir": "N", "lower_seis_depth": null, "name": "Murdjadjo Thrust", "net_slip_rate": "", "slip_type": "Reverse", "upper_seis_depth": null, "downthrown_side_id": null, "reference": "Bouhadad 2001 J. Seismology", "epistemic_quality": "1", "accuracy": "60000", "activity_confidence": "1", "fs_name": "", "last_movement": "1790?", "downthrown_side_dir": "S", "vert_sep_rate": "", "strike_slip_rate": "", "exposure_quality": "1", "shortening_rate": "(0.2., 0.01, 1.)", "notes": "Bouhadad located field exposures w/ 60 degree dip. This may not characterize the whole structure.", "index_right": 121, "NAME_EN": "Algeria" }, "geometry": { "type": "LineString", "coordinates": [ [ -1.029018498718298, 35.519251443901958 ], [ -1.007393009778831, 35.525217096023191 ], [ -0.996953118566675, 35.529691335114116 ], [ -0.986811509960581, 35.536850117659597 ], [ -0.963694607990806, 35.54863228059903 ], [ -0.942069119051341, 35.552957378386928 ], [ -0.92715498874826, 35.56101100875059 ], [ -0.92148761923309, 35.568169791296064 ], [ -0.913433988869427, 35.571749182568809 ], [ -0.895835315111792, 35.574135443417298 ], [ -0.88062290220265, 35.579206247720343 ], [ -0.868095032748063, 35.575626856447606 ], [ -0.853180902444983, 35.575030291235485 ], [ -0.836477076505532, 35.583083921599155 ], [ -0.811719620202419, 35.587558160690079 ], [ -0.805753968081187, 35.591137551962824 ], [ -0.76727551189924, 35.602770573599223 ], [ -0.733271294808217, 35.61559672565987 ], [ -0.727007360080924, 35.616491573478058 ], [ -0.717462316686952, 35.614105312629562 ], [ -0.69837222989901, 35.613807030023501 ], [ -0.687037490868669, 35.620667529962923 ], [ -0.672719925777712, 35.62454520384172 ], [ -0.652734991171584, 35.635283377659938 ], [ -0.638119143474566, 35.636476508084179 ], [ -0.632451773959395, 35.640055899356923 ] ] } },
{ "type": "Feature", "properties": { "average_dip": "(25,10,60)", "average_rake": "(90.,45.,90.)", "catalog_id": "NAF_42", "catalog_name": "GEM_N_Africa", "dip_dir": "NW", "lower_seis_depth": null, "name": "Bou Kadir Fault", "net_slip_rate": "", "slip_type": "Reverse", "upper_seis_depth": null, "downthrown_side_id": null, "reference": "Aifa and Idres, 2010 Open Geology Journal", "epistemic_quality": "1", "accuracy": "50000", "activity_confidence": "1", "fs_name": "", "last_movement": "", "downthrown_side_dir": "SE", "vert_sep_rate": "", "strike_slip_rate": "", "exposure_quality": "1", "shortening_rate": "None", "notes": "Possible sinistral component", "index_right": 121, "NAME_EN": "Algeria" }, "geometry": { "type": "LineString", "coordinates": [ [ 1.056424341561407, 36.03707004802493 ], [ 1.070741906652364, 36.047211656631021 ], [ 1.076110993561473, 36.056756700024998 ], [ 1.084164623925136, 36.078531330267488 ], [ 1.091919971682738, 36.086883243237217 ], [ 1.113992884531297, 36.101499090934233 ], [ 1.116677427985851, 36.107763025661527 ], [ 1.128012167016192, 36.12267715596461 ], [ 1.132784688713178, 36.142960373176798 ], [ 1.14441771034958, 36.156979655661694 ], [ 1.150383362470812, 36.161752177358679 ], [ 1.158735275440537, 36.165331568631416 ], [ 1.169473449258755, 36.179649133722371 ], [ 1.191098938198221, 36.199484927025466 ], [ 1.216602101016488, 36.21812758990432 ], [ 1.22614714441046, 36.228865763722538 ], [ 1.227787698743799, 36.23319086151043 ], [ 1.24672864422871, 36.240946209268031 ] ] } },
{ "type": "Feature", "properties": { "average_dip": "(20,10,50)", "average_rake": "", "catalog_id": "NAF_43", "catalog_name": "GEM_N_Africa", "dip_dir": "N", "lower_seis_depth": null, "name": "", "net_slip_rate": "", "slip_type": "Reverse", "upper_seis_depth": null, "downthrown_side_id": null, "reference": "Maouche et al., 2011 Tectonophysics", "epistemic_quality": "2", "accuracy": "50000", "activity_confidence": "2", "fs_name": "", "last_movement": "", "downthrown_side_dir": "S", "vert_sep_rate": "", "strike_slip_rate": "", "exposure_quality": "2", "shortening_rate": "", "notes": "", "index_right": 121, "NAME_EN": "Algeria" }, "geometry": { "type": "LineString", "coordinates": [ [ 1.140987460379873, 36.393816044874598 ], [ 1.160375829773877, 36.402317099147339 ], [ 1.16828031883451, 36.403808512177648 ], [ 1.176632231804235, 36.411563859935249 ], [ 1.192590351228531, 36.415888957723148 ], [ 1.205714785895241, 36.416932946844362 ], [ 1.21302270974375, 36.419915772904979 ], [ 1.223164318349845, 36.420363196814073 ], [ 1.225401437895307, 36.422749457662562 ], [ 1.252843437652975, 36.434531620601994 ], [ 1.265371307107562, 36.438260153177765 ], [ 1.27431978528941, 36.449744033511138 ], [ 1.302805774168293, 36.468535837693032 ], [ 1.31518450231985, 36.480318000632465 ], [ 1.317570763168343, 36.48479223972339 ] ] } },
{ "type": "Feature", "properties": { "average_dip": "(40,30,50)", "average_rake": "", "catalog_id": "NAF_44", "catalog_name": "GEM_N_Africa", "dip_dir": "NW", "lower_seis_depth": null, "name": "El Asnam Fault", "net_slip_rate": "", "slip_type": "Reverse", "upper_seis_depth": null, "downthrown_side_id": null, "reference": "Meghroui et al., 1988 EPSL", "epistemic_quality": "1", "accuracy": "30000", "activity_confidence": "1", "fs_name": "El Asnam Fault", "last_movement": "1980", "downthrown_side_dir": "SE", "vert_sep_rate": "(0.6, 0.5, 1.)", "strike_slip_rate": "", "exposure_quality": "1", "shortening_rate": "", "notes": "Ruptured in the M7.1-7.3 El Asnam Earthquake", "index_right": 121, "NAME_EN": "Algeria" }, "geometry": { "type": "LineString", "coordinates": [ [ 1.447845691365748, 36.143109514479832 ], [ 1.449187963093026, 36.15011915572228 ], [ 1.455451897820319, 36.155637383934419 ], [ 1.458285582577905, 36.160409905631404 ], [ 1.472454006365831, 36.165033286025363 ], [ 1.481999049759802, 36.170104090328408 ], [ 1.493184647487112, 36.182482818479969 ], [ 1.512125592972024, 36.187553622783014 ], [ 1.527636288487227, 36.197695231389105 ], [ 1.532408810184213, 36.20530143784368 ], [ 1.554481723032772, 36.225286372449808 ], [ 1.569395853335852, 36.244674741843809 ], [ 1.57655463588133, 36.25153524178323 ], [ 1.582818570608624, 36.25421978523778 ] ] } },
{ "type": "Feature", "properties": { "average_dip": "(30,20,60)", "average_rake": "", "catalog_id": "NAF_45", "catalog_name": "GEM_N_Africa", "dip_dir": "NW", "lower_seis_depth": null, "name": "", "net_slip_rate": "", "slip_type": "Reverse", "upper_seis_depth": null, "downthrown_side_id": null, "reference": "DEM", "epistemic_quality": "1", "accuracy": "30000", "activity_confidence": "1", "fs_name": "", "last_movement": "", "downthrown_side_dir": "SE", "vert_sep_rate": "", "strike_slip_rate": "", "exposure_quality": "1", "shortening_rate": "", "notes": "Possible fresh scarp at base (visible in 30m DEM)", "index_right": 121, "NAME_EN": "Algeria" }, "geometry": { "type": "LineString", "coordinates": [ [ 1.26132584926285, 36.184999577968625 ], [ 1.269081197020452, 36.194693762665629 ], [ 1.281161642565947, 36.203343958241419 ], [ 1.296970620687212, 36.209011327756585 ], [ 1.306963087990275, 36.21691581681722 ], [ 1.315464142263031, 36.221240914605112 ], [ 1.32829029432368, 36.22556601239301 ], [ 1.342309576808576, 36.232575653635458 ], [ 1.36915501135412, 36.241374990514274 ], [ 1.373927533051106, 36.245401805696105 ], [ 1.387499391626908, 36.252113164332492 ], [ 1.393912467657233, 36.258526240362812 ] ] } },
{ "type": "Feature", "properties": { "average_dip": "(30,20,60)", "average_rake": "(90,150,10)", "catalog_id": "NAF_46", "catalog_name": "GEM_N_Africa", "dip_dir": "N", "lower_seis_depth": null, "name": "", "net_slip_rate": "", "slip_type": "Reverse", "upper_seis_depth": null, "downthrown_side_id": null, "reference": "DEM", "epistemic_quality": "2", "accuracy": "60000", "activity_confidence": "2", "fs_name": "", "last_movement": "", "downthrown_side_dir": "S", "vert_sep_rate": "", "strike_slip_rate": "", "exposure_quality": "1", "shortening_rate": "", "notes": "Looks like a reverse or oblique-reverse thrust. Not sure of what strike-slip direction, but it's oblique to other thrusts. Could be either based on stress/convergence directions. Basin looks like it's subsiding relatively rapidly but otherwise not a lot of evidence for recent faulting.", "index_right": 121, "NAME_EN": "Algeria" }, "geometry": { "type": "LineString", "coordinates": [ [ 1.582725357294229, 36.254499425180953 ], [ 1.646856117597474, 36.271054109817378 ], [ 1.651181215385367, 36.273440370665867 ], [ 1.672955845627864, 36.277914609756792 ], [ 1.681755182506681, 36.282239707544683 ], [ 1.692045932415807, 36.284775109696206 ], [ 1.713671421355273, 36.2852225336053 ], [ 1.748719627567511, 36.290144196605304 ], [ 1.769897692597885, 36.290442479211364 ], [ 1.773775366476686, 36.293127022665921 ], [ 1.799129387991922, 36.291039044423492 ], [ 1.815236648719249, 36.300882370423523 ], [ 1.839994105022362, 36.309532565999312 ], [ 1.856996213567873, 36.311023979029621 ], [ 1.865348126537598, 36.314006805090237 ], [ 1.876384582961878, 36.312515392059929 ], [ 1.881455387264925, 36.309830848605372 ], [ 1.894579821931635, 36.307444587756876 ], [ 1.913371626113517, 36.30147893563565 ] ] } },
{ "type": "Feature", "properties": { "average_dip": "(20,10,55)", "average_rake": "", "catalog_id": "NAF_47", "catalog_name": "GEM_N_Africa", "dip_dir": "N", "lower_seis_depth": null, "name": "Sahel Thrust", "net_slip_rate": "", "slip_type": "Reverse", "upper_seis_depth": null, "downthrown_side_id": null, "reference": "Maouche et al., 2011 Tectonophysics", "epistemic_quality": "1", "accuracy": "30000", "activity_confidence": "1", "fs_name": "", "last_movement": "", "downthrown_side_dir": "S", "vert_sep_rate": "(1., 0.84, 1.2)", "strike_slip_rate": "", "exposure_quality": "1", "shortening_rate": "", "notes": "Rupture traces visible in DEM east of big canyon in middle. Apparent left-lateral offset of drainages across the fault.", "index_right": 121, "NAME_EN": "Algeria" }, "geometry": { "type": "LineString", "coordinates": [ [ 2.397558866403017, 36.538762748757641 ], [ 2.408595322827296, 36.539061031363701 ], [ 2.417543801009145, 36.535183357484897 ], [ 2.427387127009177, 36.533542803151562 ], [ 2.439765855160734, 36.534735933575803 ], [ 2.454530844160783, 36.538613607454607 ], [ 2.481674561312389, 36.549948346484946 ], [ 2.521644430524644, 36.561283085515292 ], [ 2.555946930221729, 36.564564194181969 ], [ 2.581300951736965, 36.570082422394115 ], [ 2.589951147312751, 36.570678987606236 ], [ 2.606804114555232, 36.568441868060773 ], [ 2.647221407676579, 36.566801313727431 ], [ 2.663776092312999, 36.56829272675774 ], [ 2.703298537616162, 36.582461150545662 ], [ 2.749234058949649, 36.6116928459397 ], [ 2.7717543957073, 36.618851628485181 ], [ 2.785475395586134, 36.625115563212475 ], [ 2.813364819252894, 36.644205650000423 ], [ 2.881074970828878, 36.642714236970107 ], [ 2.897033090253173, 36.640477117424645 ], [ 2.928949329101765, 36.639283987000404 ], [ 2.958031883192771, 36.642415954364033 ], [ 3.053482317132484, 36.673735628000507 ], [ 3.105980055799326, 36.703563888606666 ], [ 3.129842664284255, 36.714600345030945 ] ] } },
{ "type": "Feature", "properties": { "average_dip": "(20,10,60)", "average_rake": "", "catalog_id": "NAF_48", "catalog_name": "GEM_N_Africa", "dip_dir": "S", "lower_seis_depth": null, "name": "", "net_slip_rate": "", "slip_type": "Reverse", "upper_seis_depth": null, "downthrown_side_id": null, "reference": "Maouche et al., 2011 Tectonophysics", "epistemic_quality": "1", "accuracy": "30000", "activity_confidence": "1", "fs_name": "", "last_movement": "", "downthrown_side_dir": "N", "vert_sep_rate": "", "strike_slip_rate": "", "exposure_quality": "1", "shortening_rate": "", "notes": "", "index_right": 121, "NAME_EN": "Algeria" }, "geometry": { "type": "LineString", "coordinates": [ [ 2.459750789766862, 36.465236086363461 ], [ 2.477647746130558, 36.471500021090755 ], [ 2.4928601590397, 36.474184564545311 ], [ 2.511950245827642, 36.475079412363492 ], [ 2.521197006615552, 36.473587999333184 ], [ 2.535812854312571, 36.473886281939244 ], [ 2.550130419403528, 36.470903455878627 ], [ 2.572799897464209, 36.472991434121063 ], [ 2.592486549464275, 36.463446390727093 ], [ 2.598750484191569, 36.462849825514965 ], [ 2.614857744918896, 36.466429216787709 ], [ 2.645879135949303, 36.464937803757401 ] ] } },
{ "type": "Feature", "properties": { "average_dip": "(35,20,60)", "average_rake": "", "catalog_id": "NAF_49", "catalog_name": "GEM_N_Africa", "dip_dir": "S", "lower_seis_depth": null, "name": "Mitidja Thrust", "net_slip_rate": "", "slip_type": "Reverse", "upper_seis_depth": null, "downthrown_side_id": null, "reference": "Mouache et al., 2011 Tectonophysics", "epistemic_quality": "0", "accuracy": "50000", "activity_confidence": "1", "fs_name": "Mitidja Thrust", "last_movement": "", "downthrown_side_dir": "N", "vert_sep_rate": "", "strike_slip_rate": "", "exposure_quality": "0", "shortening_rate": "", "notes": "", "index_right": 121, "NAME_EN": "Algeria" }, "geometry": { "type": "LineString", "coordinates": [ [ 2.646773983767488, 36.423774804120889 ], [ 2.655125896737213, 36.426161064969385 ], [ 2.676005679161526, 36.425564499757257 ], [ 2.707623635404056, 36.428249043211814 ], [ 2.712992722313165, 36.426161064969385 ], [ 2.720449787464705, 36.426161064969385 ], [ 2.729398265646553, 36.43093358666637 ], [ 2.746102091586003, 36.433618130120927 ], [ 2.76966641746487, 36.447935695211882 ], [ 2.772947526131547, 36.452708216908867 ], [ 2.78279085213158, 36.457779021211913 ], [ 2.810829417101371, 36.462551542908898 ], [ 2.817988199646849, 36.467324064605883 ], [ 2.828726373465067, 36.467025781999823 ], [ 2.831410916919622, 36.468218912424071 ], [ 2.8424473733439, 36.481045064484718 ], [ 2.847518177646947, 36.484326173151395 ], [ 2.861537460131843, 36.487010716605951 ], [ 2.863923720980336, 36.491484955696876 ], [ 2.872275633950061, 36.498942020848411 ], [ 2.886593199041018, 36.498942020848411 ], [ 2.897331372859235, 36.500731716484786 ], [ 2.9092626771017, 36.504907672969644 ], [ 2.913140350980501, 36.508188781636321 ], [ 2.923281959586595, 36.523699477151524 ], [ 2.938196089889675, 36.531156542303066 ], [ 2.943565176798784, 36.532051390121254 ], [ 2.955496481041248, 36.529366846666697 ], [ 2.962058698374603, 36.529665129272757 ], [ 2.977867676495868, 36.52578745539396 ], [ 2.989500698132271, 36.517435542424231 ], [ 3.006204524071721, 36.515645846787862 ], [ 3.041700154193052, 36.520120085878773 ], [ 3.057807414920378, 36.518628672848465 ], [ 3.075406088678013, 36.519523520666652 ], [ 3.079880327768937, 36.524296042363638 ], [ 3.111498284011467, 36.527278868424254 ], [ 3.120745044799377, 36.540999868303089 ], [ 3.140729979405505, 36.541298150909149 ], [ 3.158030370557078, 36.552036324727368 ], [ 3.188753478981423, 36.586637107030526 ], [ 3.193526000678408, 36.597971846060865 ], [ 3.204264174496626, 36.608710019879084 ], [ 3.223950826496692, 36.617360215454866 ], [ 3.236180413345218, 36.626606976242776 ], [ 3.243339195890696, 36.629291519697333 ], [ 3.263025847890762, 36.630484650121581 ], [ 3.27943139122415, 36.628396671879152 ], [ 3.294942086739354, 36.631379497939761 ], [ 3.30717167358788, 36.631081215333701 ], [ 3.315225303951543, 36.635257171818566 ], [ 3.319102977830344, 36.640924541333739 ], [ 3.321489238678836, 36.648679889091341 ], [ 3.328946303830377, 36.654048976000446 ], [ 3.343562151527395, 36.655838671636815 ], [ 3.350422651466812, 36.658821497697431 ], [ 3.360265977466845, 36.664488867212604 ], [ 3.369512738254755, 36.674033910606575 ] ] } },
{ "type": "Feature", "properties": { "average_dip": "(35,20,50)", "average_rake": "", "catalog_id": "NAF_50", "catalog_name": "GEM_N_Africa", "dip_dir": "S", "lower_seis_depth": null, "name": "Mitidja Thrust", "net_slip_rate": "", "slip_type": "Reverse", "upper_seis_depth": null, "downthrown_side_id": null, "reference": "Mouache et al., 2003", "epistemic_quality": "1", "accuracy": "200000", "activity_confidence": "1", "fs_name": "Mitidja Thrust", "last_movement": "2003", "downthrown_side_dir": "N", "vert_sep_rate": "", "strike_slip_rate": "", "exposure_quality": "2", "shortening_rate": "", "notes": "Ruptured in the 2003 Zemmouri earthquake (M6.8), 0.5 m slip.", "index_right": 121, "NAME_EN": "Algeria" }, "geometry": { "type": "LineString", "coordinates": [ [ 3.371302433891125, 36.675525323636883 ], [ 3.396059890194238, 36.688649758303598 ], [ 3.408886042254887, 36.692527432182395 ], [ 3.416343107406427, 36.698194801697568 ], [ 3.420817346497351, 36.70624843206123 ], [ 3.432152085527692, 36.714003779818832 ], [ 3.441398846315602, 36.72474195363705 ], [ 3.459892367891421, 36.740550931758314 ], [ 3.481070432921795, 36.749201127334103 ], [ 3.498967389285492, 36.761132431576563 ], [ 3.505827889224908, 36.767098083697796 ], [ 3.519847171709804, 36.786486453091804 ], [ 3.547885736679595, 36.798417757334271 ], [ 3.562799866982675, 36.811542192000978 ], [ 3.590838431952466, 36.830035713576798 ], [ 3.626035779467735, 36.858074278546589 ], [ 3.643932735831431, 36.877760930546657 ], [ 3.656460605286018, 36.886709408728507 ], [ 3.665409083467866, 36.897447582546725 ], [ 3.700009865771013, 36.914747973698297 ], [ 3.711941170013477, 36.922503321455899 ], [ 3.721486213407448, 36.929662104001373 ], [ 3.739383169771144, 36.948752190789321 ], [ 3.751911039225732, 36.958297234183291 ], [ 3.799636256195588, 36.977387320971232 ], [ 3.827078255953256, 36.985142668728834 ] ] } },
{ "type": "Feature", "properties": { "average_dip": "(55,30,80)", "average_rake": "", "catalog_id": "NAF_51", "catalog_name": "GEM_N_Africa", "dip_dir": "N", "lower_seis_depth": null, "name": "", "net_slip_rate": "", "slip_type": "Dextral-Reverse", "upper_seis_depth": null, "downthrown_side_id": null, "reference": "DEM", "epistemic_quality": "2", "accuracy": "100000", "activity_confidence": "2", "fs_name": "", "last_movement": "", "downthrown_side_dir": "S", "vert_sep_rate": "", "strike_slip_rate": "", "exposure_quality": "2", "shortening_rate": "", "notes": "Consistent pattern of right-offset stream drainages. Looks like a dextral fault that swings around into a thrust. The high topo in hanging wall may not be coincidental.", "index_right": 121, "NAME_EN": "Algeria" }, "geometry": { "type": "LineString", "coordinates": [ [ 3.866339703976126, 36.423662948143651 ], [ 3.933304149036956, 36.415311035173922 ], [ 3.982222496431059, 36.415012752567861 ], [ 4.024578626491807, 36.406511698295105 ], [ 4.057389713158583, 36.403528872234489 ], [ 4.066934756552555, 36.405318567870857 ], [ 4.10899260400724, 36.40472200265873 ], [ 4.134048342916415, 36.408301393931467 ], [ 4.153734994916482, 36.40531856787085 ], [ 4.206232733583324, 36.403230589628414 ], [ 4.228902211644005, 36.400546046173865 ], [ 4.24083351588647, 36.402932307022354 ], [ 4.263502993947151, 36.403528872234482 ], [ 4.273942885159308, 36.407108263507219 ], [ 4.297208928432113, 36.411284219992083 ], [ 4.325247493401904, 36.420829263386054 ], [ 4.350004949705018, 36.419636132961806 ], [ 4.384605732008164, 36.415460176476948 ], [ 4.400414710129429, 36.418443002537565 ], [ 4.424277318614357, 36.419337850355745 ] ] } },
{ "type": "Feature", "properties": { "average_dip": "(90,,)", "average_rake": "", "catalog_id": "NAF_52", "catalog_name": "GEM_N_Africa", "dip_dir": "", "lower_seis_depth": null, "name": "Thenia Fault", "net_slip_rate": "", "slip_type": "Dextral", "upper_seis_depth": null, "downthrown_side_id": null, "reference": "Boudiaf et al., 1998 Terra Nova", "epistemic_quality": "2", "accuracy": "50000", "activity_confidence": "2", "fs_name": "", "last_movement": "", "downthrown_side_dir": "", "vert_sep_rate": "", "strike_slip_rate": "", "exposure_quality": "2", "shortening_rate": "", "notes": "", "index_right": 121, "NAME_EN": "Algeria" }, "geometry": { "type": "LineString", "coordinates": [ [ 3.488415642096075, 36.751922956114463 ], [ 3.502733207187032, 36.748343564841726 ], [ 3.525999250459837, 36.739693369265936 ], [ 3.54329964161141, 36.736412260599259 ], [ 3.590726575975205, 36.719111869447687 ] ] } },
{ "type": "Feature", "properties": { "average_dip": "(20,10,40)", "average_rake": "", "catalog_id": "NAF_58", "catalog_name": "GEM_N_Africa", "dip_dir": "N", "lower_seis_depth": null, "name": "", "net_slip_rate": "", "slip_type": "Reverse", "upper_seis_depth": null, "downthrown_side_id": null, "reference": "Said et al., 2011", "epistemic_quality": "1", "accuracy": "100000", "activity_confidence": "1", "fs_name": "Chotts Thrust", "last_movement": "", "downthrown_side_dir": "S", "vert_sep_rate": "", "strike_slip_rate": "", "exposure_quality": "2", "shortening_rate": "None", "notes": "Blind", "index_right": 121, "NAME_EN": "Algeria" }, "geometry": { "type": "LineString", "coordinates": [ [ 7.506133204442849, 33.728455890422559 ], [ 7.547892769291472, 33.721297107877085 ], [ 7.561017203958183, 33.722490238301333 ], [ 7.589652334140097, 33.734421542543792 ], [ 7.604566464443177, 33.737404368604409 ], [ 7.623059986018997, 33.745159716362011 ], [ 7.634991290261461, 33.748142542422627 ], [ 7.646922594503925, 33.755301324968109 ], [ 7.654677942261527, 33.764846368362079 ], [ 7.673171463837346, 33.778567368240914 ], [ 7.690471854988919, 33.795271194180359 ], [ 7.715527593898094, 33.816150976604675 ], [ 7.725669202504188, 33.822116628725908 ], [ 7.734617680686037, 33.842996411150217 ], [ 7.739986767595146, 33.847172367635082 ], [ 7.744162724080009, 33.847768932847202 ] ] } },
{ "type": "Feature", "properties": { "average_dip": "(20,10,50)", "average_rake": "", "catalog_id": "NAF_61", "catalog_name": "GEM_N_Africa", "dip_dir": "N", "lower_seis_depth": null, "name": "", "net_slip_rate": "", "slip_type": "Reverse", "upper_seis_depth": null, "downthrown_side_id": null, "reference": "DEM", "epistemic_quality": "1", "accuracy": "30000", "activity_confidence": "2", "fs_name": "", "last_movement": "", "downthrown_side_dir": "S", "vert_sep_rate": "", "strike_slip_rate": "", "exposure_quality": "1", "shortening_rate": "(0.1, 0.01, 0.2)", "notes": "", "index_right": 121, "NAME_EN": "Algeria" }, "geometry": { "type": "LineString", "coordinates": [ [ 7.498228715382217, 34.458800851364387 ], [ 7.520301628230774, 34.452089492728014 ], [ 7.538496867200532, 34.45134378621286 ], [ 7.561315486564244, 34.447764394940116 ], [ 7.573097649503678, 34.448957525364364 ] ] } },
{ "type": "Feature", "properties": { "average_dip": "(20,10,50)", "average_rake": "", "catalog_id": "NAF_62", "catalog_name": "GEM_N_Africa", "dip_dir": "N", "lower_seis_depth": null, "name": "", "net_slip_rate": "", "slip_type": "Reverse", "upper_seis_depth": null, "downthrown_side_id": null, "reference": "DEM", "epistemic_quality": "2", "accuracy": "20000", "activity_confidence": "2", "fs_name": "", "last_movement": "", "downthrown_side_dir": "S", "vert_sep_rate": "", "strike_slip_rate": "", "exposure_quality": "1", "shortening_rate": "(0.1, 0.001, 0.2)", "notes": "", "index_right": 121, "NAME_EN": "Algeria" }, "geometry": { "type": "LineString", "coordinates": [ [ 7.501211541442832, 34.442842731940104 ], [ 7.524179302109577, 34.438815916758273 ], [ 7.557885236594537, 34.438666775455246 ], [ 7.574439921230956, 34.432253699424919 ], [ 7.610084692655319, 34.423901786455197 ], [ 7.633798159837217, 34.414953308273347 ], [ 7.642150072806942, 34.414207601758193 ], [ 7.684655344170721, 34.418383558243058 ], [ 7.718957843867805, 34.429569155970363 ] ] } },
{ "type": "Feature", "properties": { "average_dip": "(20,10,50)", "average_rake": "", "catalog_id": "NAF_63", "catalog_name": "GEM_N_Africa", "dip_dir": "N", "lower_seis_depth": null, "name": "", "net_slip_rate": "", "slip_type": "Reverse", "upper_seis_depth": null, "downthrown_side_id": null, "reference": "DEM", "epistemic_quality": "2", "accuracy": "30000", "activity_confidence": "2", "fs_name": "", "last_movement": "", "downthrown_side_dir": "S", "vert_sep_rate": "", "strike_slip_rate": "", "exposure_quality": "2", "shortening_rate": "(0.1, 0.01, 0.2)", "notes": "", "index_right": 121, "NAME_EN": "Algeria" }, "geometry": { "type": "LineString", "coordinates": [ [ 7.622314279503846, 34.40854023224302 ], [ 7.642448355413004, 34.40242543881876 ], [ 7.662880713928224, 34.391687265000542 ], [ 7.66504326282217, 34.389002721545985 ], [ 7.67332060514038, 34.386094466136882 ], [ 7.69196326801923, 34.38698931395507 ], [ 7.731038289413299, 34.383559063985359 ], [ 7.764893365201291, 34.382515074864138 ], [ 7.799345006201407, 34.385945324833848 ], [ 7.802476973565052, 34.388182444379311 ], [ 7.809039190898408, 34.389077292197499 ], [ 7.826488723353012, 34.38758587916719 ], [ 7.836481190656075, 34.389822998712653 ] ] } },
{ "type": "Feature", "properties": { "average_dip": "(20,10,50)", "average_rake": "", "catalog_id": "NAF_64", "catalog_name": "GEM_N_Africa", "dip_dir": "N", "lower_seis_depth": null, "name": "El Guentass Thrust", "net_slip_rate": "", "slip_type": "Reverse", "upper_seis_depth": null, "downthrown_side_id": null, "reference": "DEM", "epistemic_quality": "1", "accuracy": "30000", "activity_confidence": "1", "fs_name": "El Guentass Thrust", "last_movement": "", "downthrown_side_dir": "S", "vert_sep_rate": "", "strike_slip_rate": "", "exposure_quality": "1", "shortening_rate": "(0.1, 0.01, 0.2)", "notes": "", "index_right": 121, "NAME_EN": "Algeria" }, "geometry": { "type": "LineString", "coordinates": [ [ 7.68107595289798, 34.373268314076242 ], [ 7.68674332241315, 34.369092357591377 ], [ 7.702254017928354, 34.363126705470144 ], [ 7.717764713443557, 34.360889585924681 ], [ 7.736407376322408, 34.360889585924681 ], [ 7.762805386958859, 34.364170694591365 ], [ 7.826637864656043, 34.363574129379238 ], [ 7.837226897171229, 34.36521468371258 ], [ 7.87205139142892, 34.358652466379219 ], [ 7.884952114141084, 34.357832189212552 ], [ 7.889202641277462, 34.356415346833757 ], [ 7.901283086822957, 34.34731772734888 ], [ 7.915376939959368, 34.332105314439737 ], [ 7.928948798535171, 34.324648249288195 ], [ 7.96235645041407, 34.311672955924514 ], [ 7.991513575156593, 34.310032401591172 ], [ 8.002624602232387, 34.31144924396996 ], [ 8.023206102050638, 34.318757167818468 ], [ 8.046323004020412, 34.324051684076068 ], [ 8.060305001179552, 34.325654953083657 ], [ 8.101579856793323, 34.322821268326074 ], [ 8.146918812914688, 34.322224703113953 ], [ 8.189424084278466, 34.326698942204871 ], [ 8.212690127551271, 34.326698942204871 ], [ 8.238789855581663, 34.330800328038208 ], [ 8.277119170460578, 34.329830909568507 ], [ 8.297924382233376, 34.33266459432609 ], [ 8.33416571886986, 34.334006866053372 ], [ 8.366678522930574, 34.348026148538267 ], [ 8.385172044506394, 34.352500387629192 ], [ 8.412315761658, 34.354588365871628 ] ] } },
{ "type": "Feature", "properties": { "average_dip": "(20,15,50)", "average_rake": "", "catalog_id": "NAF_65", "catalog_name": "GEM_N_Africa", "dip_dir": "N", "lower_seis_depth": null, "name": "", "net_slip_rate": "", "slip_type": "Reverse", "upper_seis_depth": null, "downthrown_side_id": null, "reference": "DEM", "epistemic_quality": "2", "accuracy": "50000", "activity_confidence": "2", "fs_name": "", "last_movement": "", "downthrown_side_dir": "S", "vert_sep_rate": "", "strike_slip_rate": "", "exposure_quality": "1", "shortening_rate": "(0.1, 0.01, 1)", "notes": "", "index_right": 121, "NAME_EN": "Algeria" }, "geometry": { "type": "LineString", "coordinates": [ [ 5.734334524436925, 34.867280237702865 ], [ 5.746265828679388, 34.866683672490744 ], [ 5.764162785043085, 34.858928324733142 ], [ 5.775497524073426, 34.855945498672526 ], [ 5.813081132437188, 34.849383281339172 ], [ 5.890485468710173, 34.846698737884601 ], [ 5.907189294649623, 34.844014194430045 ], [ 5.936868413952753, 34.838495966217906 ], [ 5.997419782983258, 34.818212749005717 ], [ 6.019343554528786, 34.81493164033904 ], [ 6.116136260195778, 34.815379064248127 ], [ 6.148127069695884, 34.812247096884477 ], [ 6.165352890195945, 34.813440227308753 ], [ 6.221579161438557, 34.809264270823888 ], [ 6.251854845953808, 34.811874243626924 ], [ 6.284815073923616, 34.812619950142079 ], [ 6.304352584620651, 34.818436460960299 ] ] } },
{ "type": "Feature", "properties": { "average_dip": "(20,10,50)", "average_rake": "", "catalog_id": "NAF_66", "catalog_name": "GEM_N_Africa", "dip_dir": "N", "lower_seis_depth": null, "name": "", "net_slip_rate": "", "slip_type": "Reverse", "upper_seis_depth": null, "downthrown_side_id": null, "reference": "DEM", "epistemic_quality": "1", "accuracy": "50000", "activity_confidence": "2", "fs_name": "South Atlas Front", "last_movement": "", "downthrown_side_dir": "S", "vert_sep_rate": "", "strike_slip_rate": "", "exposure_quality": "2", "shortening_rate": "(0.1, 0.01, 1)", "notes": "", "index_right": 121, "NAME_EN": "Algeria" }, "geometry": { "type": "LineString", "coordinates": [ [ 6.322249540984347, 34.82499867829366 ], [ 6.358341736317803, 34.824551254384573 ], [ 6.401070719636127, 34.813291086005748 ], [ 6.428214436787733, 34.808294852354216 ], [ 6.459832393030262, 34.805684879551173 ], [ 6.491897773181885, 34.804491749126925 ], [ 6.534403044545662, 34.805610308899666 ], [ 6.546930914000249, 34.804268037172385 ], [ 6.576460892000348, 34.806505156717847 ], [ 6.595103554879199, 34.805759450202693 ], [ 6.655729494561219, 34.815528205551217 ], [ 6.682388502477976, 34.814148648498183 ], [ 6.714752165235659, 34.808108425725436 ], [ 6.734364246584212, 34.801769920346622 ], [ 6.752410344250939, 34.799681942104193 ] ] } },
{ "type": "Feature", "properties": { "average_dip": "(20,10,50)", "average_rake": "", "catalog_id": "NAF_67", "catalog_name": "GEM_N_Africa", "dip_dir": "N", "lower_seis_depth": null, "name": "", "net_slip_rate": "", "slip_type": "Reverse", "upper_seis_depth": null, "downthrown_side_id": null, "reference": "DEM", "epistemic_quality": "1", "accuracy": "50000", "activity_confidence": "1", "fs_name": "South Atlas Front", "last_movement": "", "downthrown_side_dir": "S", "vert_sep_rate": "", "strike_slip_rate": "", "exposure_quality": "1", "shortening_rate": "(0.1, 0.01, 1.)", "notes": "", "index_right": 121, "NAME_EN": "Algeria" }, "geometry": { "type": "LineString", "coordinates": [ [ 6.754125469235802, 34.795878838876888 ], [ 6.771873284296468, 34.790658893270809 ], [ 6.78708569720561, 34.789913186755655 ], [ 6.821239055599664, 34.783947534634422 ], [ 6.836749751114867, 34.778429306422282 ], [ 6.857331250933118, 34.774253349937418 ], [ 6.878360174660461, 34.767541991301037 ], [ 6.891782891933233, 34.765304871755575 ], [ 6.963370717388019, 34.760681491361616 ], [ 6.990067010630533, 34.752777002300981 ], [ 7.031528292873096, 34.743977665422165 ], [ 7.048232118812546, 34.735774893755483 ], [ 7.078955227236891, 34.729660100331223 ], [ 7.126829585509778, 34.709824307028121 ], [ 7.140550585388612, 34.702516383179614 ], [ 7.150692193994707, 34.694164470209884 ], [ 7.183503280661483, 34.676864079058312 ] ] } },
{ "type": "Feature", "properties": { "average_dip": "(20,10,50)", "average_rake": "", "catalog_id": "NAF_68", "catalog_name": "GEM_N_Africa", "dip_dir": "N", "lower_seis_depth": null, "name": "", "net_slip_rate": "", "slip_type": "Reverse", "upper_seis_depth": null, "downthrown_side_id": null, "reference": "DEM", "epistemic_quality": "1", "accuracy": "50000", "activity_confidence": "2", "fs_name": "", "last_movement": "", "downthrown_side_dir": "S", "vert_sep_rate": "", "strike_slip_rate": "", "exposure_quality": "1", "shortening_rate": "", "notes": "", "index_right": 121, "NAME_EN": "Algeria" }, "geometry": { "type": "LineString", "coordinates": [ [ 7.605871450844718, 34.669108731300703 ], [ 7.622127852875075, 34.669108731300703 ], [ 7.631523754966016, 34.666871611755241 ], [ 7.643753341814542, 34.670451003027978 ], [ 7.673730743723733, 34.670600144331011 ], [ 7.684468917541951, 34.67268812257344 ], [ 7.730255297572407, 34.675223524724963 ], [ 7.74382715614821, 34.678802915997714 ], [ 7.752775634330058, 34.683724578997733 ], [ 7.77171657981497, 34.676714937755285 ], [ 7.78663071011805, 34.677013220361346 ], [ 7.801693981724161, 34.669705296512838 ], [ 7.816608112027241, 34.670152720421925 ], [ 7.842558698754601, 34.666722470452221 ], [ 7.863438481178913, 34.666871611755248 ], [ 7.875518926724408, 34.670003579118898 ], [ 7.889687350512336, 34.684619426815914 ], [ 7.901767796057831, 34.691479926755328 ], [ 7.979321273633848, 34.7087803179069 ], [ 7.991401719179342, 34.709973448331148 ], [ 8.00944781684607, 34.716088241755415 ], [ 8.026002501482489, 34.719071067816031 ], [ 8.040021783967385, 34.725185861240291 ], [ 8.062094696815942, 34.732046361179712 ] ] } },
{ "type": "Feature", "properties": { "average_dip": "(20,10,50)", "average_rake": "", "catalog_id": "NAF_69", "catalog_name": "GEM_N_Africa", "dip_dir": "N", "lower_seis_depth": null, "name": "", "net_slip_rate": "", "slip_type": "Reverse", "upper_seis_depth": null, "downthrown_side_id": null, "reference": "DEM", "epistemic_quality": "1", "accuracy": "30000", "activity_confidence": "2", "fs_name": "", "last_movement": "", "downthrown_side_dir": "S", "vert_sep_rate": "", "strike_slip_rate": "", "exposure_quality": "1", "shortening_rate": "", "notes": "Unclear if it's active; geomorphically distinct but not evidence HW subsidence.  Some EQs in area.", "index_right": 121, "NAME_EN": "Algeria" }, "geometry": { "type": "LineString", "coordinates": [ [ 7.435850365389602, 34.725931567755438 ], [ 7.445693691389634, 34.724291013422103 ], [ 7.463888930359392, 34.724589296028164 ], [ 7.476267658510949, 34.721755611270581 ], [ 7.49893713657163, 34.720562480846333 ], [ 7.552329723056658, 34.726229850361499 ], [ 7.561576483844568, 34.725484143846344 ], [ 7.570375820723386, 34.729063535119082 ], [ 7.582008842359789, 34.729361817725142 ], [ 7.587527070571928, 34.728466969906961 ], [ 7.598712668299239, 34.722053893876634 ] ] } },
{ "type": "Feature", "properties": { "average_dip": "(35,15,60)", "average_rake": "", "catalog_id": "NAF_70", "catalog_name": "GEM_N_Africa", "dip_dir": "N", "lower_seis_depth": null, "name": "Soummam Fault", "net_slip_rate": "", "slip_type": "Reverse", "upper_seis_depth": null, "downthrown_side_id": null, "reference": "Machane and Bensalem 2015", "epistemic_quality": "1", "accuracy": "50000", "activity_confidence": "1", "fs_name": "", "last_movement": "", "downthrown_side_dir": "S", "vert_sep_rate": "", "strike_slip_rate": "", "exposure_quality": "1", "shortening_rate": "", "notes": "Minor Quaternary offset observed in field (by Machane and Bensalem), though it's hard to tell tectonic scarps from fluvial features in DEM", "index_right": 121, "NAME_EN": "Algeria" }, "geometry": { "type": "LineString", "coordinates": [ [ 4.308208099530655, 36.360371107670005 ], [ 4.320735968985242, 36.363950498942742 ], [ 4.341019186197432, 36.37409210754884 ], [ 4.353248773045958, 36.376478368397329 ], [ 4.361898968621744, 36.385128563973119 ], [ 4.369356033773284, 36.388409672639796 ], [ 4.384866729288487, 36.399446129064074 ], [ 4.389937533591535, 36.397954716033766 ], [ 4.405448229106738, 36.402130672518631 ], [ 4.436767902743207, 36.406008346397428 ], [ 4.443926685288685, 36.408096324639864 ], [ 4.447506076561424, 36.411675715912601 ], [ 4.454664859106903, 36.411675715912601 ], [ 4.46719272856149, 36.414658541973218 ], [ 4.480913728440324, 36.422115607124759 ], [ 4.494933010925219, 36.43225721573085 ], [ 4.50805744559193, 36.445679933003625 ], [ 4.53788570619809, 36.457611237246091 ], [ 4.546834184379938, 36.464770019791565 ], [ 4.555708091910271, 36.475806476215851 ], [ 4.560033189698165, 36.484754954397694 ], [ 4.564358287486058, 36.48743949785225 ], [ 4.580018124304292, 36.507126149852319 ], [ 4.593888265486157, 36.520101443215999 ], [ 4.600599624122544, 36.530093910519064 ], [ 4.617005167455932, 36.547543442973669 ], [ 4.632366721668103, 36.556342779852478 ], [ 4.640569493334797, 36.566335247155543 ] ] } },
{ "type": "Feature", "properties": { "average_dip": "(50,20,80)", "average_rake": "", "catalog_id": "NAF_71", "catalog_name": "GEM_N_Africa", "dip_dir": "N", "lower_seis_depth": null, "name": "Kherrata Fault", "net_slip_rate": "", "slip_type": "Dextral-Reverse", "upper_seis_depth": null, "downthrown_side_id": null, "reference": "Harbi et al., 1999 J. Seismology", "epistemic_quality": "2", "accuracy": "50000", "activity_confidence": "2", "fs_name": "Kherrata Fault", "last_movement": "", "downthrown_side_dir": "S", "vert_sep_rate": "", "strike_slip_rate": "", "exposure_quality": "2", "shortening_rate": "", "notes": "Very unclear where the active Kherrata Fault is in particular (clearly there are many in the vicinity), to what degree any of them are active, or their rates and kinematics. Nonetheless it's referenced a bit and there is seismicity in the region.", "index_right": 121, "NAME_EN": "Algeria" }, "geometry": { "type": "LineString", "coordinates": [ [ 5.072685507515159, 36.458345896254855 ], [ 5.125779811394124, 36.462372711436686 ], [ 5.134430006969911, 36.465504678800336 ], [ 5.159187463273024, 36.467741798345799 ], [ 5.184988908697353, 36.473409167860964 ], [ 5.196025365121632, 36.47176861352763 ], [ 5.208553234576222, 36.472514320042784 ], [ 5.245241995121799, 36.480866233012506 ], [ 5.272087429667343, 36.497271776345897 ], [ 5.295055190334087, 36.498166624164078 ], [ 5.309074472818983, 36.502640863255003 ], [ 5.323093755303878, 36.503535711073191 ], [ 5.33084910306148, 36.502342580648943 ] ] } },
{ "type": "Feature", "properties": { "average_dip": "(90,,)", "average_rake": "", "catalog_id": "NAF_72", "catalog_name": "GEM_N_Africa", "dip_dir": "", "lower_seis_depth": null, "name": "", "net_slip_rate": "", "slip_type": "Dextral", "upper_seis_depth": null, "downthrown_side_id": null, "reference": "", "epistemic_quality": "2", "accuracy": "50000", "activity_confidence": "2", "fs_name": "Guelma Fault", "last_movement": "", "downthrown_side_dir": "", "vert_sep_rate": "", "strike_slip_rate": "", "exposure_quality": "2", "shortening_rate": "", "notes": "Shown in general on lots of maps. Precise location uncertain, activity uncertain, etc...", "index_right": 121, "NAME_EN": "Algeria" }, "geometry": { "type": "LineString", "coordinates": [ [ 6.265815931761582, 36.549545803058216 ], [ 6.305189235761714, 36.547159542209727 ], [ 6.336210626792121, 36.547756107421847 ], [ 6.364249191761911, 36.541193890088493 ], [ 6.457313364853132, 36.531201422785422 ], [ 6.51100423394422, 36.533140259724824 ], [ 6.576477265974743, 36.532394553209677 ] ] } },
{ "type": "Feature", "properties": { "average_dip": "(90,,)", "average_rake": "", "catalog_id": "NAF_73", "catalog_name": "GEM_N_Africa", "dip_dir": "", "lower_seis_depth": null, "name": "", "net_slip_rate": "", "slip_type": "Dextral", "upper_seis_depth": null, "downthrown_side_id": null, "reference": "", "epistemic_quality": "2", "accuracy": "100000", "activity_confidence": "2", "fs_name": "Guelma Fault", "last_movement": "", "downthrown_side_dir": "", "vert_sep_rate": "", "strike_slip_rate": "", "exposure_quality": "2", "shortening_rate": "", "notes": "Shown on lots of maps, with general DEM expression (but no clear fault trace). No idea if it's active, although there is distributed local strike-slip seismicity consistent with dextral slip on a structure like this.", "index_right": 121, "NAME_EN": "Algeria" }, "geometry": { "type": "LineString", "coordinates": [ [ 6.629571569853709, 36.549098379149136 ], [ 6.640608026277989, 36.548501813937008 ], [ 6.688929808459968, 36.553274335633994 ], [ 6.71159928652065, 36.553274335633994 ], [ 6.749779460096536, 36.542834444421842 ], [ 6.81033082912704, 36.531499705391504 ], [ 6.834790002824091, 36.531797987997564 ], [ 6.895341371854599, 36.538956770543045 ], [ 6.912641763006172, 36.542536161815782 ], [ 6.948137393127503, 36.545220705270339 ], [ 6.981545045006403, 36.543132727027903 ], [ 7.03314793585506, 36.533587683633932 ], [ 7.050746609612695, 36.537465357512737 ], [ 7.088031935370394, 36.554467466058242 ], [ 7.1447056305221, 36.558345139937046 ], [ 7.195711956158633, 36.568486748543137 ], [ 7.262825542522497, 36.578628357149228 ], [ 7.285495020583178, 36.584594009270461 ], [ 7.329640846280295, 36.600104704785664 ] ] } },
{ "type": "Feature", "properties": { "average_dip": "(90,,)", "average_rake": "", "catalog_id": "NAF_74", "catalog_name": "GEM_N_Africa", "dip_dir": "", "lower_seis_depth": null, "name": "Guelma Fault", "net_slip_rate": "", "slip_type": "Dextral", "upper_seis_depth": null, "downthrown_side_id": null, "reference": "", "epistemic_quality": "2", "accuracy": "150000", "activity_confidence": "2", "fs_name": "Guelma Fault", "last_movement": "", "downthrown_side_dir": "", "vert_sep_rate": "", "strike_slip_rate": "", "exposure_quality": "2", "shortening_rate": "", "notes": "Shown on lots of maps, but actual fault trace (or existence of active faulting) is very unclear.", "index_right": 121, "NAME_EN": "Algeria" }, "geometry": { "type": "LineString", "coordinates": [ [ 7.161409456461549, 36.518076988118729 ], [ 7.178113282400999, 36.513304466421744 ], [ 7.198993064825311, 36.511514770785375 ], [ 7.232400716704211, 36.505549118664142 ], [ 7.297426324825641, 36.509725075149007 ], [ 7.343958411371251, 36.505549118664142 ], [ 7.362451932947071, 36.505549118664142 ], [ 7.381542019735013, 36.50733881430051 ], [ 7.437619149674595, 36.517480422906608 ], [ 7.45909549731103, 36.518673553330849 ], [ 7.503241323008147, 36.515690727270233 ], [ 7.542614627008279, 36.507935379512631 ], [ 7.596305496099368, 36.494214379633803 ], [ 7.634485669675254, 36.491231553573186 ], [ 7.678034930160248, 36.480493379754968 ], [ 7.703090669069423, 36.477510553694351 ] ] } },
{ "type": "Feature", "properties": { "average_dip": "(50,40,70)", "average_rake": "", "catalog_id": "NAF_75", "catalog_name": "GEM_N_Africa", "dip_dir": "SW", "lower_seis_depth": null, "name": "", "net_slip_rate": "", "slip_type": "Normal", "upper_seis_depth": null, "downthrown_side_id": null, "reference": "DEM", "epistemic_quality": "1", "accuracy": "30000", "activity_confidence": "1", "fs_name": "Tebessa Graben", "last_movement": "", "downthrown_side_dir": "SW", "vert_sep_rate": "", "strike_slip_rate": "", "exposure_quality": "1", "shortening_rate": "", "notes": "Best-expressed normal fault in the Atlas. Dextral-normal faulting in graben.", "index_right": 121, "NAME_EN": "Algeria" }, "geometry": { "type": "LineString", "coordinates": [ [ 7.999913866672919, 35.705797123766658 ], [ 8.011989191486979, 35.696481873195808 ], [ 8.016819321412603, 35.671641205006885 ], [ 8.020614423497022, 35.66543103795965 ], [ 8.028549636946263, 35.658875861632019 ], [ 8.044765073125143, 35.655080759547602 ], [ 8.049595203050767, 35.641280388331531 ], [ 8.058910453621614, 35.637140276966711 ], [ 8.062360546425632, 35.630240091358672 ], [ 8.066500657790453, 35.626444989274255 ], [ 8.068915722753264, 35.604019386048144 ], [ 8.076850936202504, 35.582283801382836 ], [ 8.077885964043709, 35.570553485849175 ], [ 8.088926261016566, 35.562618272399938 ], [ 8.095481437344198, 35.555373077511497 ], [ 8.097551493026609, 35.54088268773463 ], [ 8.092721363100985, 35.526047288677354 ], [ 8.087201214614556, 35.515697010265299 ], [ 8.070985778435675, 35.499136564806015 ], [ 8.072365815557283, 35.495341462721591 ], [ 8.095998951264802, 35.487406249272354 ], [ 8.109109303920068, 35.481196082225118 ], [ 8.152062959330085, 35.451870293390975 ], [ 8.167588376948162, 35.447040163465346 ], [ 8.194499100819497, 35.432549773688478 ] ] } },
{ "type": "Feature", "properties": { "average_dip": "(50,40,60)", "average_rake": "", "catalog_id": "NAF_76", "catalog_name": "GEM_N_Africa", "dip_dir": "NE", "lower_seis_depth": null, "name": "Tebessa Fault", "net_slip_rate": "", "slip_type": "Dextral-Normal", "upper_seis_depth": null, "downthrown_side_id": null, "reference": "DEM", "epistemic_quality": "1", "accuracy": "50000", "activity_confidence": "1", "fs_name": "Tebessa Graben", "last_movement": "", "downthrown_side_dir": "NE", "vert_sep_rate": "", "strike_slip_rate": "", "exposure_quality": "1", "shortening_rate": "", "notes": "5.4 EQ on fault in 1995", "index_right": 121, "NAME_EN": "Algeria" }, "geometry": { "type": "LineString", "coordinates": [ [ 7.975331955444297, 35.465066898366338 ], [ 7.987407280258357, 35.459546749879912 ], [ 7.991547391623178, 35.455406638515093 ], [ 7.997067540109605, 35.441951276579424 ], [ 8.015353031970898, 35.423665784718132 ], [ 8.027083347504556, 35.417110608390495 ], [ 8.032603495990983, 35.417110608390495 ], [ 8.037778635197009, 35.414695543427683 ], [ 8.048473922889464, 35.405035283576439 ], [ 8.061929284825132, 35.39606504228599 ], [ 8.067794442591961, 35.387784819556352 ], [ 8.080214776686423, 35.376399513303092 ], [ 8.084354888051244, 35.374329457620682 ], [ 8.094015147902493, 35.353628900796579 ], [ 8.098845277828117, 35.34741873374935 ] ] } },
{ "type": "Feature", "properties": { "average_dip": "(70,50,90)", "average_rake": "", "catalog_id": "NAF_81", "catalog_name": "GEM_N_Africa", "dip_dir": "S", "lower_seis_depth": null, "name": "", "net_slip_rate": "", "slip_type": "Dextral", "upper_seis_depth": null, "downthrown_side_id": null, "reference": "DEM", "epistemic_quality": "1", "accuracy": "50000", "activity_confidence": "1", "fs_name": "", "last_movement": "", "downthrown_side_dir": "S", "vert_sep_rate": "", "strike_slip_rate": "", "exposure_quality": "1", "shortening_rate": "", "notes": "good geomorphic expression. Possibly some normal fault (down to the south) slip as well.", "index_right": 121, "NAME_EN": "Algeria" }, "geometry": { "type": "LineString", "coordinates": [ [ 7.491973953601474, 35.181555522196227 ], [ 7.502324232013526, 35.178105429392211 ], [ 7.549935512708965, 35.156024835446502 ], [ 7.61272720174208, 35.132564204379186 ], [ 7.633427758566183, 35.118763833163115 ], [ 7.675346386134994, 35.101858378423429 ], [ 7.705362193529944, 35.087367988646555 ], [ 7.752973474225383, 35.060802274055625 ], [ 7.799204717799214, 35.046656893559152 ], [ 7.827495478792155, 35.03251151306268 ], [ 7.868896592440362, 35.006980826312954 ], [ 7.911677743210177, 34.985245241647647 ], [ 7.940658522763922, 34.968339786907961 ], [ 7.982749654972934, 34.950399304327071 ], [ 7.993789951945788, 34.944189137279835 ], [ 8.003105202516636, 34.935563905269795 ], [ 8.015525536611097, 34.928318710381362 ] ] } },
{ "type": "Feature", "properties": { "average_dip": "(45,20,60)", "average_rake": "", "catalog_id": "NAF_131", "catalog_name": "GEM_N_Africa", "dip_dir": "N", "lower_seis_depth": null, "name": "", "net_slip_rate": "", "slip_type": "Reverse-Dextral", "upper_seis_depth": null, "downthrown_side_id": null, "reference": "DEM", "epistemic_quality": "2", "accuracy": "0", "activity_confidence": "2", "fs_name": "", "last_movement": "", "downthrown_side_dir": "S", "vert_sep_rate": "", "strike_slip_rate": "", "exposure_quality": "2", "shortening_rate": "", "notes": "Doesn't look active as nearby traces but fills in a deformation gap and there is a basin (maybe old?)", "index_right": 121, "NAME_EN": "Algeria" }, "geometry": { "type": "LineString", "coordinates": [ [ 2.06519770890026, 36.311283583022878 ], [ 2.080490446201542, 36.308584864675595 ], [ 2.107027843283177, 36.299364243655702 ], [ 2.118272503063531, 36.293741913765523 ], [ 2.125019298931743, 36.294416593352345 ], [ 2.131990987995563, 36.29194276820067 ], [ 2.133565240364812, 36.28632043831049 ], [ 2.138287997472561, 36.282722147180777 ], [ 2.144585006949559, 36.28137278800714 ], [ 2.171797083618016, 36.266529837097067 ], [ 2.21070360645804, 36.26630494390146 ], [ 2.214301897587753, 36.267654303075105 ], [ 2.224646984585679, 36.26338133235857 ], [ 2.231168887258284, 36.264955584727822 ], [ 2.260405002687204, 36.26518047792343 ], [ 2.266477118968595, 36.267429409879497 ], [ 2.275247953597272, 36.264280905141 ], [ 2.280645390291841, 36.258883468446427 ], [ 2.309431719329547, 36.24134179918908 ], [ 2.319776806327473, 36.239092867233005 ], [ 2.328322747760542, 36.234595003320869 ], [ 2.34001719393211, 36.23189628497358 ], [ 2.383196687488669, 36.228747780235082 ], [ 2.406585579831805, 36.229197566626297 ], [ 2.414231948482445, 36.234145216929655 ], [ 2.420978744350658, 36.230097139408727 ] ] } }
]
}
