{
"type": "FeatureCollection",
"name": "faults_thailand",
"crs": { "type": "name", "properties": { "name": "urn:ogc:def:crs:OGC:1.3:CRS84" } },
"features": [
{ "type": "Feature", "properties": { "average_dip": null, "average_rake": null, "catalog_id": "GAF_125", "catalog_name": "HimaTibetMap", "dip_dir": null, "lower_seis_depth": null, "name": null, "net_slip_rate": null, "slip_type": "Dextral", "upper_seis_depth": null, "downthrown_side_id": null, "reference": null, "epistemic_quality": null, "accuracy": null, "activity_confidence": null, "fs_name": null, "last_movement": null, "downthrown_side_dir": null, "vert_sep_rate": null, "strike_slip_rate": null, "exposure_quality": "1", "shortening_rate": null, "notes": null, "index_right": 110, "NAME_EN": "Thailand" }, "geometry": { "type": "LineString", "coordinates": [ [ 103.264126235558749, 18.42862516826056 ], [ 103.742161188504099, 18.419605640846498 ], [ 104.066864175410373, 18.320390839291804 ], [ 104.256274251105708, 18.176078400666793 ], [ 104.445684326801029, 17.977648797557404 ], [ 104.72528967663699, 17.725102029963633 ], [ 104.878621642676066, 17.472555262369866 ], [ 104.941758334574502, 17.31922329633079 ] ] } },
{ "type": "Feature", "properties": { "average_dip": "(90.0,,)", "average_rake": "(0.0,,)", "catalog_id": "EOS_AF0078", "catalog_name": "EOS_SE_Asia", "dip_dir": null, "lower_seis_depth": "(15.0,,)", "name": null, "net_slip_rate": null, "slip_type": "Sinistral", "upper_seis_depth": "(1.0,,)", "downthrown_side_id": null, "reference": null, "epistemic_quality": null, "accuracy": null, "activity_confidence": null, "fs_name": null, "last_movement": null, "downthrown_side_dir": null, "vert_sep_rate": null, "strike_slip_rate": null, "exposure_quality": null, "shortening_rate": null, "notes": null, "index_right": 110, "NAME_EN": "Thailand" }, "geometry": { "type": "LineString", "coordinates": [ [ 100.483, 20.428 ], [ 100.474, 20.428 ], [ 100.462, 20.424 ], [ 100.451, 20.418 ], [ 100.439, 20.41 ], [ 100.423, 20.396 ], [ 100.39, 20.378 ], [ 100.362, 20.358 ], [ 100.298, 20.32 ], [ 100.242, 20.294 ], [ 100.218, 20.285 ], [ 100.199, 20.274 ], [ 100.189, 20.265 ], [ 100.184, 20.258 ], [ 100.17, 20.249 ], [ 100.144, 20.238 ], [ 100.107, 20.225 ], [ 100.091, 20.216 ], [ 100.077, 20.211 ], [ 100.046, 20.196 ], [ 100.018, 20.176 ], [ 99.972, 20.159 ], [ 99.957, 20.155 ], [ 99.938, 20.155 ], [ 99.905, 20.146 ], [ 99.86, 20.138 ], [ 99.837, 20.13 ], [ 99.798, 20.113 ], [ 99.779, 20.108 ], [ 99.748, 20.105 ], [ 99.731, 20.105 ], [ 99.711, 20.108 ], [ 99.669, 20.111 ], [ 99.628, 20.107 ], [ 99.604, 20.103 ], [ 99.572, 20.105 ], [ 99.544, 20.102 ], [ 99.489, 20.083 ], [ 99.464, 20.077 ], [ 99.386, 20.065 ], [ 99.357, 20.052 ], [ 99.349, 20.05 ], [ 99.338, 20.051 ], [ 99.318, 20.049 ], [ 99.29, 20.041 ], [ 99.281, 20.037 ], [ 99.265, 20.026 ], [ 99.203, 19.957 ], [ 99.153, 19.919 ], [ 99.098, 19.8 ], [ 99.096, 19.732 ], [ 99.111, 19.688 ] ] } },
{ "type": "Feature", "properties": { "average_dip": "(90.0,,)", "average_rake": "(180.0,,)", "catalog_id": "EOS_AF0150", "catalog_name": "EOS_SE_Asia", "dip_dir": null, "lower_seis_depth": "(15.0,,)", "name": null, "net_slip_rate": null, "slip_type": "Dextral", "upper_seis_depth": "(1.0,,)", "downthrown_side_id": null, "reference": null, "epistemic_quality": null, "accuracy": null, "activity_confidence": null, "fs_name": null, "last_movement": null, "downthrown_side_dir": null, "vert_sep_rate": null, "strike_slip_rate": null, "exposure_quality": null, "shortening_rate": null, "notes": null, "index_right": 110, "NAME_EN": "Thailand" }, "geometry": { "type": "LineString", "coordinates": [ [ 97.277, 19.369 ], [ 97.29, 19.347 ], [ 97.309, 19.307 ], [ 97.326, 19.264 ], [ 97.35, 19.186 ], [ 97.359, 19.146 ], [ 97.355, 19.082 ], [ 97.358, 19.031 ], [ 97.357, 18.892 ], [ 97.355, 18.846 ], [ 97.341, 18.787 ], [ 97.346, 18.721 ], [ 97.351, 18.683 ], [ 97.372, 18.572 ], [ 97.377, 18.515 ], [ 97.386, 18.448 ], [ 97.421, 18.376 ], [ 97.461, 18.282 ], [ 97.489, 18.19 ], [ 97.52, 18.148 ], [ 97.539, 18.062 ], [ 97.554, 18.012 ], [ 97.594, 17.945 ], [ 97.634, 17.889 ], [ 97.697, 17.827 ], [ 97.736, 17.785 ], [ 97.827, 17.667 ], [ 97.916, 17.585 ], [ 98.094, 17.395 ], [ 98.162, 17.304 ], [ 98.214, 17.253 ], [ 98.27, 17.215 ], [ 98.32, 17.17 ] ] } },
{ "type": "Feature", "properties": { "average_dip": "(90.0,,)", "average_rake": "(180.0,,)", "catalog_id": "EOS_AF0151", "catalog_name": "EOS_SE_Asia", "dip_dir": null, "lower_seis_depth": "(15.0,,)", "name": null, "net_slip_rate": null, "slip_type": "Dextral", "upper_seis_depth": "(1.0,,)", "downthrown_side_id": null, "reference": null, "epistemic_quality": null, "accuracy": null, "activity_confidence": null, "fs_name": null, "last_movement": null, "downthrown_side_dir": null, "vert_sep_rate": null, "strike_slip_rate": null, "exposure_quality": null, "shortening_rate": null, "notes": null, "index_right": 110, "NAME_EN": "Thailand" }, "geometry": { "type": "LineString", "coordinates": [ [ 97.886, 18.234 ], [ 97.887, 18.226 ], [ 97.886, 18.218 ], [ 97.89, 18.191 ], [ 97.888, 18.176 ], [ 97.89, 18.147 ], [ 97.887, 18.139 ], [ 97.887, 18.124 ], [ 97.906, 18.039 ], [ 97.938, 17.936 ], [ 97.981, 17.839 ], [ 98.042, 17.679 ], [ 98.126, 17.56 ], [ 98.2, 17.463 ], [ 98.318, 17.331 ], [ 98.399, 17.278 ], [ 98.474, 17.213 ], [ 98.671, 17.117 ], [ 98.773, 17.035 ], [ 98.841, 16.97 ], [ 98.908, 16.896 ], [ 99.065, 16.744 ], [ 99.168, 16.627 ], [ 99.285, 16.399 ] ] } },
{ "type": "Feature", "properties": { "average_dip": "(90.0,,)", "average_rake": "(180.0,,)", "catalog_id": "EOS_AF0162", "catalog_name": "EOS_SE_Asia", "dip_dir": null, "lower_seis_depth": "(15.0,,)", "name": null, "net_slip_rate": null, "slip_type": "Dextral", "upper_seis_depth": "(1.0,,)", "downthrown_side_id": null, "reference": null, "epistemic_quality": null, "accuracy": null, "activity_confidence": null, "fs_name": null, "last_movement": null, "downthrown_side_dir": null, "vert_sep_rate": null, "strike_slip_rate": null, "exposure_quality": null, "shortening_rate": null, "notes": null, "index_right": 110, "NAME_EN": "Thailand" }, "geometry": { "type": "LineString", "coordinates": [ [ 99.145, 19.257 ], [ 99.159, 19.173 ], [ 99.158, 19.139 ], [ 99.159, 19.121 ], [ 99.172, 19.057 ], [ 99.178, 19.049 ], [ 99.191, 19.002 ], [ 99.237, 18.939 ], [ 99.28, 18.846 ], [ 99.298, 18.776 ], [ 99.3, 18.696 ], [ 99.286, 18.63 ], [ 99.27, 18.584 ], [ 99.245, 18.542 ], [ 99.215, 18.504 ], [ 99.171, 18.468 ], [ 99.117, 18.44 ], [ 99.061, 18.418 ], [ 99.01, 18.404 ] ] } },
{ "type": "Feature", "properties": { "average_dip": "(90.0,,)", "average_rake": "(-90.0,,)", "catalog_id": "EOS_AF0163", "catalog_name": "EOS_SE_Asia", "dip_dir": null, "lower_seis_depth": "(15.0,,)", "name": null, "net_slip_rate": null, "slip_type": "Normal", "upper_seis_depth": "(1.0,,)", "downthrown_side_id": null, "reference": null, "epistemic_quality": null, "accuracy": null, "activity_confidence": null, "fs_name": null, "last_movement": null, "downthrown_side_dir": null, "vert_sep_rate": null, "strike_slip_rate": null, "exposure_quality": null, "shortening_rate": null, "notes": null, "index_right": 110, "NAME_EN": "Thailand" }, "geometry": { "type": "LineString", "coordinates": [ [ 99.497, 19.413 ], [ 99.498, 19.388 ], [ 99.495, 19.265 ], [ 99.499, 19.222 ], [ 99.504, 19.198 ], [ 99.504, 19.156 ] ] } },
{ "type": "Feature", "properties": { "average_dip": "(90.0,,)", "average_rake": "(-90.0,,)", "catalog_id": "EOS_AF0164", "catalog_name": "EOS_SE_Asia", "dip_dir": null, "lower_seis_depth": "(15.0,,)", "name": null, "net_slip_rate": null, "slip_type": "Normal", "upper_seis_depth": "(1.0,,)", "downthrown_side_id": null, "reference": null, "epistemic_quality": null, "accuracy": null, "activity_confidence": null, "fs_name": null, "last_movement": null, "downthrown_side_dir": null, "vert_sep_rate": null, "strike_slip_rate": null, "exposure_quality": null, "shortening_rate": null, "notes": null, "index_right": 110, "NAME_EN": "Thailand" }, "geometry": { "type": "LineString", "coordinates": [ [ 99.759, 19.08 ], [ 99.733, 19.11 ], [ 99.722, 19.129 ], [ 99.708, 19.16 ], [ 99.685, 19.22 ], [ 99.668, 19.254 ], [ 99.663, 19.269 ], [ 99.661, 19.301 ], [ 99.663, 19.321 ], [ 99.662, 19.39 ], [ 99.665, 19.424 ], [ 99.675, 19.481 ], [ 99.68, 19.499 ] ] } },
{ "type": "Feature", "properties": { "average_dip": "(70.0,,)", "average_rake": "(0.0,,)", "catalog_id": "EOS_AF0165", "catalog_name": "EOS_SE_Asia", "dip_dir": null, "lower_seis_depth": "(15.0,,)", "name": null, "net_slip_rate": null, "slip_type": "Sinistral", "upper_seis_depth": "(1.0,,)", "downthrown_side_id": null, "reference": null, "epistemic_quality": null, "accuracy": null, "activity_confidence": null, "fs_name": null, "last_movement": null, "downthrown_side_dir": null, "vert_sep_rate": null, "strike_slip_rate": null, "exposure_quality": null, "shortening_rate": null, "notes": null, "index_right": 110, "NAME_EN": "Thailand" }, "geometry": { "type": "LineString", "coordinates": [ [ 100.229, 19.762 ], [ 100.229, 19.774 ], [ 100.233, 19.788 ], [ 100.245, 19.806 ], [ 100.272, 19.854 ], [ 100.284, 19.867 ], [ 100.294, 19.882 ], [ 100.302, 19.901 ], [ 100.306, 19.922 ], [ 100.313, 19.939 ], [ 100.322, 19.973 ], [ 100.333, 19.995 ], [ 100.342, 20.006 ], [ 100.381, 20.036 ], [ 100.388, 20.055 ], [ 100.399, 20.075 ], [ 100.402, 20.09 ], [ 100.408, 20.103 ], [ 100.424, 20.124 ], [ 100.43, 20.135 ], [ 100.435, 20.164 ], [ 100.444, 20.182 ], [ 100.455, 20.2 ], [ 100.471, 20.209 ], [ 100.495, 20.23 ], [ 100.498, 20.235 ], [ 100.507, 20.239 ], [ 100.519, 20.25 ] ] } },
{ "type": "Feature", "properties": { "average_dip": "(90.0,,)", "average_rake": "(-90.0,,)", "catalog_id": "EOS_AF0166", "catalog_name": "EOS_SE_Asia", "dip_dir": null, "lower_seis_depth": "(15.0,,)", "name": null, "net_slip_rate": null, "slip_type": "Normal", "upper_seis_depth": "(1.0,,)", "downthrown_side_id": null, "reference": null, "epistemic_quality": null, "accuracy": null, "activity_confidence": null, "fs_name": null, "last_movement": null, "downthrown_side_dir": null, "vert_sep_rate": null, "strike_slip_rate": null, "exposure_quality": null, "shortening_rate": null, "notes": null, "index_right": 110, "NAME_EN": "Thailand" }, "geometry": { "type": "LineString", "coordinates": [ [ 98.955, 19.644 ], [ 98.955, 19.616 ], [ 98.946, 19.519 ], [ 98.948, 19.489 ], [ 98.947, 19.472 ], [ 98.934, 19.413 ], [ 98.93, 19.386 ], [ 98.928, 19.335 ], [ 98.935, 19.31 ], [ 98.949, 19.279 ] ] } },
{ "type": "Feature", "properties": { "average_dip": "(90.0,,)", "average_rake": "(0.0,,)", "catalog_id": "EOS_AF0178", "catalog_name": "EOS_SE_Asia", "dip_dir": null, "lower_seis_depth": "(15.0,,)", "name": null, "net_slip_rate": null, "slip_type": "Sinistral", "upper_seis_depth": "(1.0,,)", "downthrown_side_id": null, "reference": null, "epistemic_quality": null, "accuracy": null, "activity_confidence": null, "fs_name": null, "last_movement": null, "downthrown_side_dir": null, "vert_sep_rate": null, "strike_slip_rate": null, "exposure_quality": null, "shortening_rate": null, "notes": null, "index_right": 110, "NAME_EN": "Thailand" }, "geometry": { "type": "LineString", "coordinates": [ [ 99.492, 19.462 ], [ 99.499, 19.488 ], [ 99.547, 19.609 ], [ 99.558, 19.666 ], [ 99.568, 19.681 ], [ 99.594, 19.71 ], [ 99.651, 19.75 ] ] } },
{ "type": "Feature", "properties": { "average_dip": "(80.0,,)", "average_rake": "(-90.0,,)", "catalog_id": "EOS_AF0179", "catalog_name": "EOS_SE_Asia", "dip_dir": null, "lower_seis_depth": "(15.0,,)", "name": null, "net_slip_rate": null, "slip_type": "Normal", "upper_seis_depth": "(1.0,,)", "downthrown_side_id": null, "reference": null, "epistemic_quality": null, "accuracy": null, "activity_confidence": null, "fs_name": null, "last_movement": null, "downthrown_side_dir": null, "vert_sep_rate": null, "strike_slip_rate": null, "exposure_quality": null, "shortening_rate": null, "notes": null, "index_right": 110, "NAME_EN": "Thailand" }, "geometry": { "type": "LineString", "coordinates": [ [ 99.523, 19.367 ], [ 99.524, 19.335 ], [ 99.535, 19.192 ], [ 99.534, 19.175 ] ] } },
{ "type": "Feature", "properties": { "average_dip": "(90.0,,)", "average_rake": "(180.0,,)", "catalog_id": "EOS_AF0180", "catalog_name": "EOS_SE_Asia", "dip_dir": null, "lower_seis_depth": "(15.0,,)", "name": null, "net_slip_rate": null, "slip_type": "Dextral", "upper_seis_depth": "(1.0,,)", "downthrown_side_id": null, "reference": null, "epistemic_quality": null, "accuracy": null, "activity_confidence": null, "fs_name": null, "last_movement": null, "downthrown_side_dir": null, "vert_sep_rate": null, "strike_slip_rate": null, "exposure_quality": null, "shortening_rate": null, "notes": null, "index_right": 110, "NAME_EN": "Thailand" }, "geometry": { "type": "LineString", "coordinates": [ [ 99.512, 19.149 ], [ 99.516, 19.07 ], [ 99.515, 19.028 ], [ 99.516, 18.98 ], [ 99.514, 18.954 ], [ 99.509, 18.928 ], [ 99.502, 18.903 ], [ 99.491, 18.878 ], [ 99.481, 18.86 ], [ 99.473, 18.846 ], [ 99.447, 18.819 ] ] } },
{ "type": "Feature", "properties": { "average_dip": "(90.0,,)", "average_rake": "(180.0,,)", "catalog_id": "EOS_AF0181", "catalog_name": "EOS_SE_Asia", "dip_dir": null, "lower_seis_depth": "(15.0,,)", "name": null, "net_slip_rate": null, "slip_type": "Dextral", "upper_seis_depth": "(1.0,,)", "downthrown_side_id": null, "reference": null, "epistemic_quality": null, "accuracy": null, "activity_confidence": null, "fs_name": null, "last_movement": null, "downthrown_side_dir": null, "vert_sep_rate": null, "strike_slip_rate": null, "exposure_quality": null, "shortening_rate": null, "notes": null, "index_right": 110, "NAME_EN": "Thailand" }, "geometry": { "type": "LineString", "coordinates": [ [ 99.454, 18.442 ], [ 99.51, 18.587 ], [ 99.519, 18.643 ], [ 99.531, 18.694 ], [ 99.541, 18.75 ], [ 99.541, 18.787 ], [ 99.531, 18.865 ] ] } },
{ "type": "Feature", "properties": { "average_dip": "(90.0,,)", "average_rake": "(0.0,,)", "catalog_id": "EOS_AF0182", "catalog_name": "EOS_SE_Asia", "dip_dir": null, "lower_seis_depth": "(15.0,,)", "name": null, "net_slip_rate": null, "slip_type": "Sinistral", "upper_seis_depth": "(1.0,,)", "downthrown_side_id": null, "reference": null, "epistemic_quality": null, "accuracy": null, "activity_confidence": null, "fs_name": null, "last_movement": null, "downthrown_side_dir": null, "vert_sep_rate": null, "strike_slip_rate": null, "exposure_quality": null, "shortening_rate": null, "notes": null, "index_right": 110, "NAME_EN": "Thailand" }, "geometry": { "type": "LineString", "coordinates": [ [ 99.229, 18.963 ], [ 99.26, 18.979 ], [ 99.32, 19.031 ], [ 99.354, 19.052 ], [ 99.386, 19.077 ], [ 99.408, 19.089 ], [ 99.438, 19.097 ], [ 99.458, 19.108 ], [ 99.483, 19.127 ] ] } },
{ "type": "Feature", "properties": { "average_dip": "(60.0,,)", "average_rake": "(-90.0,,)", "catalog_id": "EOS_AF0183", "catalog_name": "EOS_SE_Asia", "dip_dir": null, "lower_seis_depth": "(15.0,,)", "name": null, "net_slip_rate": null, "slip_type": "Normal", "upper_seis_depth": "(1.0,,)", "downthrown_side_id": null, "reference": null, "epistemic_quality": null, "accuracy": null, "activity_confidence": null, "fs_name": null, "last_movement": null, "downthrown_side_dir": null, "vert_sep_rate": null, "strike_slip_rate": null, "exposure_quality": null, "shortening_rate": null, "notes": null, "index_right": 110, "NAME_EN": "Thailand" }, "geometry": { "type": "LineString", "coordinates": [ [ 98.689, 18.496 ], [ 98.699, 18.512 ], [ 98.708, 18.557 ], [ 98.715, 18.573 ], [ 98.728, 18.581 ], [ 98.744, 18.587 ], [ 98.753, 18.606 ], [ 98.76, 18.627 ], [ 98.76, 18.641 ], [ 98.766, 18.673 ], [ 98.774, 18.686 ], [ 98.797, 18.706 ] ] } },
{ "type": "Feature", "properties": { "average_dip": "(90.0,,)", "average_rake": "(180.0,,)", "catalog_id": "EOS_AF0184", "catalog_name": "EOS_SE_Asia", "dip_dir": null, "lower_seis_depth": "(15.0,,)", "name": null, "net_slip_rate": null, "slip_type": "Dextral", "upper_seis_depth": "(1.0,,)", "downthrown_side_id": null, "reference": null, "epistemic_quality": null, "accuracy": null, "activity_confidence": null, "fs_name": null, "last_movement": null, "downthrown_side_dir": null, "vert_sep_rate": null, "strike_slip_rate": null, "exposure_quality": null, "shortening_rate": null, "notes": null, "index_right": 110, "NAME_EN": "Thailand" }, "geometry": { "type": "LineString", "coordinates": [ [ 98.008, 19.425 ], [ 98.001, 19.399 ], [ 97.998, 19.378 ], [ 97.999, 19.301 ], [ 97.996, 19.267 ], [ 97.994, 19.11 ], [ 97.996, 19.056 ], [ 97.987, 19.016 ], [ 97.985, 18.979 ], [ 97.976, 18.962 ], [ 97.957, 18.91 ] ] } },
{ "type": "Feature", "properties": { "average_dip": "(90.0,,)", "average_rake": "(180.0,,)", "catalog_id": "EOS_AF0185", "catalog_name": "EOS_SE_Asia", "dip_dir": null, "lower_seis_depth": "(15.0,,)", "name": null, "net_slip_rate": null, "slip_type": "Dextral", "upper_seis_depth": "(1.0,,)", "downthrown_side_id": null, "reference": null, "epistemic_quality": null, "accuracy": null, "activity_confidence": null, "fs_name": null, "last_movement": null, "downthrown_side_dir": null, "vert_sep_rate": null, "strike_slip_rate": null, "exposure_quality": null, "shortening_rate": null, "notes": null, "index_right": 110, "NAME_EN": "Thailand" }, "geometry": { "type": "LineString", "coordinates": [ [ 97.996, 19.434 ], [ 98.003, 19.492 ], [ 98.003, 19.566 ], [ 97.998, 19.626 ], [ 97.993, 19.656 ], [ 97.98, 19.765 ] ] } },
{ "type": "Feature", "properties": { "average_dip": "(60.0,,)", "average_rake": "(-90.0,,)", "catalog_id": "EOS_AF0186", "catalog_name": "EOS_SE_Asia", "dip_dir": null, "lower_seis_depth": "(15.0,,)", "name": null, "net_slip_rate": null, "slip_type": "Normal", "upper_seis_depth": "(1.0,,)", "downthrown_side_id": null, "reference": null, "epistemic_quality": null, "accuracy": null, "activity_confidence": null, "fs_name": null, "last_movement": null, "downthrown_side_dir": null, "vert_sep_rate": null, "strike_slip_rate": null, "exposure_quality": null, "shortening_rate": null, "notes": null, "index_right": 110, "NAME_EN": "Thailand" }, "geometry": { "type": "LineString", "coordinates": [ [ 97.934, 18.292 ], [ 97.939, 18.266 ], [ 97.942, 18.229 ], [ 97.942, 18.151 ], [ 97.936, 18.085 ], [ 97.935, 18.057 ], [ 97.93, 18.029 ] ] } },
{ "type": "Feature", "properties": { "average_dip": "(75.0,,)", "average_rake": "(-90.0,,)", "catalog_id": "EOS_AF0189", "catalog_name": "EOS_SE_Asia", "dip_dir": null, "lower_seis_depth": "(15.0,,)", "name": null, "net_slip_rate": null, "slip_type": "Normal", "upper_seis_depth": "(1.0,,)", "downthrown_side_id": null, "reference": null, "epistemic_quality": null, "accuracy": null, "activity_confidence": null, "fs_name": null, "last_movement": null, "downthrown_side_dir": null, "vert_sep_rate": null, "strike_slip_rate": null, "exposure_quality": null, "shortening_rate": null, "notes": null, "index_right": 110, "NAME_EN": "Thailand" }, "geometry": { "type": "LineString", "coordinates": [ [ 98.563, 17.054 ], [ 98.602, 17.017 ], [ 98.627, 16.969 ], [ 98.637, 16.912 ], [ 98.638, 16.856 ], [ 98.647, 16.82 ] ] } },
{ "type": "Feature", "properties": { "average_dip": "(90.0,,)", "average_rake": "(180.0,,)", "catalog_id": "EOS_AF0190", "catalog_name": "EOS_SE_Asia", "dip_dir": null, "lower_seis_depth": "(15.0,,)", "name": null, "net_slip_rate": null, "slip_type": "Dextral", "upper_seis_depth": "(1.0,,)", "downthrown_side_id": null, "reference": null, "epistemic_quality": null, "accuracy": null, "activity_confidence": null, "fs_name": null, "last_movement": null, "downthrown_side_dir": null, "vert_sep_rate": null, "strike_slip_rate": null, "exposure_quality": null, "shortening_rate": null, "notes": null, "index_right": 110, "NAME_EN": "Thailand" }, "geometry": { "type": "LineString", "coordinates": [ [ 98.23, 17.306 ], [ 98.248, 17.299 ], [ 98.274, 17.285 ], [ 98.299, 17.269 ], [ 98.363, 17.219 ], [ 98.412, 17.168 ], [ 98.435, 17.153 ], [ 98.488, 17.128 ], [ 98.54, 17.097 ], [ 98.591, 17.078 ], [ 98.596, 17.074 ] ] } },
{ "type": "Feature", "properties": { "average_dip": "(90.0,,)", "average_rake": "(0.0,,)", "catalog_id": "EOS_AF0196", "catalog_name": "EOS_SE_Asia", "dip_dir": null, "lower_seis_depth": "(15.0,,)", "name": null, "net_slip_rate": null, "slip_type": "Sinistral", "upper_seis_depth": "(1.0,,)", "downthrown_side_id": null, "reference": null, "epistemic_quality": null, "accuracy": null, "activity_confidence": null, "fs_name": null, "last_movement": null, "downthrown_side_dir": null, "vert_sep_rate": null, "strike_slip_rate": null, "exposure_quality": null, "shortening_rate": null, "notes": null, "index_right": 110, "NAME_EN": "Thailand" }, "geometry": { "type": "LineString", "coordinates": [ [ 99.655, 19.785 ], [ 99.71, 19.858 ], [ 99.78, 19.917 ], [ 99.812, 19.937 ], [ 99.842, 19.961 ] ] } },
{ "type": "Feature", "properties": { "average_dip": "(90.0,,)", "average_rake": "(0.0,,)", "catalog_id": "EOS_AF0200", "catalog_name": "EOS_SE_Asia", "dip_dir": null, "lower_seis_depth": "(15.0,,)", "name": null, "net_slip_rate": null, "slip_type": "Sinistral", "upper_seis_depth": "(1.0,,)", "downthrown_side_id": null, "reference": null, "epistemic_quality": null, "accuracy": null, "activity_confidence": null, "fs_name": null, "last_movement": null, "downthrown_side_dir": null, "vert_sep_rate": null, "strike_slip_rate": null, "exposure_quality": null, "shortening_rate": null, "notes": null, "index_right": 110, "NAME_EN": "Thailand" }, "geometry": { "type": "LineString", "coordinates": [ [ 100.495, 20.088 ], [ 100.514, 20.115 ], [ 100.551, 20.18 ], [ 100.599, 20.255 ], [ 100.627, 20.279 ], [ 100.656, 20.301 ], [ 100.681, 20.325 ], [ 100.741, 20.358 ], [ 100.783, 20.374 ], [ 100.812, 20.387 ], [ 100.842, 20.404 ] ] } },
{ "type": "Feature", "properties": { "average_dip": "(90.0,,)", "average_rake": "(0.0,,)", "catalog_id": "EOS_AF0201", "catalog_name": "EOS_SE_Asia", "dip_dir": null, "lower_seis_depth": "(15.0,,)", "name": null, "net_slip_rate": null, "slip_type": "Sinistral", "upper_seis_depth": "(1.0,,)", "downthrown_side_id": null, "reference": null, "epistemic_quality": null, "accuracy": null, "activity_confidence": null, "fs_name": null, "last_movement": null, "downthrown_side_dir": null, "vert_sep_rate": null, "strike_slip_rate": null, "exposure_quality": null, "shortening_rate": null, "notes": null, "index_right": 110, "NAME_EN": "Thailand" }, "geometry": { "type": "LineString", "coordinates": [ [ 100.304, 19.738 ], [ 100.372, 19.823 ], [ 100.429, 19.911 ], [ 100.465, 19.939 ], [ 100.49, 19.975 ], [ 100.512, 20.026 ], [ 100.54, 20.119 ] ] } },
{ "type": "Feature", "properties": { "average_dip": "(60.0,,)", "average_rake": "(-90.0,,)", "catalog_id": "EOS_AF0202", "catalog_name": "EOS_SE_Asia", "dip_dir": null, "lower_seis_depth": "(15.0,,)", "name": null, "net_slip_rate": null, "slip_type": "Normal", "upper_seis_depth": "(1.0,,)", "downthrown_side_id": null, "reference": null, "epistemic_quality": null, "accuracy": null, "activity_confidence": null, "fs_name": null, "last_movement": null, "downthrown_side_dir": null, "vert_sep_rate": null, "strike_slip_rate": null, "exposure_quality": null, "shortening_rate": null, "notes": null, "index_right": 110, "NAME_EN": "Thailand" }, "geometry": { "type": "LineString", "coordinates": [ [ 99.781, 19.131 ], [ 99.766, 19.158 ], [ 99.754, 19.176 ], [ 99.744, 19.186 ], [ 99.731, 19.232 ], [ 99.731, 19.246 ], [ 99.738, 19.284 ], [ 99.754, 19.332 ], [ 99.756, 19.349 ], [ 99.751, 19.373 ], [ 99.742, 19.397 ], [ 99.733, 19.429 ], [ 99.729, 19.45 ] ] } },
{ "type": "Feature", "properties": { "average_dip": "(90.0,,)", "average_rake": "(180.0,,)", "catalog_id": "EOS_AF0203", "catalog_name": "EOS_SE_Asia", "dip_dir": null, "lower_seis_depth": "(15.0,,)", "name": null, "net_slip_rate": null, "slip_type": "Dextral", "upper_seis_depth": "(1.0,,)", "downthrown_side_id": null, "reference": null, "epistemic_quality": null, "accuracy": null, "activity_confidence": null, "fs_name": null, "last_movement": null, "downthrown_side_dir": null, "vert_sep_rate": null, "strike_slip_rate": null, "exposure_quality": null, "shortening_rate": null, "notes": null, "index_right": 110, "NAME_EN": "Thailand" }, "geometry": { "type": "LineString", "coordinates": [ [ 99.807, 19.142 ], [ 99.821, 19.114 ], [ 99.847, 19.074 ], [ 99.866, 19.057 ], [ 99.904, 18.99 ], [ 99.923, 18.951 ], [ 99.94, 18.922 ], [ 99.956, 18.899 ], [ 99.991, 18.858 ] ] } },
{ "type": "Feature", "properties": { "average_dip": "(60.0,,)", "average_rake": "(-90.0,,)", "catalog_id": "EOS_AF0204", "catalog_name": "EOS_SE_Asia", "dip_dir": null, "lower_seis_depth": "(15.0,,)", "name": null, "net_slip_rate": null, "slip_type": "Normal", "upper_seis_depth": "(1.0,,)", "downthrown_side_id": null, "reference": null, "epistemic_quality": null, "accuracy": null, "activity_confidence": null, "fs_name": null, "last_movement": null, "downthrown_side_dir": null, "vert_sep_rate": null, "strike_slip_rate": null, "exposure_quality": null, "shortening_rate": null, "notes": null, "index_right": 110, "NAME_EN": "Thailand" }, "geometry": { "type": "LineString", "coordinates": [ [ 99.704, 19.12 ], [ 99.719, 19.054 ], [ 99.722, 18.945 ], [ 99.71, 18.889 ], [ 99.689, 18.822 ], [ 99.674, 18.754 ], [ 99.662, 18.724 ], [ 99.649, 18.698 ], [ 99.646, 18.658 ], [ 99.641, 18.636 ], [ 99.631, 18.607 ] ] } },
{ "type": "Feature", "properties": { "average_dip": "(60.0,,)", "average_rake": "(-90.0,,)", "catalog_id": "EOS_AF0205", "catalog_name": "EOS_SE_Asia", "dip_dir": null, "lower_seis_depth": "(15.0,,)", "name": null, "net_slip_rate": null, "slip_type": "Normal", "upper_seis_depth": "(1.0,,)", "downthrown_side_id": null, "reference": null, "epistemic_quality": null, "accuracy": null, "activity_confidence": null, "fs_name": null, "last_movement": null, "downthrown_side_dir": null, "vert_sep_rate": null, "strike_slip_rate": null, "exposure_quality": null, "shortening_rate": null, "notes": null, "index_right": 110, "NAME_EN": "Thailand" }, "geometry": { "type": "LineString", "coordinates": [ [ 99.562, 18.043 ], [ 99.597, 18.061 ], [ 99.662, 18.091 ], [ 99.702, 18.119 ], [ 99.749, 18.18 ], [ 99.818, 18.275 ] ] } },
{ "type": "Feature", "properties": { "average_dip": "(60.0,,)", "average_rake": "(-90.0,,)", "catalog_id": "EOS_AF0206", "catalog_name": "EOS_SE_Asia", "dip_dir": null, "lower_seis_depth": "(15.0,,)", "name": null, "net_slip_rate": null, "slip_type": "Normal", "upper_seis_depth": "(1.0,,)", "downthrown_side_id": null, "reference": null, "epistemic_quality": null, "accuracy": null, "activity_confidence": null, "fs_name": null, "last_movement": null, "downthrown_side_dir": null, "vert_sep_rate": null, "strike_slip_rate": null, "exposure_quality": null, "shortening_rate": null, "notes": null, "index_right": 110, "NAME_EN": "Thailand" }, "geometry": { "type": "LineString", "coordinates": [ [ 99.344, 17.781 ], [ 99.349, 17.786 ], [ 99.371, 17.825 ], [ 99.4, 17.853 ], [ 99.404, 17.859 ], [ 99.421, 17.889 ], [ 99.438, 17.924 ], [ 99.452, 17.937 ], [ 99.513, 17.977 ], [ 99.524, 17.99 ], [ 99.531, 18.014 ], [ 99.545, 18.029 ] ] } },
{ "type": "Feature", "properties": { "average_dip": "(60.0,,)", "average_rake": "(0.0,,)", "catalog_id": "EOS_AF0207", "catalog_name": "EOS_SE_Asia", "dip_dir": null, "lower_seis_depth": "(15.0,,)", "name": null, "net_slip_rate": null, "slip_type": "Sinistral", "upper_seis_depth": "(1.0,,)", "downthrown_side_id": null, "reference": null, "epistemic_quality": null, "accuracy": null, "activity_confidence": null, "fs_name": null, "last_movement": null, "downthrown_side_dir": null, "vert_sep_rate": null, "strike_slip_rate": null, "exposure_quality": null, "shortening_rate": null, "notes": null, "index_right": 110, "NAME_EN": "Thailand" }, "geometry": { "type": "LineString", "coordinates": [ [ 99.203, 17.532 ], [ 99.3, 17.657 ] ] } },
{ "type": "Feature", "properties": { "average_dip": "(90.0,,)", "average_rake": "(-90.0,,)", "catalog_id": "EOS_AF0208", "catalog_name": "EOS_SE_Asia", "dip_dir": null, "lower_seis_depth": "(15.0,,)", "name": null, "net_slip_rate": null, "slip_type": "Normal", "upper_seis_depth": "(1.0,,)", "downthrown_side_id": null, "reference": null, "epistemic_quality": null, "accuracy": null, "activity_confidence": null, "fs_name": null, "last_movement": null, "downthrown_side_dir": null, "vert_sep_rate": null, "strike_slip_rate": null, "exposure_quality": null, "shortening_rate": null, "notes": null, "index_right": 110, "NAME_EN": "Thailand" }, "geometry": { "type": "LineString", "coordinates": [ [ 99.482, 17.869 ], [ 99.51, 17.9 ], [ 99.67, 18.001 ], [ 99.698, 18.012 ], [ 99.715, 18.022 ], [ 99.729, 18.035 ], [ 99.735, 18.037 ], [ 99.781, 18.125 ], [ 99.794, 18.144 ], [ 99.809, 18.162 ] ] } },
{ "type": "Feature", "properties": { "average_dip": "(90.0,,)", "average_rake": "(0.0,,)", "catalog_id": "EOS_AF0209", "catalog_name": "EOS_SE_Asia", "dip_dir": null, "lower_seis_depth": "(15.0,,)", "name": null, "net_slip_rate": null, "slip_type": "Sinistral", "upper_seis_depth": "(1.0,,)", "downthrown_side_id": null, "reference": null, "epistemic_quality": null, "accuracy": null, "activity_confidence": null, "fs_name": null, "last_movement": null, "downthrown_side_dir": null, "vert_sep_rate": null, "strike_slip_rate": null, "exposure_quality": null, "shortening_rate": null, "notes": null, "index_right": 110, "NAME_EN": "Thailand" }, "geometry": { "type": "LineString", "coordinates": [ [ 99.271, 17.652 ], [ 99.335, 17.691 ], [ 99.43, 17.754 ], [ 99.471, 17.777 ] ] } },
{ "type": "Feature", "properties": { "average_dip": "(90.0,,)", "average_rake": "(0.0,,)", "catalog_id": "EOS_AF0210", "catalog_name": "EOS_SE_Asia", "dip_dir": null, "lower_seis_depth": "(15.0,,)", "name": null, "net_slip_rate": null, "slip_type": "Sinistral", "upper_seis_depth": "(1.0,,)", "downthrown_side_id": null, "reference": null, "epistemic_quality": null, "accuracy": null, "activity_confidence": null, "fs_name": null, "last_movement": null, "downthrown_side_dir": null, "vert_sep_rate": null, "strike_slip_rate": null, "exposure_quality": null, "shortening_rate": null, "notes": null, "index_right": 110, "NAME_EN": "Thailand" }, "geometry": { "type": "LineString", "coordinates": [ [ 99.471, 17.777 ], [ 99.506, 17.797 ], [ 99.556, 17.819 ], [ 99.761, 17.879 ], [ 99.981, 17.978 ], [ 100.028, 18.03 ], [ 100.065, 18.092 ], [ 100.096, 18.172 ], [ 100.143, 18.307 ] ] } },
{ "type": "Feature", "properties": { "average_dip": "(90.0,,)", "average_rake": "(0.0,,)", "catalog_id": "EOS_AF0211", "catalog_name": "EOS_SE_Asia", "dip_dir": null, "lower_seis_depth": "(15.0,,)", "name": null, "net_slip_rate": null, "slip_type": "Sinistral", "upper_seis_depth": "(1.0,,)", "downthrown_side_id": null, "reference": null, "epistemic_quality": null, "accuracy": null, "activity_confidence": null, "fs_name": null, "last_movement": null, "downthrown_side_dir": null, "vert_sep_rate": null, "strike_slip_rate": null, "exposure_quality": null, "shortening_rate": null, "notes": null, "index_right": 110, "NAME_EN": "Thailand" }, "geometry": { "type": "LineString", "coordinates": [ [ 99.398, 17.733 ], [ 99.444, 17.788 ], [ 99.513, 17.85 ], [ 99.534, 17.884 ], [ 99.601, 17.936 ] ] } },
{ "type": "Feature", "properties": { "average_dip": "(90.0,,)", "average_rake": "(0.0,,)", "catalog_id": "EOS_AF0212", "catalog_name": "EOS_SE_Asia", "dip_dir": null, "lower_seis_depth": "(15.0,,)", "name": null, "net_slip_rate": null, "slip_type": "Sinistral", "upper_seis_depth": "(1.0,,)", "downthrown_side_id": null, "reference": null, "epistemic_quality": null, "accuracy": null, "activity_confidence": null, "fs_name": null, "last_movement": null, "downthrown_side_dir": null, "vert_sep_rate": null, "strike_slip_rate": null, "exposure_quality": null, "shortening_rate": null, "notes": null, "index_right": 110, "NAME_EN": "Thailand" }, "geometry": { "type": "LineString", "coordinates": [ [ 99.487, 17.807 ], [ 99.534, 17.849 ], [ 99.616, 17.894 ], [ 99.688, 17.923 ], [ 99.808, 17.958 ] ] } },
{ "type": "Feature", "properties": { "average_dip": "(60.0,,)", "average_rake": "(-90.0,,)", "catalog_id": "EOS_AF0213", "catalog_name": "EOS_SE_Asia", "dip_dir": null, "lower_seis_depth": "(15.0,,)", "name": null, "net_slip_rate": null, "slip_type": "Normal", "upper_seis_depth": "(1.0,,)", "downthrown_side_id": null, "reference": null, "epistemic_quality": null, "accuracy": null, "activity_confidence": null, "fs_name": null, "last_movement": null, "downthrown_side_dir": null, "vert_sep_rate": null, "strike_slip_rate": null, "exposure_quality": null, "shortening_rate": null, "notes": null, "index_right": 110, "NAME_EN": "Thailand" }, "geometry": { "type": "LineString", "coordinates": [ [ 100.953, 18.921 ], [ 100.942, 18.978 ], [ 100.936, 19.04 ], [ 100.939, 19.079 ], [ 100.959, 19.143 ], [ 100.959, 19.148 ], [ 100.958, 19.154 ], [ 100.954, 19.161 ], [ 100.953, 19.168 ], [ 100.949, 19.174 ], [ 100.947, 19.181 ], [ 100.948, 19.215 ], [ 100.946, 19.229 ], [ 100.941, 19.236 ], [ 100.933, 19.243 ], [ 100.924, 19.262 ], [ 100.917, 19.269 ], [ 100.912, 19.281 ], [ 100.913, 19.29 ], [ 100.909, 19.316 ], [ 100.91, 19.335 ], [ 100.896, 19.361 ], [ 100.903, 19.476 ], [ 100.93, 19.533 ] ] } },
{ "type": "Feature", "properties": { "average_dip": "(60.0,,)", "average_rake": "(-90.0,,)", "catalog_id": "EOS_AF0214", "catalog_name": "EOS_SE_Asia", "dip_dir": null, "lower_seis_depth": "(15.0,,)", "name": null, "net_slip_rate": null, "slip_type": "Normal", "upper_seis_depth": "(1.0,,)", "downthrown_side_id": null, "reference": null, "epistemic_quality": null, "accuracy": null, "activity_confidence": null, "fs_name": null, "last_movement": null, "downthrown_side_dir": null, "vert_sep_rate": null, "strike_slip_rate": null, "exposure_quality": null, "shortening_rate": null, "notes": null, "index_right": 110, "NAME_EN": "Thailand" }, "geometry": { "type": "LineString", "coordinates": [ [ 101.155, 17.015 ], [ 101.17, 16.892 ], [ 101.163, 16.795 ], [ 101.16, 16.777 ], [ 101.149, 16.756 ], [ 101.145, 16.732 ], [ 101.141, 16.688 ], [ 101.141, 16.636 ], [ 101.114, 16.541 ], [ 101.096, 16.484 ], [ 101.089, 16.413 ], [ 101.089, 16.39 ], [ 101.082, 16.353 ], [ 101.073, 16.332 ] ] } },
{ "type": "Feature", "properties": { "average_dip": "(60.0,,)", "average_rake": "(-90.0,,)", "catalog_id": "EOS_AF0215", "catalog_name": "EOS_SE_Asia", "dip_dir": null, "lower_seis_depth": "(15.0,,)", "name": null, "net_slip_rate": null, "slip_type": "Normal", "upper_seis_depth": "(1.0,,)", "downthrown_side_id": null, "reference": null, "epistemic_quality": null, "accuracy": null, "activity_confidence": null, "fs_name": null, "last_movement": null, "downthrown_side_dir": null, "vert_sep_rate": null, "strike_slip_rate": null, "exposure_quality": null, "shortening_rate": null, "notes": null, "index_right": 110, "NAME_EN": "Thailand" }, "geometry": { "type": "LineString", "coordinates": [ [ 101.271, 16.381 ], [ 101.326, 16.496 ], [ 101.328, 16.52 ], [ 101.337, 16.576 ], [ 101.338, 16.594 ], [ 101.345, 16.612 ], [ 101.348, 16.629 ], [ 101.349, 16.648 ], [ 101.347, 16.67 ], [ 101.338, 16.699 ], [ 101.337, 16.712 ], [ 101.352, 16.796 ], [ 101.356, 16.896 ] ] } },
{ "type": "Feature", "properties": { "average_dip": "(90.0,,)", "average_rake": "(0.0,,)", "catalog_id": "EOS_AF0216", "catalog_name": "EOS_SE_Asia", "dip_dir": null, "lower_seis_depth": "(15.0,,)", "name": null, "net_slip_rate": null, "slip_type": "Sinistral", "upper_seis_depth": "(1.0,,)", "downthrown_side_id": null, "reference": null, "epistemic_quality": null, "accuracy": null, "activity_confidence": null, "fs_name": null, "last_movement": null, "downthrown_side_dir": null, "vert_sep_rate": null, "strike_slip_rate": null, "exposure_quality": null, "shortening_rate": null, "notes": null, "index_right": 110, "NAME_EN": "Thailand" }, "geometry": { "type": "LineString", "coordinates": [ [ 100.177, 17.344 ], [ 100.388, 17.419 ], [ 100.605, 17.537 ] ] } },
{ "type": "Feature", "properties": { "average_dip": "(90.0,,)", "average_rake": "(0.0,,)", "catalog_id": "EOS_AF0217", "catalog_name": "EOS_SE_Asia", "dip_dir": null, "lower_seis_depth": "(15.0,,)", "name": null, "net_slip_rate": null, "slip_type": "Sinistral", "upper_seis_depth": "(1.0,,)", "downthrown_side_id": null, "reference": null, "epistemic_quality": null, "accuracy": null, "activity_confidence": null, "fs_name": null, "last_movement": null, "downthrown_side_dir": null, "vert_sep_rate": null, "strike_slip_rate": null, "exposure_quality": null, "shortening_rate": null, "notes": null, "index_right": 110, "NAME_EN": "Thailand" }, "geometry": { "type": "LineString", "coordinates": [ [ 101.056, 18.124 ], [ 101.007, 18.099 ], [ 100.958, 18.071 ], [ 100.905, 18.026 ], [ 100.775, 17.788 ], [ 100.741, 17.743 ], [ 100.676, 17.696 ], [ 100.609, 17.659 ], [ 100.554, 17.619 ], [ 100.465, 17.548 ], [ 100.396, 17.469 ], [ 100.35, 17.436 ], [ 100.323, 17.397 ] ] } },
{ "type": "Feature", "properties": { "average_dip": "(90.0,,)", "average_rake": "(0.0,,)", "catalog_id": "EOS_AF0218", "catalog_name": "EOS_SE_Asia", "dip_dir": null, "lower_seis_depth": "(15.0,,)", "name": null, "net_slip_rate": null, "slip_type": "Sinistral", "upper_seis_depth": "(1.0,,)", "downthrown_side_id": null, "reference": null, "epistemic_quality": null, "accuracy": null, "activity_confidence": null, "fs_name": null, "last_movement": null, "downthrown_side_dir": null, "vert_sep_rate": null, "strike_slip_rate": null, "exposure_quality": null, "shortening_rate": null, "notes": null, "index_right": 110, "NAME_EN": "Thailand" }, "geometry": { "type": "LineString", "coordinates": [ [ 100.41, 17.564 ], [ 100.468, 17.605 ], [ 100.552, 17.66 ], [ 100.63, 17.722 ], [ 100.659, 17.76 ], [ 100.695, 17.816 ] ] } },
{ "type": "Feature", "properties": { "average_dip": "(60.0,,)", "average_rake": "(-90.0,,)", "catalog_id": "EOS_AF0219", "catalog_name": "EOS_SE_Asia", "dip_dir": null, "lower_seis_depth": "(15.0,,)", "name": null, "net_slip_rate": null, "slip_type": "Normal", "upper_seis_depth": "(1.0,,)", "downthrown_side_id": null, "reference": null, "epistemic_quality": null, "accuracy": null, "activity_confidence": null, "fs_name": null, "last_movement": null, "downthrown_side_dir": null, "vert_sep_rate": null, "strike_slip_rate": null, "exposure_quality": null, "shortening_rate": null, "notes": null, "index_right": 110, "NAME_EN": "Thailand" }, "geometry": { "type": "LineString", "coordinates": [ [ 100.697, 17.781 ], [ 100.739, 17.818 ], [ 100.77, 17.872 ], [ 100.807, 17.921 ], [ 100.839, 17.975 ], [ 100.866, 18.031 ], [ 100.894, 18.061 ] ] } },
{ "type": "Feature", "properties": { "average_dip": "(90.0,,)", "average_rake": "(0.0,,)", "catalog_id": "EOS_AF0220", "catalog_name": "EOS_SE_Asia", "dip_dir": null, "lower_seis_depth": "(15.0,,)", "name": null, "net_slip_rate": null, "slip_type": "Sinistral", "upper_seis_depth": "(1.0,,)", "downthrown_side_id": null, "reference": null, "epistemic_quality": null, "accuracy": null, "activity_confidence": null, "fs_name": null, "last_movement": null, "downthrown_side_dir": null, "vert_sep_rate": null, "strike_slip_rate": null, "exposure_quality": null, "shortening_rate": null, "notes": null, "index_right": 110, "NAME_EN": "Thailand" }, "geometry": { "type": "LineString", "coordinates": [ [ 100.385, 17.719 ], [ 100.467, 17.749 ], [ 100.572, 17.796 ], [ 100.588, 17.812 ], [ 100.603, 17.833 ], [ 100.611, 17.874 ] ] } },
{ "type": "Feature", "properties": { "average_dip": "(90.0,,)", "average_rake": "(0.0,,)", "catalog_id": "EOS_AF0222", "catalog_name": "EOS_SE_Asia", "dip_dir": null, "lower_seis_depth": "(15.0,,)", "name": null, "net_slip_rate": null, "slip_type": "Sinistral", "upper_seis_depth": "(1.0,,)", "downthrown_side_id": null, "reference": null, "epistemic_quality": null, "accuracy": null, "activity_confidence": null, "fs_name": null, "last_movement": null, "downthrown_side_dir": null, "vert_sep_rate": null, "strike_slip_rate": null, "exposure_quality": null, "shortening_rate": null, "notes": null, "index_right": 110, "NAME_EN": "Thailand" }, "geometry": { "type": "LineString", "coordinates": [ [ 100.952, 18.586 ], [ 101.025, 18.621 ], [ 101.057, 18.642 ], [ 101.106, 18.666 ], [ 101.173, 18.693 ], [ 101.2, 18.7 ], [ 101.238, 18.714 ], [ 101.264, 18.727 ], [ 101.348, 18.796 ], [ 101.404, 18.836 ], [ 101.452, 18.887 ], [ 101.484, 18.949 ] ] } },
{ "type": "Feature", "properties": { "average_dip": "(90.0,,)", "average_rake": "(0.0,,)", "catalog_id": "EOS_AF0225", "catalog_name": "EOS_SE_Asia", "dip_dir": null, "lower_seis_depth": "(15.0,,)", "name": null, "net_slip_rate": null, "slip_type": "Sinistral", "upper_seis_depth": "(1.0,,)", "downthrown_side_id": null, "reference": null, "epistemic_quality": null, "accuracy": null, "activity_confidence": null, "fs_name": null, "last_movement": null, "downthrown_side_dir": null, "vert_sep_rate": null, "strike_slip_rate": null, "exposure_quality": null, "shortening_rate": null, "notes": null, "index_right": 110, "NAME_EN": "Thailand" }, "geometry": { "type": "LineString", "coordinates": [ [ 101.04, 18.223 ], [ 101.051, 18.234 ], [ 101.082, 18.257 ], [ 101.105, 18.289 ], [ 101.125, 18.304 ], [ 101.139, 18.327 ], [ 101.15, 18.341 ], [ 101.164, 18.354 ], [ 101.18, 18.392 ], [ 101.186, 18.431 ] ] } },
{ "type": "Feature", "properties": { "average_dip": "(90.0,,)", "average_rake": "(180.0,,)", "catalog_id": "EOS_AF0247", "catalog_name": "EOS_SE_Asia", "dip_dir": null, "lower_seis_depth": "(15.0,,)", "name": null, "net_slip_rate": null, "slip_type": "Dextral", "upper_seis_depth": "(1.0,,)", "downthrown_side_id": null, "reference": null, "epistemic_quality": null, "accuracy": null, "activity_confidence": null, "fs_name": null, "last_movement": null, "downthrown_side_dir": null, "vert_sep_rate": null, "strike_slip_rate": null, "exposure_quality": null, "shortening_rate": null, "notes": null, "index_right": 110, "NAME_EN": "Thailand" }, "geometry": { "type": "LineString", "coordinates": [ [ 98.573, 16.362 ], [ 98.585, 16.347 ], [ 98.59, 16.335 ], [ 98.592, 16.32 ], [ 98.592, 16.307 ], [ 98.598, 16.253 ], [ 98.599, 16.216 ], [ 98.602, 16.196 ], [ 98.602, 16.14 ], [ 98.605, 16.101 ], [ 98.618, 16.029 ], [ 98.623, 15.974 ], [ 98.63, 15.938 ], [ 98.633, 15.904 ], [ 98.639, 15.89 ], [ 98.642, 15.843 ], [ 98.648, 15.794 ], [ 98.655, 15.77 ], [ 98.684, 15.702 ], [ 98.693, 15.673 ], [ 98.705, 15.646 ], [ 98.728, 15.602 ], [ 98.76, 15.546 ], [ 98.766, 15.526 ] ] } },
{ "type": "Feature", "properties": { "average_dip": "(90.0,,)", "average_rake": "(180.0,,)", "catalog_id": "EOS_AF0248", "catalog_name": "EOS_SE_Asia", "dip_dir": null, "lower_seis_depth": "(15.0,,)", "name": null, "net_slip_rate": null, "slip_type": "Dextral", "upper_seis_depth": "(1.0,,)", "downthrown_side_id": null, "reference": null, "epistemic_quality": null, "accuracy": null, "activity_confidence": null, "fs_name": null, "last_movement": null, "downthrown_side_dir": null, "vert_sep_rate": null, "strike_slip_rate": null, "exposure_quality": null, "shortening_rate": null, "notes": null, "index_right": 110, "NAME_EN": "Thailand" }, "geometry": { "type": "LineString", "coordinates": [ [ 98.81, 15.469 ], [ 98.845, 15.426 ], [ 98.873, 15.398 ], [ 98.929, 15.368 ], [ 98.971, 15.326 ], [ 98.986, 15.296 ], [ 98.993, 15.268 ], [ 98.994, 15.221 ], [ 98.991, 15.195 ], [ 98.993, 15.176 ] ] } },
{ "type": "Feature", "properties": { "average_dip": "(90.0,,)", "average_rake": "(180.0,,)", "catalog_id": "EOS_AF0249", "catalog_name": "EOS_SE_Asia", "dip_dir": null, "lower_seis_depth": "(15.0,,)", "name": null, "net_slip_rate": null, "slip_type": "Dextral", "upper_seis_depth": "(1.0,,)", "downthrown_side_id": null, "reference": null, "epistemic_quality": null, "accuracy": null, "activity_confidence": null, "fs_name": null, "last_movement": null, "downthrown_side_dir": null, "vert_sep_rate": null, "strike_slip_rate": null, "exposure_quality": null, "shortening_rate": null, "notes": null, "index_right": 110, "NAME_EN": "Thailand" }, "geometry": { "type": "LineString", "coordinates": [ [ 99.275, 14.755 ], [ 99.22, 14.773 ], [ 99.183, 14.794 ], [ 99.154, 14.817 ], [ 99.144, 14.837 ], [ 99.14, 14.882 ], [ 99.144, 14.924 ] ] } },
{ "type": "Feature", "properties": { "average_dip": "(90.0,,)", "average_rake": "(180.0,,)", "catalog_id": "EOS_AF0250", "catalog_name": "EOS_SE_Asia", "dip_dir": null, "lower_seis_depth": "(15.0,,)", "name": null, "net_slip_rate": null, "slip_type": "Dextral", "upper_seis_depth": "(1.0,,)", "downthrown_side_id": null, "reference": null, "epistemic_quality": null, "accuracy": null, "activity_confidence": null, "fs_name": null, "last_movement": null, "downthrown_side_dir": null, "vert_sep_rate": null, "strike_slip_rate": null, "exposure_quality": null, "shortening_rate": null, "notes": null, "index_right": 110, "NAME_EN": "Thailand" }, "geometry": { "type": "LineString", "coordinates": [ [ 99.118, 14.919 ], [ 99.107, 14.944 ], [ 99.085, 14.967 ], [ 99.073, 14.984 ], [ 99.048, 15.034 ], [ 99.046, 15.046 ], [ 99.051, 15.088 ], [ 99.06, 15.13 ] ] } },
{ "type": "Feature", "properties": { "average_dip": "(90.0,,)", "average_rake": "(180.0,,)", "catalog_id": "EOS_AF0251", "catalog_name": "EOS_SE_Asia", "dip_dir": null, "lower_seis_depth": "(15.0,,)", "name": null, "net_slip_rate": null, "slip_type": "Dextral", "upper_seis_depth": "(1.0,,)", "downthrown_side_id": null, "reference": null, "epistemic_quality": null, "accuracy": null, "activity_confidence": null, "fs_name": null, "last_movement": null, "downthrown_side_dir": null, "vert_sep_rate": null, "strike_slip_rate": null, "exposure_quality": null, "shortening_rate": null, "notes": null, "index_right": 110, "NAME_EN": "Thailand" }, "geometry": { "type": "LineString", "coordinates": [ [ 98.982, 15.184 ], [ 98.988, 15.151 ], [ 98.995, 15.083 ], [ 98.998, 15.07 ], [ 98.996, 15.044 ], [ 98.995, 14.989 ], [ 99.003, 14.94 ], [ 99.006, 14.87 ], [ 99.019, 14.808 ] ] } },
{ "type": "Feature", "properties": { "average_dip": "(90.0,,)", "average_rake": "(180.0,,)", "catalog_id": "EOS_AF0254", "catalog_name": "EOS_SE_Asia", "dip_dir": null, "lower_seis_depth": "(15.0,,)", "name": null, "net_slip_rate": null, "slip_type": "Dextral", "upper_seis_depth": "(1.0,,)", "downthrown_side_id": null, "reference": null, "epistemic_quality": null, "accuracy": null, "activity_confidence": null, "fs_name": null, "last_movement": null, "downthrown_side_dir": null, "vert_sep_rate": null, "strike_slip_rate": null, "exposure_quality": null, "shortening_rate": null, "notes": null, "index_right": 110, "NAME_EN": "Thailand" }, "geometry": { "type": "LineString", "coordinates": [ [ 98.496, 15.068 ], [ 98.495, 15.085 ], [ 98.493, 15.092 ], [ 98.479, 15.119 ], [ 98.472, 15.163 ], [ 98.462, 15.189 ], [ 98.45, 15.211 ], [ 98.429, 15.233 ], [ 98.411, 15.261 ], [ 98.306, 15.38 ], [ 98.292, 15.403 ], [ 98.279, 15.43 ], [ 98.248, 15.509 ] ] } },
{ "type": "Feature", "properties": { "average_dip": "(90.0,,)", "average_rake": "(180.0,,)", "catalog_id": "EOS_AF0255", "catalog_name": "EOS_SE_Asia", "dip_dir": null, "lower_seis_depth": "(15.0,,)", "name": null, "net_slip_rate": null, "slip_type": "Dextral", "upper_seis_depth": "(1.0,,)", "downthrown_side_id": null, "reference": null, "epistemic_quality": null, "accuracy": null, "activity_confidence": null, "fs_name": null, "last_movement": null, "downthrown_side_dir": null, "vert_sep_rate": null, "strike_slip_rate": null, "exposure_quality": null, "shortening_rate": null, "notes": null, "index_right": 110, "NAME_EN": "Thailand" }, "geometry": { "type": "LineString", "coordinates": [ [ 98.516, 15.003 ], [ 98.537, 14.942 ], [ 98.555, 14.876 ], [ 98.569, 14.843 ], [ 98.583, 14.819 ], [ 98.604, 14.763 ], [ 98.63, 14.708 ], [ 98.64, 14.683 ], [ 98.638, 14.655 ], [ 98.641, 14.642 ], [ 98.647, 14.627 ], [ 98.681, 14.573 ] ] } },
{ "type": "Feature", "properties": { "average_dip": "(60.0,,)", "average_rake": "(-90.0,,)", "catalog_id": "EOS_AF0256", "catalog_name": "EOS_SE_Asia", "dip_dir": null, "lower_seis_depth": "(15.0,,)", "name": null, "net_slip_rate": null, "slip_type": "Normal", "upper_seis_depth": "(1.0,,)", "downthrown_side_id": null, "reference": null, "epistemic_quality": null, "accuracy": null, "activity_confidence": null, "fs_name": null, "last_movement": null, "downthrown_side_dir": null, "vert_sep_rate": null, "strike_slip_rate": null, "exposure_quality": null, "shortening_rate": null, "notes": null, "index_right": 110, "NAME_EN": "Thailand" }, "geometry": { "type": "LineString", "coordinates": [ [ 98.545, 14.827 ], [ 98.549, 14.812 ], [ 98.57, 14.78 ], [ 98.575, 14.767 ], [ 98.603, 14.666 ], [ 98.617, 14.598 ], [ 98.623, 14.578 ], [ 98.634, 14.553 ], [ 98.647, 14.539 ] ] } },
{ "type": "Feature", "properties": { "average_dip": "(90.0,,)", "average_rake": "(180.0,,)", "catalog_id": "EOS_AF0257", "catalog_name": "EOS_SE_Asia", "dip_dir": null, "lower_seis_depth": "(15.0,,)", "name": null, "net_slip_rate": null, "slip_type": "Dextral", "upper_seis_depth": "(1.0,,)", "downthrown_side_id": null, "reference": null, "epistemic_quality": null, "accuracy": null, "activity_confidence": null, "fs_name": null, "last_movement": null, "downthrown_side_dir": null, "vert_sep_rate": null, "strike_slip_rate": null, "exposure_quality": null, "shortening_rate": null, "notes": null, "index_right": 110, "NAME_EN": "Thailand" }, "geometry": { "type": "LineString", "coordinates": [ [ 98.647, 14.539 ], [ 98.666, 14.524 ], [ 98.738, 14.489 ], [ 98.804, 14.453 ], [ 98.824, 14.438 ], [ 98.848, 14.428 ], [ 98.901, 14.37 ], [ 98.925, 14.355 ], [ 98.967, 14.321 ], [ 99.007, 14.273 ], [ 99.02, 14.254 ] ] } },
{ "type": "Feature", "properties": { "average_dip": "(90.0,,)", "average_rake": "(180.0,,)", "catalog_id": "EOS_AF0258", "catalog_name": "EOS_SE_Asia", "dip_dir": null, "lower_seis_depth": "(15.0,,)", "name": null, "net_slip_rate": null, "slip_type": "Dextral", "upper_seis_depth": "(1.0,,)", "downthrown_side_id": null, "reference": null, "epistemic_quality": null, "accuracy": null, "activity_confidence": null, "fs_name": null, "last_movement": null, "downthrown_side_dir": null, "vert_sep_rate": null, "strike_slip_rate": null, "exposure_quality": null, "shortening_rate": null, "notes": null, "index_right": 110, "NAME_EN": "Thailand" }, "geometry": { "type": "LineString", "coordinates": [ [ 99.016, 14.229 ], [ 99.027, 14.212 ], [ 99.033, 14.193 ], [ 99.042, 14.175 ], [ 99.057, 14.154 ], [ 99.097, 14.117 ], [ 99.177, 14.063 ], [ 99.241, 14.004 ] ] } },
{ "type": "Feature", "properties": { "average_dip": "(90.0,,)", "average_rake": "(180.0,,)", "catalog_id": "EOS_AF0260", "catalog_name": "EOS_SE_Asia", "dip_dir": null, "lower_seis_depth": "(15.0,,)", "name": null, "net_slip_rate": null, "slip_type": "Dextral", "upper_seis_depth": "(1.0,,)", "downthrown_side_id": null, "reference": null, "epistemic_quality": null, "accuracy": null, "activity_confidence": null, "fs_name": null, "last_movement": null, "downthrown_side_dir": null, "vert_sep_rate": null, "strike_slip_rate": null, "exposure_quality": null, "shortening_rate": null, "notes": null, "index_right": 110, "NAME_EN": "Thailand" }, "geometry": { "type": "LineString", "coordinates": [ [ 98.821, 14.26 ], [ 98.831, 14.25 ], [ 98.844, 14.243 ], [ 98.856, 14.233 ], [ 98.868, 14.226 ], [ 98.887, 14.205 ], [ 98.902, 14.185 ], [ 98.913, 14.174 ], [ 98.944, 14.152 ], [ 98.977, 14.137 ], [ 99.011, 14.119 ], [ 99.037, 14.111 ], [ 99.068, 14.097 ] ] } },
{ "type": "Feature", "properties": { "average_dip": "(90.0,,)", "average_rake": "(180.0,,)", "catalog_id": "EOS_AF0261", "catalog_name": "EOS_SE_Asia", "dip_dir": null, "lower_seis_depth": "(15.0,,)", "name": null, "net_slip_rate": null, "slip_type": "Dextral", "upper_seis_depth": "(1.0,,)", "downthrown_side_id": null, "reference": null, "epistemic_quality": null, "accuracy": null, "activity_confidence": null, "fs_name": null, "last_movement": null, "downthrown_side_dir": null, "vert_sep_rate": null, "strike_slip_rate": null, "exposure_quality": null, "shortening_rate": null, "notes": null, "index_right": 110, "NAME_EN": "Thailand" }, "geometry": { "type": "LineString", "coordinates": [ [ 98.636, 14.977 ], [ 98.643, 14.958 ], [ 98.645, 14.935 ], [ 98.641, 14.868 ], [ 98.643, 14.831 ], [ 98.654, 14.788 ] ] } },
{ "type": "Feature", "properties": { "average_dip": "(90.0,,)", "average_rake": "(180.0,,)", "catalog_id": "EOS_AF0265", "catalog_name": "EOS_SE_Asia", "dip_dir": null, "lower_seis_depth": "(15.0,,)", "name": null, "net_slip_rate": null, "slip_type": "Dextral", "upper_seis_depth": "(1.0,,)", "downthrown_side_id": null, "reference": null, "epistemic_quality": null, "accuracy": null, "activity_confidence": null, "fs_name": null, "last_movement": null, "downthrown_side_dir": null, "vert_sep_rate": null, "strike_slip_rate": null, "exposure_quality": null, "shortening_rate": null, "notes": null, "index_right": 110, "NAME_EN": "Thailand" }, "geometry": { "type": "LineString", "coordinates": [ [ 99.213, 14.324 ], [ 99.18, 14.348 ], [ 99.178, 14.351 ], [ 99.16, 14.36 ], [ 99.15, 14.373 ], [ 99.142, 14.38 ], [ 99.125, 14.402 ], [ 99.121, 14.405 ], [ 99.004, 14.549 ] ] } },
{ "type": "Feature", "properties": { "average_dip": "(90.0,,)", "average_rake": "(180.0,,)", "catalog_id": "EOS_AF0268", "catalog_name": "EOS_SE_Asia", "dip_dir": null, "lower_seis_depth": "(15.0,,)", "name": null, "net_slip_rate": null, "slip_type": "Dextral", "upper_seis_depth": "(1.0,,)", "downthrown_side_id": null, "reference": null, "epistemic_quality": null, "accuracy": null, "activity_confidence": null, "fs_name": null, "last_movement": null, "downthrown_side_dir": null, "vert_sep_rate": null, "strike_slip_rate": null, "exposure_quality": null, "shortening_rate": null, "notes": null, "index_right": 110, "NAME_EN": "Thailand" }, "geometry": { "type": "LineString", "coordinates": [ [ 99.173, 15.003 ], [ 99.18, 14.962 ], [ 99.182, 14.955 ], [ 99.189, 14.942 ], [ 99.21, 14.924 ], [ 99.227, 14.898 ], [ 99.251, 14.866 ], [ 99.258, 14.858 ], [ 99.271, 14.849 ] ] } },
{ "type": "Feature", "properties": { "average_dip": "(90.0,,)", "average_rake": "(180.0,,)", "catalog_id": "EOS_AF0269", "catalog_name": "EOS_SE_Asia", "dip_dir": null, "lower_seis_depth": "(15.0,,)", "name": null, "net_slip_rate": null, "slip_type": "Dextral", "upper_seis_depth": "(1.0,,)", "downthrown_side_id": null, "reference": null, "epistemic_quality": null, "accuracy": null, "activity_confidence": null, "fs_name": null, "last_movement": null, "downthrown_side_dir": null, "vert_sep_rate": null, "strike_slip_rate": null, "exposure_quality": null, "shortening_rate": null, "notes": null, "index_right": 110, "NAME_EN": "Thailand" }, "geometry": { "type": "LineString", "coordinates": [ [ 99.225, 14.972 ], [ 99.227, 14.949 ], [ 99.231, 14.93 ], [ 99.237, 14.913 ], [ 99.268, 14.855 ], [ 99.29, 14.822 ] ] } },
{ "type": "Feature", "properties": { "average_dip": "(60.0,,)", "average_rake": "(-90.0,,)", "catalog_id": "EOS_AF0270", "catalog_name": "EOS_SE_Asia", "dip_dir": null, "lower_seis_depth": "(15.0,,)", "name": null, "net_slip_rate": null, "slip_type": "Normal", "upper_seis_depth": "(1.0,,)", "downthrown_side_id": null, "reference": null, "epistemic_quality": null, "accuracy": null, "activity_confidence": null, "fs_name": null, "last_movement": null, "downthrown_side_dir": null, "vert_sep_rate": null, "strike_slip_rate": null, "exposure_quality": null, "shortening_rate": null, "notes": null, "index_right": 110, "NAME_EN": "Thailand" }, "geometry": { "type": "LineString", "coordinates": [ [ 99.173, 15.004 ], [ 99.172, 15.014 ], [ 99.164, 15.041 ], [ 99.161, 15.061 ], [ 99.152, 15.082 ], [ 99.147, 15.088 ], [ 99.145, 15.098 ], [ 99.145, 15.109 ], [ 99.14, 15.127 ], [ 99.135, 15.158 ], [ 99.134, 15.202 ], [ 99.136, 15.216 ], [ 99.132, 15.241 ], [ 99.137, 15.277 ], [ 99.133, 15.288 ], [ 99.128, 15.311 ], [ 99.126, 15.327 ], [ 99.127, 15.343 ] ] } },
{ "type": "Feature", "properties": { "average_dip": "(60.0,,)", "average_rake": "(180.0,,)", "catalog_id": "EOS_AF0271", "catalog_name": "EOS_SE_Asia", "dip_dir": null, "lower_seis_depth": "(15.0,,)", "name": null, "net_slip_rate": null, "slip_type": "Dextral", "upper_seis_depth": "(1.0,,)", "downthrown_side_id": null, "reference": null, "epistemic_quality": null, "accuracy": null, "activity_confidence": null, "fs_name": null, "last_movement": null, "downthrown_side_dir": null, "vert_sep_rate": null, "strike_slip_rate": null, "exposure_quality": null, "shortening_rate": null, "notes": null, "index_right": 110, "NAME_EN": "Thailand" }, "geometry": { "type": "LineString", "coordinates": [ [ 99.126, 15.677 ], [ 99.125, 15.658 ], [ 99.128, 15.608 ], [ 99.137, 15.562 ], [ 99.137, 15.538 ], [ 99.129, 15.511 ], [ 99.129, 15.502 ], [ 99.126, 15.486 ], [ 99.127, 15.434 ], [ 99.123, 15.42 ], [ 99.122, 15.401 ], [ 99.124, 15.387 ] ] } },
{ "type": "Feature", "properties": { "average_dip": "(90.0,,)", "average_rake": "(180.0,,)", "catalog_id": "EOS_AF0272", "catalog_name": "EOS_SE_Asia", "dip_dir": null, "lower_seis_depth": "(15.0,,)", "name": null, "net_slip_rate": null, "slip_type": "Dextral", "upper_seis_depth": "(1.0,,)", "downthrown_side_id": null, "reference": null, "epistemic_quality": null, "accuracy": null, "activity_confidence": null, "fs_name": null, "last_movement": null, "downthrown_side_dir": null, "vert_sep_rate": null, "strike_slip_rate": null, "exposure_quality": null, "shortening_rate": null, "notes": null, "index_right": 110, "NAME_EN": "Thailand" }, "geometry": { "type": "LineString", "coordinates": [ [ 99.113, 15.678 ], [ 99.103, 15.705 ], [ 99.101, 15.745 ], [ 99.102, 15.777 ], [ 99.12, 15.849 ], [ 99.124, 15.875 ], [ 99.125, 15.897 ], [ 99.133, 15.919 ], [ 99.134, 15.93 ], [ 99.132, 15.975 ] ] } },
{ "type": "Feature", "properties": { "average_dip": "(90.0,,)", "average_rake": "(180.0,,)", "catalog_id": "EOS_AF0273", "catalog_name": "EOS_SE_Asia", "dip_dir": null, "lower_seis_depth": "(15.0,,)", "name": null, "net_slip_rate": null, "slip_type": "Dextral", "upper_seis_depth": "(1.0,,)", "downthrown_side_id": null, "reference": null, "epistemic_quality": null, "accuracy": null, "activity_confidence": null, "fs_name": null, "last_movement": null, "downthrown_side_dir": null, "vert_sep_rate": null, "strike_slip_rate": null, "exposure_quality": null, "shortening_rate": null, "notes": null, "index_right": 110, "NAME_EN": "Thailand" }, "geometry": { "type": "LineString", "coordinates": [ [ 99.148, 15.971 ], [ 99.139, 16.026 ], [ 99.138, 16.06 ], [ 99.133, 16.101 ], [ 99.137, 16.192 ], [ 99.148, 16.236 ], [ 99.163, 16.283 ], [ 99.199, 16.376 ] ] } },
{ "type": "Feature", "properties": { "average_dip": "(90.0,,)", "average_rake": "(0.0,,)", "catalog_id": "EOS_AF0280", "catalog_name": "EOS_SE_Asia", "dip_dir": null, "lower_seis_depth": "(15.0,,)", "name": null, "net_slip_rate": null, "slip_type": "Sinistral", "upper_seis_depth": "(1.0,,)", "downthrown_side_id": null, "reference": null, "epistemic_quality": null, "accuracy": null, "activity_confidence": null, "fs_name": null, "last_movement": null, "downthrown_side_dir": null, "vert_sep_rate": null, "strike_slip_rate": null, "exposure_quality": null, "shortening_rate": null, "notes": null, "index_right": 110, "NAME_EN": "Thailand" }, "geometry": { "type": "LineString", "coordinates": [ [ 99.059, 10.498 ], [ 99.01, 10.408 ], [ 98.99, 10.376 ], [ 98.979, 10.365 ], [ 98.956, 10.331 ], [ 98.926, 10.275 ], [ 98.911, 10.241 ], [ 98.893, 10.211 ], [ 98.886, 10.196 ], [ 98.866, 10.173 ], [ 98.853, 10.147 ], [ 98.84, 10.132 ], [ 98.833, 10.121 ], [ 98.816, 10.086 ], [ 98.805, 10.05 ], [ 98.801, 10.009 ], [ 98.795, 9.969 ], [ 98.765, 9.904 ], [ 98.742, 9.863 ], [ 98.702, 9.799 ], [ 98.654, 9.728 ], [ 98.614, 9.676 ], [ 98.599, 9.638 ], [ 98.553, 9.553 ], [ 98.529, 9.519 ], [ 98.461, 9.388 ] ] } },
{ "type": "Feature", "properties": { "average_dip": "(90.0,,)", "average_rake": "(0.0,,)", "catalog_id": "EOS_AF0281", "catalog_name": "EOS_SE_Asia", "dip_dir": null, "lower_seis_depth": "(15.0,,)", "name": null, "net_slip_rate": null, "slip_type": "Sinistral", "upper_seis_depth": "(1.0,,)", "downthrown_side_id": null, "reference": null, "epistemic_quality": null, "accuracy": null, "activity_confidence": null, "fs_name": null, "last_movement": null, "downthrown_side_dir": null, "vert_sep_rate": null, "strike_slip_rate": null, "exposure_quality": null, "shortening_rate": null, "notes": null, "index_right": 110, "NAME_EN": "Thailand" }, "geometry": { "type": "LineString", "coordinates": [ [ 98.808, 9.915 ], [ 98.81, 9.929 ], [ 98.818, 9.946 ], [ 98.826, 9.991 ], [ 98.83, 9.995 ], [ 98.832, 10.01 ], [ 98.84, 10.031 ], [ 98.848, 10.069 ], [ 98.859, 10.08 ], [ 98.895, 10.133 ], [ 98.915, 10.156 ] ] } },
{ "type": "Feature", "properties": { "average_dip": "(90.0,,)", "average_rake": "(0.0,,)", "catalog_id": "EOS_AF0282", "catalog_name": "EOS_SE_Asia", "dip_dir": null, "lower_seis_depth": "(15.0,,)", "name": null, "net_slip_rate": null, "slip_type": "Sinistral", "upper_seis_depth": "(1.0,,)", "downthrown_side_id": null, "reference": null, "epistemic_quality": null, "accuracy": null, "activity_confidence": null, "fs_name": null, "last_movement": null, "downthrown_side_dir": null, "vert_sep_rate": null, "strike_slip_rate": null, "exposure_quality": null, "shortening_rate": null, "notes": null, "index_right": 110, "NAME_EN": "Thailand" }, "geometry": { "type": "LineString", "coordinates": [ [ 98.851, 8.988 ], [ 98.821, 8.952 ], [ 98.809, 8.942 ], [ 98.77, 8.902 ], [ 98.751, 8.875 ], [ 98.736, 8.861 ], [ 98.725, 8.845 ], [ 98.71, 8.805 ], [ 98.696, 8.78 ] ] } },
{ "type": "Feature", "properties": { "average_dip": "(90.0,,)", "average_rake": "(0.0,,)", "catalog_id": "EOS_AF0283", "catalog_name": "EOS_SE_Asia", "dip_dir": null, "lower_seis_depth": "(15.0,,)", "name": null, "net_slip_rate": null, "slip_type": "Sinistral", "upper_seis_depth": "(1.0,,)", "downthrown_side_id": null, "reference": null, "epistemic_quality": null, "accuracy": null, "activity_confidence": null, "fs_name": null, "last_movement": null, "downthrown_side_dir": null, "vert_sep_rate": null, "strike_slip_rate": null, "exposure_quality": null, "shortening_rate": null, "notes": null, "index_right": 110, "NAME_EN": "Thailand" }, "geometry": { "type": "LineString", "coordinates": [ [ 98.914, 9.918 ], [ 98.895, 9.898 ], [ 98.889, 9.895 ], [ 98.88, 9.887 ], [ 98.866, 9.869 ], [ 98.842, 9.851 ], [ 98.823, 9.841 ], [ 98.814, 9.831 ], [ 98.8, 9.825 ], [ 98.781, 9.81 ], [ 98.763, 9.791 ], [ 98.749, 9.783 ], [ 98.74, 9.773 ], [ 98.732, 9.769 ], [ 98.706, 9.744 ], [ 98.691, 9.722 ] ] } },
{ "type": "Feature", "properties": { "average_dip": "(90.0,,)", "average_rake": "(0.0,,)", "catalog_id": "EOS_AF0284", "catalog_name": "EOS_SE_Asia", "dip_dir": null, "lower_seis_depth": "(15.0,,)", "name": null, "net_slip_rate": null, "slip_type": "Sinistral", "upper_seis_depth": "(1.0,,)", "downthrown_side_id": null, "reference": null, "epistemic_quality": null, "accuracy": null, "activity_confidence": null, "fs_name": null, "last_movement": null, "downthrown_side_dir": null, "vert_sep_rate": null, "strike_slip_rate": null, "exposure_quality": null, "shortening_rate": null, "notes": null, "index_right": 110, "NAME_EN": "Thailand" }, "geometry": { "type": "LineString", "coordinates": [ [ 98.844, 10.295 ], [ 98.827, 10.251 ], [ 98.812, 10.235 ], [ 98.8, 10.215 ], [ 98.789, 10.206 ], [ 98.783, 10.198 ], [ 98.782, 10.194 ], [ 98.773, 10.184 ], [ 98.766, 10.168 ], [ 98.751, 10.149 ], [ 98.739, 10.126 ], [ 98.721, 10.081 ], [ 98.707, 10.04 ], [ 98.695, 9.973 ], [ 98.68, 9.906 ], [ 98.654, 9.852 ], [ 98.64, 9.843 ], [ 98.626, 9.83 ], [ 98.615, 9.804 ] ] } },
{ "type": "Feature", "properties": { "average_dip": "(90.0,,)", "average_rake": "(0.0,,)", "catalog_id": "EOS_AF0285", "catalog_name": "EOS_SE_Asia", "dip_dir": null, "lower_seis_depth": "(15.0,,)", "name": null, "net_slip_rate": null, "slip_type": "Sinistral", "upper_seis_depth": "(1.0,,)", "downthrown_side_id": null, "reference": null, "epistemic_quality": null, "accuracy": null, "activity_confidence": null, "fs_name": null, "last_movement": null, "downthrown_side_dir": null, "vert_sep_rate": null, "strike_slip_rate": null, "exposure_quality": null, "shortening_rate": null, "notes": null, "index_right": 110, "NAME_EN": "Thailand" }, "geometry": { "type": "LineString", "coordinates": [ [ 98.542, 9.608 ], [ 98.577, 9.693 ], [ 98.601, 9.735 ], [ 98.639, 9.762 ], [ 98.66, 9.789 ], [ 98.677, 9.816 ], [ 98.696, 9.852 ] ] } },
{ "type": "Feature", "properties": { "average_dip": "(90.0,,)", "average_rake": "(0.0,,)", "catalog_id": "EOS_AF0286", "catalog_name": "EOS_SE_Asia", "dip_dir": null, "lower_seis_depth": "(15.0,,)", "name": null, "net_slip_rate": null, "slip_type": "Sinistral", "upper_seis_depth": "(1.0,,)", "downthrown_side_id": null, "reference": null, "epistemic_quality": null, "accuracy": null, "activity_confidence": null, "fs_name": null, "last_movement": null, "downthrown_side_dir": null, "vert_sep_rate": null, "strike_slip_rate": null, "exposure_quality": null, "shortening_rate": null, "notes": null, "index_right": 110, "NAME_EN": "Thailand" }, "geometry": { "type": "LineString", "coordinates": [ [ 98.499, 9.393 ], [ 98.484, 9.351 ], [ 98.443, 9.267 ], [ 98.417, 9.225 ], [ 98.393, 9.163 ], [ 98.375, 9.107 ], [ 98.36, 9.034 ], [ 98.326, 8.907 ] ] } },
{ "type": "Feature", "properties": { "average_dip": "(90.0,,)", "average_rake": "(0.0,,)", "catalog_id": "EOS_AF0287", "catalog_name": "EOS_SE_Asia", "dip_dir": null, "lower_seis_depth": "(15.0,,)", "name": null, "net_slip_rate": null, "slip_type": "Sinistral", "upper_seis_depth": "(1.0,,)", "downthrown_side_id": null, "reference": null, "epistemic_quality": null, "accuracy": null, "activity_confidence": null, "fs_name": null, "last_movement": null, "downthrown_side_dir": null, "vert_sep_rate": null, "strike_slip_rate": null, "exposure_quality": null, "shortening_rate": null, "notes": null, "index_right": 110, "NAME_EN": "Thailand" }, "geometry": { "type": "LineString", "coordinates": [ [ 98.708, 10.267 ], [ 98.72, 10.319 ], [ 98.736, 10.35 ], [ 98.743, 10.376 ], [ 98.749, 10.387 ], [ 98.761, 10.403 ], [ 98.769, 10.423 ], [ 98.772, 10.426 ], [ 98.776, 10.435 ], [ 98.776, 10.438 ], [ 98.788, 10.456 ], [ 98.799, 10.492 ], [ 98.804, 10.499 ], [ 98.827, 10.543 ] ] } },
{ "type": "Feature", "properties": { "average_dip": "(90.0,,)", "average_rake": "(0.0,,)", "catalog_id": "EOS_AF0289", "catalog_name": "EOS_SE_Asia", "dip_dir": null, "lower_seis_depth": "(15.0,,)", "name": null, "net_slip_rate": null, "slip_type": "Sinistral", "upper_seis_depth": "(1.0,,)", "downthrown_side_id": null, "reference": null, "epistemic_quality": null, "accuracy": null, "activity_confidence": null, "fs_name": null, "last_movement": null, "downthrown_side_dir": null, "vert_sep_rate": null, "strike_slip_rate": null, "exposure_quality": null, "shortening_rate": null, "notes": null, "index_right": 110, "NAME_EN": "Thailand" }, "geometry": { "type": "LineString", "coordinates": [ [ 99.587, 11.475 ], [ 99.522, 11.409 ], [ 99.506, 11.385 ], [ 99.496, 11.375 ], [ 99.496, 11.373 ], [ 99.49, 11.366 ], [ 99.486, 11.358 ], [ 99.467, 11.339 ], [ 99.455, 11.319 ], [ 99.434, 11.291 ] ] } },
{ "type": "Feature", "properties": { "average_dip": "(90.0,,)", "average_rake": "(0.0,,)", "catalog_id": "EOS_AF0290", "catalog_name": "EOS_SE_Asia", "dip_dir": null, "lower_seis_depth": "(15.0,,)", "name": null, "net_slip_rate": null, "slip_type": "Sinistral", "upper_seis_depth": "(1.0,,)", "downthrown_side_id": null, "reference": null, "epistemic_quality": null, "accuracy": null, "activity_confidence": null, "fs_name": null, "last_movement": null, "downthrown_side_dir": null, "vert_sep_rate": null, "strike_slip_rate": null, "exposure_quality": null, "shortening_rate": null, "notes": null, "index_right": 110, "NAME_EN": "Thailand" }, "geometry": { "type": "LineString", "coordinates": [ [ 99.34, 11.199 ], [ 99.351, 11.216 ], [ 99.362, 11.24 ], [ 99.376, 11.259 ], [ 99.385, 11.269 ], [ 99.391, 11.273 ], [ 99.398, 11.281 ], [ 99.4, 11.286 ], [ 99.44, 11.329 ], [ 99.449, 11.341 ], [ 99.459, 11.35 ], [ 99.47, 11.366 ] ] } },
{ "type": "Feature", "properties": { "average_dip": "(90.0,,)", "average_rake": "(0.0,,)", "catalog_id": "EOS_AF0291", "catalog_name": "EOS_SE_Asia", "dip_dir": null, "lower_seis_depth": "(15.0,,)", "name": null, "net_slip_rate": null, "slip_type": "Sinistral", "upper_seis_depth": "(1.0,,)", "downthrown_side_id": null, "reference": null, "epistemic_quality": null, "accuracy": null, "activity_confidence": null, "fs_name": null, "last_movement": null, "downthrown_side_dir": null, "vert_sep_rate": null, "strike_slip_rate": null, "exposure_quality": null, "shortening_rate": null, "notes": null, "index_right": 110, "NAME_EN": "Thailand" }, "geometry": { "type": "LineString", "coordinates": [ [ 99.343, 11.224 ], [ 99.335, 11.214 ], [ 99.323, 11.193 ], [ 99.311, 11.176 ], [ 99.301, 11.166 ], [ 99.295, 11.157 ], [ 99.272, 11.135 ], [ 99.27, 11.131 ], [ 99.254, 11.115 ], [ 99.236, 11.092 ] ] } },
{ "type": "Feature", "properties": { "average_dip": "(90.0,,)", "average_rake": "(0.0,,)", "catalog_id": "EOS_AF0292", "catalog_name": "EOS_SE_Asia", "dip_dir": null, "lower_seis_depth": "(15.0,,)", "name": null, "net_slip_rate": null, "slip_type": "Sinistral", "upper_seis_depth": "(1.0,,)", "downthrown_side_id": null, "reference": null, "epistemic_quality": null, "accuracy": null, "activity_confidence": null, "fs_name": null, "last_movement": null, "downthrown_side_dir": null, "vert_sep_rate": null, "strike_slip_rate": null, "exposure_quality": null, "shortening_rate": null, "notes": null, "index_right": 110, "NAME_EN": "Thailand" }, "geometry": { "type": "LineString", "coordinates": [ [ 99.272, 11.104 ], [ 99.255, 11.085 ], [ 99.248, 11.074 ], [ 99.217, 11.036 ], [ 99.198, 11.005 ], [ 99.129, 10.903 ] ] } },
{ "type": "Feature", "properties": { "average_dip": "(90.0,,)", "average_rake": "(0.0,,)", "catalog_id": "EOS_AF0293", "catalog_name": "EOS_SE_Asia", "dip_dir": null, "lower_seis_depth": "(15.0,,)", "name": null, "net_slip_rate": null, "slip_type": "Sinistral", "upper_seis_depth": "(1.0,,)", "downthrown_side_id": null, "reference": null, "epistemic_quality": null, "accuracy": null, "activity_confidence": null, "fs_name": null, "last_movement": null, "downthrown_side_dir": null, "vert_sep_rate": null, "strike_slip_rate": null, "exposure_quality": null, "shortening_rate": null, "notes": null, "index_right": 110, "NAME_EN": "Thailand" }, "geometry": { "type": "LineString", "coordinates": [ [ 98.975, 10.779 ], [ 98.936, 10.703 ], [ 98.93, 10.683 ], [ 98.917, 10.653 ], [ 98.881, 10.599 ] ] } },
{ "type": "Feature", "properties": { "average_dip": "(90.0,,)", "average_rake": "(0.0,,)", "catalog_id": "EOS_AF0296", "catalog_name": "EOS_SE_Asia", "dip_dir": null, "lower_seis_depth": "(15.0,,)", "name": null, "net_slip_rate": null, "slip_type": "Sinistral", "upper_seis_depth": "(1.0,,)", "downthrown_side_id": null, "reference": null, "epistemic_quality": null, "accuracy": null, "activity_confidence": null, "fs_name": null, "last_movement": null, "downthrown_side_dir": null, "vert_sep_rate": null, "strike_slip_rate": null, "exposure_quality": null, "shortening_rate": null, "notes": null, "index_right": 110, "NAME_EN": "Thailand" }, "geometry": { "type": "LineString", "coordinates": [ [ 98.678, 8.525 ], [ 98.739, 8.633 ], [ 98.761, 8.678 ], [ 98.771, 8.693 ], [ 98.783, 8.718 ], [ 98.789, 8.726 ], [ 98.797, 8.747 ], [ 98.84, 8.819 ] ] } },
{ "type": "Feature", "properties": { "average_dip": "(90.0,,)", "average_rake": "(0.0,,)", "catalog_id": "EOS_AF0297", "catalog_name": "EOS_SE_Asia", "dip_dir": null, "lower_seis_depth": "(15.0,,)", "name": null, "net_slip_rate": null, "slip_type": "Sinistral", "upper_seis_depth": "(1.0,,)", "downthrown_side_id": null, "reference": null, "epistemic_quality": null, "accuracy": null, "activity_confidence": null, "fs_name": null, "last_movement": null, "downthrown_side_dir": null, "vert_sep_rate": null, "strike_slip_rate": null, "exposure_quality": null, "shortening_rate": null, "notes": null, "index_right": 110, "NAME_EN": "Thailand" }, "geometry": { "type": "LineString", "coordinates": [ [ 98.569, 8.435 ], [ 98.576, 8.452 ], [ 98.581, 8.472 ], [ 98.596, 8.507 ], [ 98.612, 8.529 ], [ 98.628, 8.556 ], [ 98.663, 8.602 ], [ 98.778, 8.825 ] ] } },
{ "type": "Feature", "properties": { "average_dip": "(90.0,,)", "average_rake": "(0.0,,)", "catalog_id": "EOS_AF0298", "catalog_name": "EOS_SE_Asia", "dip_dir": null, "lower_seis_depth": "(15.0,,)", "name": null, "net_slip_rate": null, "slip_type": "Sinistral", "upper_seis_depth": "(1.0,,)", "downthrown_side_id": null, "reference": null, "epistemic_quality": null, "accuracy": null, "activity_confidence": null, "fs_name": null, "last_movement": null, "downthrown_side_dir": null, "vert_sep_rate": null, "strike_slip_rate": null, "exposure_quality": null, "shortening_rate": null, "notes": null, "index_right": 110, "NAME_EN": "Thailand" }, "geometry": { "type": "LineString", "coordinates": [ [ 98.315, 7.998 ], [ 98.337, 8.054 ], [ 98.355, 8.133 ], [ 98.369, 8.183 ], [ 98.384, 8.22 ], [ 98.413, 8.318 ], [ 98.475, 8.461 ], [ 98.49, 8.489 ], [ 98.497, 8.51 ], [ 98.512, 8.532 ], [ 98.518, 8.544 ], [ 98.525, 8.55 ], [ 98.532, 8.558 ], [ 98.537, 8.567 ], [ 98.548, 8.578 ], [ 98.56, 8.585 ], [ 98.566, 8.591 ], [ 98.594, 8.625 ] ] } },
{ "type": "Feature", "properties": { "average_dip": "(90.0,,)", "average_rake": "(180.0,,)", "catalog_id": "EOS_AF0299", "catalog_name": "EOS_SE_Asia", "dip_dir": null, "lower_seis_depth": "(15.0,,)", "name": null, "net_slip_rate": null, "slip_type": "Dextral", "upper_seis_depth": "(1.0,,)", "downthrown_side_id": null, "reference": null, "epistemic_quality": null, "accuracy": null, "activity_confidence": null, "fs_name": null, "last_movement": null, "downthrown_side_dir": null, "vert_sep_rate": null, "strike_slip_rate": null, "exposure_quality": null, "shortening_rate": null, "notes": null, "index_right": 110, "NAME_EN": "Thailand" }, "geometry": { "type": "LineString", "coordinates": [ [ 99.14, 14.219 ], [ 99.177, 14.208 ], [ 99.242, 14.184 ], [ 99.356, 14.11 ], [ 99.382, 14.091 ], [ 99.409, 14.075 ], [ 99.426, 14.061 ], [ 99.437, 14.055 ], [ 99.461, 14.036 ], [ 99.485, 14.021 ] ] } },
{ "type": "Feature", "properties": { "average_dip": "(90.0,,)", "average_rake": "(180.0,,)", "catalog_id": "EOS_AF0300", "catalog_name": "EOS_SE_Asia", "dip_dir": null, "lower_seis_depth": "(15.0,,)", "name": null, "net_slip_rate": null, "slip_type": "Dextral", "upper_seis_depth": "(1.0,,)", "downthrown_side_id": null, "reference": null, "epistemic_quality": null, "accuracy": null, "activity_confidence": null, "fs_name": null, "last_movement": null, "downthrown_side_dir": null, "vert_sep_rate": null, "strike_slip_rate": null, "exposure_quality": null, "shortening_rate": null, "notes": null, "index_right": 110, "NAME_EN": "Thailand" }, "geometry": { "type": "LineString", "coordinates": [ [ 99.045, 14.107 ], [ 99.055, 14.099 ], [ 99.071, 14.079 ], [ 99.102, 14.05 ], [ 99.121, 14.029 ], [ 99.127, 14.018 ], [ 99.131, 14.015 ], [ 99.145, 13.995 ] ] } },
{ "type": "Feature", "properties": { "average_dip": "(90.0,,)", "average_rake": "(0.0,,)", "catalog_id": "EOS_AF0301", "catalog_name": "EOS_SE_Asia", "dip_dir": null, "lower_seis_depth": "(15.0,,)", "name": null, "net_slip_rate": null, "slip_type": "Sinistral", "upper_seis_depth": "(1.0,,)", "downthrown_side_id": null, "reference": null, "epistemic_quality": null, "accuracy": null, "activity_confidence": null, "fs_name": null, "last_movement": null, "downthrown_side_dir": null, "vert_sep_rate": null, "strike_slip_rate": null, "exposure_quality": null, "shortening_rate": null, "notes": null, "index_right": 110, "NAME_EN": "Thailand" }, "geometry": { "type": "LineString", "coordinates": [ [ 98.915, 9.093 ], [ 98.87, 9.008 ], [ 98.81, 8.861 ], [ 98.79, 8.837 ] ] } }
]
}
