{
"type": "FeatureCollection",
"name": "faults_bhutan",
"crs": { "type": "name", "properties": { "name": "urn:ogc:def:crs:OGC:1.3:CRS84" } },
"features": [
{ "type": "Feature", "properties": { "average_dip": null, "average_rake": null, "catalog_id": "GAF_542", "catalog_name": "HimaTibetMap", "dip_dir": null, "lower_seis_depth": null, "name": null, "net_slip_rate": "(15,10,21)", "slip_type": "Reverse", "upper_seis_depth": null, "downthrown_side_id": null, "reference": "Lave and Avouac, 2000, 2001; Lave, et al., 2005; Lillie and Yeats, 1991", "epistemic_quality": null, "accuracy": null, "activity_confidence": null, "fs_name": "Main Frontal Thrust", "last_movement": null, "downthrown_side_dir": null, "vert_sep_rate": null, "strike_slip_rate": null, "exposure_quality": "1", "shortening_rate": null, "notes": null, "index_right": 32, "NAME_EN": "Bhutan" }, "geometry": { "type": "LineString", "coordinates": [ [ 87.033384417018425, 26.80353218497925 ], [ 87.233757284274418, 26.80353218497925 ], [ 87.495783341455351, 26.741878995054325 ], [ 87.670467379575967, 26.741878995054325 ], [ 87.79891152525289, 26.690501336783559 ], [ 87.999284392508883, 26.716190165918942 ], [ 88.189381728110732, 26.777843355843864 ], [ 88.45140778529165, 26.860047609077096 ], [ 88.65691841837473, 26.901149735693711 ], [ 88.785362564051653, 26.916563033174942 ], [ 88.96004660217227, 26.921700799002018 ], [ 89.047388621232571, 26.875460906558327 ], [ 89.196383830217798, 26.741878995054325 ], [ 89.299139146759344, 26.767567824189712 ] ] } },
{ "type": "Feature", "properties": { "average_dip": null, "average_rake": null, "catalog_id": "GAF_867", "catalog_name": "HimaTibetMap", "dip_dir": null, "lower_seis_depth": null, "name": null, "net_slip_rate": null, "slip_type": "Normal", "upper_seis_depth": null, "downthrown_side_id": null, "reference": null, "epistemic_quality": null, "accuracy": null, "activity_confidence": null, "fs_name": null, "last_movement": null, "downthrown_side_dir": null, "vert_sep_rate": null, "strike_slip_rate": null, "exposure_quality": "1", "shortening_rate": null, "notes": null, "index_right": 32, "NAME_EN": "Bhutan" }, "geometry": { "type": "LineString", "coordinates": [ [ 88.968029206510749, 27.558484775607397 ], [ 89.088008896295023, 27.641948907631239 ], [ 89.19233906132483, 27.735846056158064 ], [ 89.270586685097172, 27.876691778948295 ], [ 89.338401292366555, 27.928856861463199 ], [ 89.42186542439039, 27.965372419223627 ], [ 89.43751494914487, 28.101001633762372 ], [ 89.489680031659759, 28.132300683271314 ], [ 89.567927655432115, 28.231414340049625 ], [ 89.609659721444032, 28.278362914313039 ] ] } },
{ "type": "Feature", "properties": { "average_dip": "(25.0,,)", "average_rake": "(90.0,,)", "catalog_id": "EOS_AF0155", "catalog_name": "EOS_SE_Asia", "dip_dir": null, "lower_seis_depth": "(40.0,,)", "name": null, "net_slip_rate": null, "slip_type": "Reverse", "upper_seis_depth": "(1.0,,)", "downthrown_side_id": null, "reference": null, "epistemic_quality": null, "accuracy": null, "activity_confidence": null, "fs_name": null, "last_movement": null, "downthrown_side_dir": null, "vert_sep_rate": null, "strike_slip_rate": null, "exposure_quality": null, "shortening_rate": null, "notes": null, "index_right": 32, "NAME_EN": "Bhutan" }, "geometry": { "type": "LineString", "coordinates": [ [ 89.391, 26.843 ], [ 89.436, 26.827 ], [ 89.491, 26.799 ], [ 89.511, 26.784 ], [ 89.565, 26.735 ], [ 89.592, 26.719 ], [ 89.627, 26.705 ], [ 89.644, 26.7 ], [ 89.666, 26.696 ], [ 89.688, 26.695 ], [ 89.697, 26.697 ], [ 89.713, 26.708 ], [ 89.726, 26.713 ], [ 89.781, 26.721 ], [ 89.818, 26.724 ], [ 89.915, 26.725 ], [ 89.978, 26.723 ], [ 90.042, 26.723 ], [ 90.164, 26.717 ], [ 90.197, 26.717 ], [ 90.247, 26.72 ], [ 90.292, 26.725 ], [ 90.328, 26.731 ], [ 90.685, 26.772 ], [ 90.706, 26.776 ], [ 90.73, 26.772 ], [ 90.776, 26.769 ], [ 90.826, 26.769 ], [ 90.9, 26.774 ], [ 90.957, 26.781 ], [ 91.035, 26.799 ], [ 91.079, 26.807 ], [ 91.127, 26.811 ], [ 91.147, 26.811 ], [ 91.222, 26.819 ], [ 91.321, 26.779 ], [ 91.345, 26.781 ], [ 91.377, 26.801 ], [ 91.413, 26.814 ], [ 91.491, 26.8 ], [ 91.563, 26.801 ], [ 91.624, 26.816 ], [ 91.701, 26.816 ], [ 91.774, 26.832 ], [ 91.855, 26.863 ], [ 91.916, 26.868 ], [ 91.992, 26.856 ], [ 92.1, 26.863 ], [ 92.212, 26.898 ], [ 92.365, 26.934 ], [ 92.443, 26.936 ], [ 92.52, 26.965 ], [ 92.614, 26.97 ], [ 92.689, 26.952 ], [ 92.744, 26.929 ], [ 92.808, 26.925 ], [ 92.858, 26.937 ], [ 92.909, 26.945 ], [ 92.96, 26.934 ], [ 93.009, 26.914 ], [ 93.076, 26.903 ], [ 93.16, 26.925 ], [ 93.274, 26.946 ], [ 93.327, 26.96 ], [ 93.392, 26.951 ], [ 93.453, 26.946 ], [ 93.511, 26.969 ], [ 93.569, 26.962 ], [ 93.624, 26.978 ], [ 93.686, 27.002 ], [ 93.745, 27.04 ], [ 93.809, 27.064 ], [ 93.837, 27.095 ], [ 93.86, 27.168 ], [ 93.96, 27.262 ], [ 94.023, 27.332 ], [ 94.087, 27.372 ], [ 94.151, 27.407 ], [ 94.21, 27.471 ], [ 94.238, 27.52 ], [ 94.291, 27.544 ], [ 94.478, 27.567 ], [ 94.628, 27.631 ], [ 94.844, 27.711 ], [ 95.076, 27.81 ], [ 95.232, 27.901 ], [ 95.226, 27.98 ], [ 95.238, 28.013 ], [ 95.303, 28.03 ], [ 95.432, 28.148 ], [ 95.536, 28.219 ], [ 95.614, 28.27 ], [ 95.65, 28.313 ], [ 95.727, 28.251 ], [ 95.799, 28.175 ], [ 95.843, 28.113 ], [ 95.949, 28.053 ], [ 96.071, 28.038 ], [ 96.191, 27.997 ], [ 96.235, 27.932 ], [ 96.328, 27.83 ], [ 96.349, 27.758 ] ] } }
]
}
