{
"type": "FeatureCollection",
"name": "faults_croatia",
"crs": { "type": "name", "properties": { "name": "urn:ogc:def:crs:OGC:1.3:CRS84" } },
"features": [
{ "type": "Feature", "properties": { "average_dip": "(60.0,50,70)", "average_rake": "(145,120,170)", "catalog_id": "EUR_BACS010", "catalog_name": "SHARE", "dip_dir": null, "lower_seis_depth": "(20.0,,)", "name": null, "net_slip_rate": "(0.2,0.1,0.4)", "slip_type": "Dextral-Reverse", "upper_seis_depth": "(1.0,,)", "downthrown_side_id": null, "reference": null, "epistemic_quality": null, "accuracy": null, "activity_confidence": null, "fs_name": null, "last_movement": null, "downthrown_side_dir": null, "vert_sep_rate": null, "strike_slip_rate": null, "exposure_quality": null, "shortening_rate": null, "notes": null, "index_right": 102, "NAME_EN": "Croatia" }, "geometry": { "type": "LineString", "coordinates": [ [ 15.669734, 44.942646 ], [ 15.750219, 44.881114 ], [ 15.812614, 44.836452 ], [ 15.853738, 44.808706 ], [ 15.921488, 44.768765 ], [ 15.965524, 44.734641 ], [ 16.000083, 44.701648 ], [ 16.043696, 44.655564 ], [ 16.080216, 44.610379 ], [ 16.204297, 44.489707 ] ] } },
{ "type": "Feature", "properties": { "average_dip": "(60.0,50,70)", "average_rake": "(112,95,130)", "catalog_id": "EUR_BACS017", "catalog_name": "SHARE", "dip_dir": null, "lower_seis_depth": "(20.0,,)", "name": null, "net_slip_rate": "(0.4,0.1,0.7)", "slip_type": "Reverse", "upper_seis_depth": "(2.0,,)", "downthrown_side_id": null, "reference": null, "epistemic_quality": null, "accuracy": null, "activity_confidence": null, "fs_name": null, "last_movement": null, "downthrown_side_dir": null, "vert_sep_rate": null, "strike_slip_rate": null, "exposure_quality": null, "shortening_rate": null, "notes": null, "index_right": 102, "NAME_EN": "Croatia" }, "geometry": { "type": "LineString", "coordinates": [ [ 17.184005, 43.395366 ], [ 17.33693, 43.32174 ], [ 17.401415, 43.286821 ], [ 17.481445, 43.231579 ], [ 17.549469, 43.191843 ], [ 17.649505, 43.145324 ], [ 17.729533, 43.095897 ], [ 17.786752, 43.065142 ], [ 17.840288, 43.038064 ], [ 17.975034, 42.978219 ], [ 18.023318, 42.957724 ], [ 18.063742, 42.946246 ] ] } },
{ "type": "Feature", "properties": { "average_dip": "(60.0,50,70)", "average_rake": "(112,95,130)", "catalog_id": "EUR_HRCS003", "catalog_name": "SHARE", "dip_dir": null, "lower_seis_depth": "(20.0,,)", "name": null, "net_slip_rate": "(0.4,0.1,0.7)", "slip_type": "Reverse", "upper_seis_depth": "(2.0,,)", "downthrown_side_id": null, "reference": null, "epistemic_quality": null, "accuracy": null, "activity_confidence": null, "fs_name": null, "last_movement": null, "downthrown_side_dir": null, "vert_sep_rate": null, "strike_slip_rate": null, "exposure_quality": null, "shortening_rate": null, "notes": null, "index_right": 102, "NAME_EN": "Croatia" }, "geometry": { "type": "LineString", "coordinates": [ [ 16.716122, 43.625325 ], [ 16.818478, 43.585174 ], [ 16.935915, 43.544087 ], [ 17.102022, 43.483285 ], [ 17.35179, 43.397951 ], [ 17.474318, 43.346751 ] ] } },
{ "type": "Feature", "properties": { "average_dip": "(57.5,45,70)", "average_rake": "(110,80,140)", "catalog_id": "EUR_HRCS005", "catalog_name": "SHARE", "dip_dir": null, "lower_seis_depth": "(18.0,,)", "name": null, "net_slip_rate": "(0.3,0.1,0.5)", "slip_type": "Reverse", "upper_seis_depth": "(1.0,,)", "downthrown_side_id": null, "reference": null, "epistemic_quality": null, "accuracy": null, "activity_confidence": null, "fs_name": null, "last_movement": null, "downthrown_side_dir": null, "vert_sep_rate": null, "strike_slip_rate": null, "exposure_quality": null, "shortening_rate": null, "notes": null, "index_right": 102, "NAME_EN": "Croatia" }, "geometry": { "type": "LineString", "coordinates": [ [ 14.808532, 45.099226 ], [ 14.857289, 44.968332 ], [ 14.869991, 44.900036 ], [ 14.880467, 44.823322 ], [ 14.90894, 44.740922 ], [ 14.948773, 44.662537 ], [ 15.018745, 44.592193 ], [ 15.109261, 44.523436 ], [ 15.193082, 44.446385 ], [ 15.305381, 44.370511 ], [ 15.463262, 44.296237 ], [ 15.709007, 44.218598 ], [ 15.777087, 44.193811 ], [ 15.902055, 44.168009 ], [ 15.981199, 44.157384 ], [ 16.041599, 44.166491 ] ] } },
{ "type": "Feature", "properties": { "average_dip": "(52.5,45,60)", "average_rake": "(120,100,140)", "catalog_id": "EUR_HRCS006", "catalog_name": "SHARE", "dip_dir": null, "lower_seis_depth": "(15.0,,)", "name": null, "net_slip_rate": "(0.3,0.2,0.4)", "slip_type": "Dextral-Reverse", "upper_seis_depth": "(1.0,,)", "downthrown_side_id": null, "reference": null, "epistemic_quality": null, "accuracy": null, "activity_confidence": null, "fs_name": null, "last_movement": null, "downthrown_side_dir": null, "vert_sep_rate": null, "strike_slip_rate": null, "exposure_quality": null, "shortening_rate": null, "notes": null, "index_right": 102, "NAME_EN": "Croatia" }, "geometry": { "type": "LineString", "coordinates": [ [ 14.327197, 45.452219 ], [ 14.406713, 45.381004 ], [ 14.44973, 45.350874 ], [ 14.494843, 45.315146 ], [ 14.662234, 45.208497 ], [ 14.745831, 45.152023 ], [ 14.808347, 45.102258 ] ] } },
{ "type": "Feature", "properties": { "average_dip": "(37.5,30,45)", "average_rake": "(105,90,120)", "catalog_id": "EUR_HRCS008", "catalog_name": "SHARE", "dip_dir": null, "lower_seis_depth": "(18.0,,)", "name": null, "net_slip_rate": "(0.3,0.1,0.5)", "slip_type": "Reverse", "upper_seis_depth": "(2.0,,)", "downthrown_side_id": null, "reference": null, "epistemic_quality": null, "accuracy": null, "activity_confidence": null, "fs_name": null, "last_movement": null, "downthrown_side_dir": null, "vert_sep_rate": null, "strike_slip_rate": null, "exposure_quality": null, "shortening_rate": null, "notes": null, "index_right": 102, "NAME_EN": "Croatia" }, "geometry": { "type": "LineString", "coordinates": [ [ 14.740596, 44.280079 ], [ 14.794182, 44.147418 ], [ 14.868099, 44.066424 ], [ 14.95394, 43.995747 ], [ 15.011007, 43.935711 ], [ 15.079999, 43.885991 ], [ 15.202063, 43.786549 ], [ 15.362614, 43.704012 ], [ 15.680554, 43.555383 ], [ 15.869194, 43.478879 ], [ 15.982819, 43.438139 ], [ 16.197779, 43.373249 ] ] } },
{ "type": "Feature", "properties": { "average_dip": "(52.5,45,60)", "average_rake": "(107,95,120)", "catalog_id": "EUR_HRCS009", "catalog_name": "SHARE", "dip_dir": null, "lower_seis_depth": "(15.0,,)", "name": null, "net_slip_rate": "(1.0,0.3,1.7)", "slip_type": "Reverse", "upper_seis_depth": "(1.0,,)", "downthrown_side_id": null, "reference": null, "epistemic_quality": null, "accuracy": null, "activity_confidence": null, "fs_name": null, "last_movement": null, "downthrown_side_dir": null, "vert_sep_rate": null, "strike_slip_rate": null, "exposure_quality": null, "shortening_rate": null, "notes": null, "index_right": 102, "NAME_EN": "Croatia" }, "geometry": { "type": "LineString", "coordinates": [ [ 17.142656, 43.329464 ], [ 17.296582, 43.234322 ], [ 17.494446, 43.122005 ], [ 17.696085, 43.039751 ], [ 17.961619, 42.939862 ] ] } },
{ "type": "Feature", "properties": { "average_dip": "(55.0,45,65)", "average_rake": "(112,95,130)", "catalog_id": "EUR_HRCS011", "catalog_name": "SHARE", "dip_dir": null, "lower_seis_depth": "(20.0,,)", "name": null, "net_slip_rate": "(0.4,0.1,0.7)", "slip_type": "Reverse", "upper_seis_depth": "(2.0,,)", "downthrown_side_id": null, "reference": null, "epistemic_quality": null, "accuracy": null, "activity_confidence": null, "fs_name": null, "last_movement": null, "downthrown_side_dir": null, "vert_sep_rate": null, "strike_slip_rate": null, "exposure_quality": null, "shortening_rate": null, "notes": null, "index_right": 102, "NAME_EN": "Croatia" }, "geometry": { "type": "LineString", "coordinates": [ [ 16.136806, 44.158215 ], [ 16.270787, 44.051199 ], [ 16.349243, 43.982465 ], [ 16.500121, 43.866748 ], [ 16.661863, 43.750162 ], [ 16.722215, 43.704919 ], [ 16.786187, 43.663157 ] ] } },
{ "type": "Feature", "properties": { "average_dip": "(37.5,30,45)", "average_rake": "(112,95,130)", "catalog_id": "EUR_HRCS012", "catalog_name": "SHARE", "dip_dir": null, "lower_seis_depth": "(15.0,,)", "name": null, "net_slip_rate": "(0.3,0.1,0.5)", "slip_type": "Reverse", "upper_seis_depth": "(2.0,,)", "downthrown_side_id": null, "reference": null, "epistemic_quality": null, "accuracy": null, "activity_confidence": null, "fs_name": null, "last_movement": null, "downthrown_side_dir": null, "vert_sep_rate": null, "strike_slip_rate": null, "exposure_quality": null, "shortening_rate": null, "notes": null, "index_right": 102, "NAME_EN": "Croatia" }, "geometry": { "type": "LineString", "coordinates": [ [ 15.10313, 44.237674 ], [ 15.178595, 44.158873 ], [ 15.277951, 44.090699 ], [ 15.43086, 43.960271 ], [ 15.550039, 43.880836 ], [ 15.654516, 43.81437 ], [ 15.725747, 43.765572 ], [ 15.866646, 43.686867 ], [ 15.989531, 43.624637 ], [ 16.120746, 43.57455 ], [ 16.279038, 43.530533 ], [ 16.470652, 43.484999 ], [ 16.814312, 43.431876 ] ] } },
{ "type": "Feature", "properties": { "average_dip": "(57.5,45,70)", "average_rake": "(112,95,130)", "catalog_id": "EUR_HRCS013", "catalog_name": "SHARE", "dip_dir": null, "lower_seis_depth": "(10.0,,)", "name": null, "net_slip_rate": "(0.2,0.1,0.4)", "slip_type": "Reverse", "upper_seis_depth": "(1.0,,)", "downthrown_side_id": null, "reference": null, "epistemic_quality": null, "accuracy": null, "activity_confidence": null, "fs_name": null, "last_movement": null, "downthrown_side_dir": null, "vert_sep_rate": null, "strike_slip_rate": null, "exposure_quality": null, "shortening_rate": null, "notes": null, "index_right": 102, "NAME_EN": "Croatia" }, "geometry": { "type": "LineString", "coordinates": [ [ 15.524307, 44.248355 ], [ 15.587907, 44.187422 ], [ 15.644569, 44.130304 ], [ 15.797682, 44.038319 ], [ 15.932757, 43.974554 ], [ 16.130112, 43.848665 ], [ 16.24979, 43.781524 ], [ 16.354446, 43.734598 ] ] } },
{ "type": "Feature", "properties": { "average_dip": "(37.5,30,45)", "average_rake": "(112,95,130)", "catalog_id": "EUR_HRCS015", "catalog_name": "SHARE", "dip_dir": null, "lower_seis_depth": "(11.0,,)", "name": null, "net_slip_rate": "(0.2,0.1,0.4)", "slip_type": "Reverse", "upper_seis_depth": "(1.0,,)", "downthrown_side_id": null, "reference": null, "epistemic_quality": null, "accuracy": null, "activity_confidence": null, "fs_name": null, "last_movement": null, "downthrown_side_dir": null, "vert_sep_rate": null, "strike_slip_rate": null, "exposure_quality": null, "shortening_rate": null, "notes": null, "index_right": 102, "NAME_EN": "Croatia" }, "geometry": { "type": "LineString", "coordinates": [ [ 15.101948, 44.413658 ], [ 15.132671, 44.356141 ], [ 15.204755, 44.292615 ], [ 15.274473, 44.247117 ], [ 15.370189, 44.17844 ], [ 15.495447, 44.102038 ], [ 15.608333, 44.025178 ], [ 15.735523, 43.93638 ], [ 15.852698, 43.856966 ], [ 15.951845, 43.782607 ], [ 16.043983, 43.730627 ], [ 16.151986, 43.684739 ], [ 16.356098, 43.642782 ], [ 16.476898, 43.612812 ], [ 16.64769, 43.583656 ], [ 16.726834, 43.551783 ] ] } },
{ "type": "Feature", "properties": { "average_dip": "(37.5,30,45)", "average_rake": "(95,80,110)", "catalog_id": "EUR_HRCS016", "catalog_name": "SHARE", "dip_dir": null, "lower_seis_depth": "(10.0,,)", "name": null, "net_slip_rate": "(0.7,0.3,1.0)", "slip_type": "Reverse", "upper_seis_depth": "(1.0,,)", "downthrown_side_id": null, "reference": null, "epistemic_quality": null, "accuracy": null, "activity_confidence": null, "fs_name": null, "last_movement": null, "downthrown_side_dir": null, "vert_sep_rate": null, "strike_slip_rate": null, "exposure_quality": null, "shortening_rate": null, "notes": null, "index_right": 102, "NAME_EN": "Croatia" }, "geometry": { "type": "LineString", "coordinates": [ [ 17.353752, 43.058637 ], [ 17.452017, 43.004488 ], [ 17.616182, 42.927255 ], [ 17.696757, 42.892857 ], [ 17.776731, 42.847776 ], [ 17.868198, 42.788235 ], [ 17.961924, 42.733238 ], [ 18.054231, 42.683907 ], [ 18.139987, 42.646697 ], [ 18.201655, 42.617358 ], [ 18.295168, 42.557553 ], [ 18.368064, 42.522416 ], [ 18.449292, 42.473529 ], [ 18.536772, 42.430754 ], [ 18.661736, 42.38034 ], [ 18.759628, 42.319232 ], [ 18.824196, 42.265763 ] ] } },
{ "type": "Feature", "properties": { "average_dip": "(60.0,50,70)", "average_rake": "(105,90,120)", "catalog_id": "EUR_HRCS018", "catalog_name": "SHARE", "dip_dir": null, "lower_seis_depth": "(15.0,,)", "name": null, "net_slip_rate": "(0.3,0.1,0.5)", "slip_type": "Reverse", "upper_seis_depth": "(2.0,,)", "downthrown_side_id": null, "reference": null, "epistemic_quality": null, "accuracy": null, "activity_confidence": null, "fs_name": null, "last_movement": null, "downthrown_side_dir": null, "vert_sep_rate": null, "strike_slip_rate": null, "exposure_quality": null, "shortening_rate": null, "notes": null, "index_right": 102, "NAME_EN": "Croatia" }, "geometry": { "type": "LineString", "coordinates": [ [ 15.734569, 43.333863 ], [ 15.750376, 43.298245 ], [ 15.875401, 43.179867 ], [ 15.947253, 43.135868 ], [ 16.040663, 43.101297 ], [ 16.147005, 43.084536 ] ] } },
{ "type": "Feature", "properties": { "average_dip": "(77.5,65,90)", "average_rake": "(25,10,40)", "catalog_id": "EUR_HRCS022", "catalog_name": "SHARE", "dip_dir": null, "lower_seis_depth": "(18.0,,)", "name": null, "net_slip_rate": "(0.2,0.1,0.2)", "slip_type": "Sinistral-Reverse", "upper_seis_depth": "(1.0,,)", "downthrown_side_id": null, "reference": null, "epistemic_quality": null, "accuracy": null, "activity_confidence": null, "fs_name": null, "last_movement": null, "downthrown_side_dir": null, "vert_sep_rate": null, "strike_slip_rate": null, "exposure_quality": null, "shortening_rate": null, "notes": null, "index_right": 102, "NAME_EN": "Croatia" }, "geometry": { "type": "LineString", "coordinates": [ [ 15.319836, 45.599293 ], [ 15.470812, 45.650179 ], [ 15.633702, 45.722215 ], [ 15.738577, 45.765518 ] ] } },
{ "type": "Feature", "properties": { "average_dip": "(65.0,60,70)", "average_rake": "(65,50,80)", "catalog_id": "EUR_HRCS023", "catalog_name": "SHARE", "dip_dir": null, "lower_seis_depth": "(18.0,,)", "name": null, "net_slip_rate": "(0.1,0.05,0.2)", "slip_type": "Sinistral-Reverse", "upper_seis_depth": "(3.0,,)", "downthrown_side_id": null, "reference": null, "epistemic_quality": null, "accuracy": null, "activity_confidence": null, "fs_name": null, "last_movement": null, "downthrown_side_dir": null, "vert_sep_rate": null, "strike_slip_rate": null, "exposure_quality": null, "shortening_rate": null, "notes": null, "index_right": 102, "NAME_EN": "Croatia" }, "geometry": { "type": "LineString", "coordinates": [ [ 15.992435, 46.217194 ], [ 16.04543, 46.228087 ], [ 16.095882, 46.236455 ], [ 16.32292, 46.255702 ], [ 16.420818, 46.261974 ], [ 16.51152, 46.26407 ], [ 16.564376, 46.259886 ] ] } },
{ "type": "Feature", "properties": { "average_dip": "(62.5,55,70)", "average_rake": "(150,120,180)", "catalog_id": "EUR_HRCS024", "catalog_name": "SHARE", "dip_dir": null, "lower_seis_depth": "(15.0,,)", "name": null, "net_slip_rate": "(0.2,0.1,0.25)", "slip_type": "Dextral-Reverse", "upper_seis_depth": "(1.0,,)", "downthrown_side_id": null, "reference": null, "epistemic_quality": null, "accuracy": null, "activity_confidence": null, "fs_name": null, "last_movement": null, "downthrown_side_dir": null, "vert_sep_rate": null, "strike_slip_rate": null, "exposure_quality": null, "shortening_rate": null, "notes": null, "index_right": 102, "NAME_EN": "Croatia" }, "geometry": { "type": "LineString", "coordinates": [ [ 15.120106, 45.544171 ], [ 15.187885, 45.486936 ], [ 15.242054, 45.436744 ], [ 15.318277, 45.371556 ], [ 15.39304, 45.314166 ], [ 15.433592, 45.257731 ], [ 15.516924, 45.190212 ], [ 15.62693, 45.131131 ] ] } },
{ "type": "Feature", "properties": { "average_dip": "(45.0,40,50)", "average_rake": "(120,110,130)", "catalog_id": "EUR_HRCS025", "catalog_name": "SHARE", "dip_dir": null, "lower_seis_depth": "(15.0,,)", "name": null, "net_slip_rate": "(0.2,0.1,0.3)", "slip_type": "Dextral-Reverse", "upper_seis_depth": "(1.0,,)", "downthrown_side_id": null, "reference": null, "epistemic_quality": null, "accuracy": null, "activity_confidence": null, "fs_name": null, "last_movement": null, "downthrown_side_dir": null, "vert_sep_rate": null, "strike_slip_rate": null, "exposure_quality": null, "shortening_rate": null, "notes": null, "index_right": 102, "NAME_EN": "Croatia" }, "geometry": { "type": "LineString", "coordinates": [ [ 14.230511, 45.28807 ], [ 14.290307, 45.242041 ], [ 14.331178, 45.205251 ], [ 14.372049, 45.158362 ], [ 14.437537, 45.088884 ], [ 14.475248, 45.059534 ], [ 14.519862, 45.027917 ], [ 14.565507, 45.001942 ], [ 14.640884, 44.954308 ], [ 14.703956, 44.902708 ], [ 14.776732, 44.851108 ], [ 14.849508, 44.813266 ] ] } },
{ "type": "Feature", "properties": { "average_dip": "(65.0,60,70)", "average_rake": "(130,120,140)", "catalog_id": "EUR_HRCS026", "catalog_name": "SHARE", "dip_dir": null, "lower_seis_depth": "(20.0,,)", "name": null, "net_slip_rate": "(0.1,0.05,0.1)", "slip_type": "Dextral-Reverse", "upper_seis_depth": "(1.0,,)", "downthrown_side_id": null, "reference": null, "epistemic_quality": null, "accuracy": null, "activity_confidence": null, "fs_name": null, "last_movement": null, "downthrown_side_dir": null, "vert_sep_rate": null, "strike_slip_rate": null, "exposure_quality": null, "shortening_rate": null, "notes": null, "index_right": 102, "NAME_EN": "Croatia" }, "geometry": { "type": "LineString", "coordinates": [ [ 17.762584, 45.216881 ], [ 17.943695, 45.199328 ], [ 18.027907, 45.189141 ], [ 18.227907, 45.153025 ] ] } },
{ "type": "Feature", "properties": { "average_dip": "(62.5,55,70)", "average_rake": "(145,120,170)", "catalog_id": "EUR_HRCS027", "catalog_name": "SHARE", "dip_dir": null, "lower_seis_depth": "(17.0,,)", "name": null, "net_slip_rate": "(0.1,0.08,0.2)", "slip_type": "Dextral-Reverse", "upper_seis_depth": "(1.0,,)", "downthrown_side_id": null, "reference": null, "epistemic_quality": null, "accuracy": null, "activity_confidence": null, "fs_name": null, "last_movement": null, "downthrown_side_dir": null, "vert_sep_rate": null, "strike_slip_rate": null, "exposure_quality": null, "shortening_rate": null, "notes": null, "index_right": 102, "NAME_EN": "Croatia" }, "geometry": { "type": "LineString", "coordinates": [ [ 15.819912, 45.642265 ], [ 15.881815, 45.575407 ], [ 15.936738, 45.537736 ], [ 16.008762, 45.489594 ], [ 16.184414, 45.394754 ], [ 16.421674, 45.306831 ], [ 16.588278, 45.235573 ] ] } },
{ "type": "Feature", "properties": { "average_dip": "(70.0,60,80)", "average_rake": "(155,140,170)", "catalog_id": "EUR_HRCS028", "catalog_name": "SHARE", "dip_dir": null, "lower_seis_depth": "(15.0,,)", "name": null, "net_slip_rate": "(0.1,0.05,0.2)", "slip_type": "Dextral-Reverse", "upper_seis_depth": "(1.0,,)", "downthrown_side_id": null, "reference": null, "epistemic_quality": null, "accuracy": null, "activity_confidence": null, "fs_name": null, "last_movement": null, "downthrown_side_dir": null, "vert_sep_rate": null, "strike_slip_rate": null, "exposure_quality": null, "shortening_rate": null, "notes": null, "index_right": 102, "NAME_EN": "Croatia" }, "geometry": { "type": "LineString", "coordinates": [ [ 17.632658, 45.588387 ], [ 17.844026, 45.541461 ], [ 17.970842, 45.494535 ], [ 18.082738, 45.447609 ], [ 18.194642, 45.409373 ], [ 18.323946, 45.372875 ], [ 18.443298, 45.329425 ] ] } },
{ "type": "Feature", "properties": { "average_dip": "(50.0,40,60)", "average_rake": "(130,120,140)", "catalog_id": "EUR_HRCS029", "catalog_name": "SHARE", "dip_dir": null, "lower_seis_depth": "(11.0,,)", "name": null, "net_slip_rate": "(0.2,0.1,0.3)", "slip_type": "Dextral-Reverse", "upper_seis_depth": "(1.0,,)", "downthrown_side_id": null, "reference": null, "epistemic_quality": null, "accuracy": null, "activity_confidence": null, "fs_name": null, "last_movement": null, "downthrown_side_dir": null, "vert_sep_rate": null, "strike_slip_rate": null, "exposure_quality": null, "shortening_rate": null, "notes": null, "index_right": 102, "NAME_EN": "Croatia" }, "geometry": { "type": "LineString", "coordinates": [ [ 13.852696, 45.492902 ], [ 13.88084, 45.469612 ], [ 13.90852, 45.452531 ], [ 13.972948, 45.421838 ], [ 14.005357, 45.411088 ], [ 14.044589, 45.394368 ], [ 14.084673, 45.372869 ], [ 14.140961, 45.334053 ], [ 14.218571, 45.302402 ] ] } },
{ "type": "Feature", "properties": { "average_dip": "(65.0,60,70)", "average_rake": "(145,120,170)", "catalog_id": "EUR_HRCS030", "catalog_name": "SHARE", "dip_dir": null, "lower_seis_depth": "(18.0,,)", "name": null, "net_slip_rate": "(0.1,0.05,0.1)", "slip_type": "Dextral-Reverse", "upper_seis_depth": "(1.0,,)", "downthrown_side_id": null, "reference": null, "epistemic_quality": null, "accuracy": null, "activity_confidence": null, "fs_name": null, "last_movement": null, "downthrown_side_dir": null, "vert_sep_rate": null, "strike_slip_rate": null, "exposure_quality": null, "shortening_rate": null, "notes": null, "index_right": 102, "NAME_EN": "Croatia" }, "geometry": { "type": "LineString", "coordinates": [ [ 16.501246, 45.697881 ], [ 16.570874, 45.640527 ], [ 16.672822, 45.567531 ], [ 16.774774, 45.503225 ], [ 16.874242, 45.463251 ], [ 16.951326, 45.442395 ] ] } },
{ "type": "Feature", "properties": { "average_dip": "(70.0,60,80)", "average_rake": "(155,140,170)", "catalog_id": "EUR_HRCS031", "catalog_name": "SHARE", "dip_dir": null, "lower_seis_depth": "(15.0,,)", "name": null, "net_slip_rate": "(0.1,0.05,0.2)", "slip_type": "Dextral-Reverse", "upper_seis_depth": "(1.0,,)", "downthrown_side_id": null, "reference": null, "epistemic_quality": null, "accuracy": null, "activity_confidence": null, "fs_name": null, "last_movement": null, "downthrown_side_dir": null, "vert_sep_rate": null, "strike_slip_rate": null, "exposure_quality": null, "shortening_rate": null, "notes": null, "index_right": 102, "NAME_EN": "Croatia" }, "geometry": { "type": "LineString", "coordinates": [ [ 17.282046, 45.852563 ], [ 17.356646, 45.828231 ], [ 17.483462, 45.779567 ], [ 17.602822, 45.741331 ], [ 17.71223, 45.689191 ], [ 17.819162, 45.612719 ] ] } },
{ "type": "Feature", "properties": { "average_dip": "(55.0,50,60)", "average_rake": "(145,130,160)", "catalog_id": "EUR_HRCS032", "catalog_name": "SHARE", "dip_dir": null, "lower_seis_depth": "(15.0,,)", "name": null, "net_slip_rate": "(0.2,0.1,0.3)", "slip_type": "Dextral-Reverse", "upper_seis_depth": "(1.0,,)", "downthrown_side_id": null, "reference": null, "epistemic_quality": null, "accuracy": null, "activity_confidence": null, "fs_name": null, "last_movement": null, "downthrown_side_dir": null, "vert_sep_rate": null, "strike_slip_rate": null, "exposure_quality": null, "shortening_rate": null, "notes": null, "index_right": 102, "NAME_EN": "Croatia" }, "geometry": { "type": "LineString", "coordinates": [ [ 13.870606, 45.585464 ], [ 13.902161, 45.549036 ], [ 13.972444, 45.492357 ], [ 14.022464, 45.464457 ], [ 14.095759, 45.433781 ], [ 14.154607, 45.405117 ], [ 14.215159, 45.37048 ], [ 14.266331, 45.334053 ] ] } },
{ "type": "Feature", "properties": { "average_dip": "(62.5,55,70)", "average_rake": "(150,120,180)", "catalog_id": "EUR_HRCS033", "catalog_name": "SHARE", "dip_dir": null, "lower_seis_depth": "(12.0,,)", "name": null, "net_slip_rate": "(0.2,0.1,0.3)", "slip_type": "Dextral-Reverse", "upper_seis_depth": "(1.0,,)", "downthrown_side_id": null, "reference": null, "epistemic_quality": null, "accuracy": null, "activity_confidence": null, "fs_name": null, "last_movement": null, "downthrown_side_dir": null, "vert_sep_rate": null, "strike_slip_rate": null, "exposure_quality": null, "shortening_rate": null, "notes": null, "index_right": 102, "NAME_EN": "Croatia" }, "geometry": { "type": "LineString", "coordinates": [ [ 15.107614, 45.127341 ], [ 15.256155, 45.028047 ], [ 15.345367, 44.978277 ], [ 15.511299, 44.856338 ], [ 15.602295, 44.797858 ], [ 15.686151, 44.766751 ] ] } },
{ "type": "Feature", "properties": { "average_dip": "(62.5,55,70)", "average_rake": "(150,120,180)", "catalog_id": "EUR_HRCS034", "catalog_name": "SHARE", "dip_dir": null, "lower_seis_depth": "(12.0,,)", "name": null, "net_slip_rate": "(0.2,0.1,0.3)", "slip_type": "Dextral-Reverse", "upper_seis_depth": "(1.0,,)", "downthrown_side_id": null, "reference": null, "epistemic_quality": null, "accuracy": null, "activity_confidence": null, "fs_name": null, "last_movement": null, "downthrown_side_dir": null, "vert_sep_rate": null, "strike_slip_rate": null, "exposure_quality": null, "shortening_rate": null, "notes": null, "index_right": 102, "NAME_EN": "Croatia" }, "geometry": { "type": "LineString", "coordinates": [ [ 15.009482, 45.031341 ], [ 15.081301, 44.972678 ], [ 15.247235, 44.882277 ], [ 15.325739, 44.831205 ], [ 15.425655, 44.757942 ], [ 15.523787, 44.712469 ], [ 15.736111, 44.630364 ] ] } },
{ "type": "Feature", "properties": { "average_dip": "(62.5,55,70)", "average_rake": "(160,140,180)", "catalog_id": "EUR_HRCS035", "catalog_name": "SHARE", "dip_dir": null, "lower_seis_depth": "(12.0,,)", "name": null, "net_slip_rate": "(0.2,0.1,0.3)", "slip_type": "Dextral", "upper_seis_depth": "(1.0,,)", "downthrown_side_id": null, "reference": null, "epistemic_quality": null, "accuracy": null, "activity_confidence": null, "fs_name": null, "last_movement": null, "downthrown_side_dir": null, "vert_sep_rate": null, "strike_slip_rate": null, "exposure_quality": null, "shortening_rate": null, "notes": null, "index_right": 102, "NAME_EN": "Croatia" }, "geometry": { "type": "LineString", "coordinates": [ [ 14.466677, 45.461349 ], [ 14.591818, 45.376438 ], [ 14.698708, 45.323483 ], [ 14.806902, 45.265963 ] ] } },
{ "type": "Feature", "properties": { "average_dip": "(67.5,60,75)", "average_rake": "(145,120,170)", "catalog_id": "EUR_HRCS036", "catalog_name": "SHARE", "dip_dir": null, "lower_seis_depth": "(20.0,,)", "name": null, "net_slip_rate": "(0.1,0.05,0.1)", "slip_type": "Dextral-Reverse", "upper_seis_depth": "(1.0,,)", "downthrown_side_id": null, "reference": null, "epistemic_quality": null, "accuracy": null, "activity_confidence": null, "fs_name": null, "last_movement": null, "downthrown_side_dir": null, "vert_sep_rate": null, "strike_slip_rate": null, "exposure_quality": null, "shortening_rate": null, "notes": null, "index_right": 102, "NAME_EN": "Croatia" }, "geometry": { "type": "LineString", "coordinates": [ [ 16.971326, 45.34935 ], [ 17.101589, 45.317864 ], [ 17.296327, 45.295638 ], [ 17.424452, 45.283735 ], [ 17.573601, 45.24884 ], [ 17.709744, 45.202434 ] ] } },
{ "type": "Feature", "properties": { "average_dip": "(60.0,50,70)", "average_rake": "(35,20,50)", "catalog_id": "EUR_HRCS038", "catalog_name": "SHARE", "dip_dir": null, "lower_seis_depth": "(16.0,,)", "name": null, "net_slip_rate": "(0.2,0.1,0.2)", "slip_type": "Sinistral-Reverse", "upper_seis_depth": "(2.0,,)", "downthrown_side_id": null, "reference": null, "epistemic_quality": null, "accuracy": null, "activity_confidence": null, "fs_name": null, "last_movement": null, "downthrown_side_dir": null, "vert_sep_rate": null, "strike_slip_rate": null, "exposure_quality": null, "shortening_rate": null, "notes": null, "index_right": 102, "NAME_EN": "Croatia" }, "geometry": { "type": "LineString", "coordinates": [ [ 15.830402, 45.813436 ], [ 16.012994, 45.874251 ], [ 16.097084, 45.895078 ], [ 16.193184, 45.92257 ], [ 16.272468, 45.948395 ], [ 16.410614, 45.985884 ] ] } },
{ "type": "Feature", "properties": { "average_dip": "(60.0,50,70)", "average_rake": "(35,20,50)", "catalog_id": "EUR_HRCS039", "catalog_name": "SHARE", "dip_dir": null, "lower_seis_depth": "(16.0,,)", "name": null, "net_slip_rate": "(0.2,0.1,0.2)", "slip_type": "Sinistral-Reverse", "upper_seis_depth": "(2.0,,)", "downthrown_side_id": null, "reference": null, "epistemic_quality": null, "accuracy": null, "activity_confidence": null, "fs_name": null, "last_movement": null, "downthrown_side_dir": null, "vert_sep_rate": null, "strike_slip_rate": null, "exposure_quality": null, "shortening_rate": null, "notes": null, "index_right": 102, "NAME_EN": "Croatia" }, "geometry": { "type": "LineString", "coordinates": [ [ 16.062248, 46.028813 ], [ 16.333732, 46.09727 ], [ 16.415418, 46.112444 ], [ 16.555966, 46.134188 ] ] } },
{ "type": "Feature", "properties": { "average_dip": "(60.0,50,70)", "average_rake": "(35,20,50)", "catalog_id": "EUR_HRCS37", "catalog_name": "SHARE", "dip_dir": null, "lower_seis_depth": "(16.0,,)", "name": null, "net_slip_rate": "(0.2,0.1,0.2)", "slip_type": "Sinistral-Reverse", "upper_seis_depth": "(2.0,,)", "downthrown_side_id": null, "reference": null, "epistemic_quality": null, "accuracy": null, "activity_confidence": null, "fs_name": null, "last_movement": null, "downthrown_side_dir": null, "vert_sep_rate": null, "strike_slip_rate": null, "exposure_quality": null, "shortening_rate": null, "notes": null, "index_right": 102, "NAME_EN": "Croatia" }, "geometry": { "type": "LineString", "coordinates": [ [ 15.749918, 45.879249 ], [ 15.836409, 45.905907 ], [ 15.949328, 45.937744 ], [ 16.031014, 45.955307 ], [ 16.116304, 45.975886 ], [ 16.243638, 46.000046 ] ] } },
{ "type": "Feature", "properties": { "average_dip": "(77.5,70,85)", "average_rake": "(170,160,180)", "catalog_id": "EUR_SICS004", "catalog_name": "SHARE", "dip_dir": null, "lower_seis_depth": "(12.0,,)", "name": null, "net_slip_rate": "(0.2,0.15,0.35)", "slip_type": "Dextral", "upper_seis_depth": "(1.0,,)", "downthrown_side_id": null, "reference": null, "epistemic_quality": null, "accuracy": null, "activity_confidence": null, "fs_name": null, "last_movement": null, "downthrown_side_dir": null, "vert_sep_rate": null, "strike_slip_rate": null, "exposure_quality": null, "shortening_rate": null, "notes": null, "index_right": 102, "NAME_EN": "Croatia" }, "geometry": { "type": "LineString", "coordinates": [ [ 13.769344, 45.86628 ], [ 13.839312, 45.830193 ], [ 13.931441, 45.762753 ], [ 13.999131, 45.718879 ], [ 14.015832, 45.702589 ], [ 14.054321, 45.674533 ], [ 14.126341, 45.632366 ], [ 14.21339, 45.584122 ], [ 14.260021, 45.561589 ], [ 14.303686, 45.536986 ], [ 14.409212, 45.498077 ], [ 14.477137, 45.479313 ] ] } },
{ "type": "Feature", "properties": { "average_dip": "(67.5,60,75)", "average_rake": "(165,150,180)", "catalog_id": "EUR_SICS006", "catalog_name": "SHARE", "dip_dir": null, "lower_seis_depth": "(15.0,,)", "name": null, "net_slip_rate": "(0.2,0.1,0.3)", "slip_type": "Dextral", "upper_seis_depth": "(1.0,,)", "downthrown_side_id": null, "reference": null, "epistemic_quality": null, "accuracy": null, "activity_confidence": null, "fs_name": null, "last_movement": null, "downthrown_side_dir": null, "vert_sep_rate": null, "strike_slip_rate": null, "exposure_quality": null, "shortening_rate": null, "notes": null, "index_right": 102, "NAME_EN": "Croatia" }, "geometry": { "type": "LineString", "coordinates": [ [ 14.405134, 45.768897 ], [ 14.520393, 45.689999 ], [ 14.545122, 45.667361 ], [ 14.57104, 45.650198 ], [ 14.641458, 45.590287 ], [ 14.727511, 45.525349 ], [ 14.773839, 45.488053 ], [ 14.819679, 45.444735 ], [ 14.866866, 45.388647 ], [ 14.91943, 45.347926 ], [ 15.012864, 45.263843 ] ] } },
{ "type": "Feature", "properties": { "average_dip": "(77.5,70,85)", "average_rake": "(170,160,180)", "catalog_id": "EUR_SICS016", "catalog_name": "SHARE", "dip_dir": null, "lower_seis_depth": "(14.0,,)", "name": null, "net_slip_rate": "(0.1,0.05,0.1)", "slip_type": "Dextral", "upper_seis_depth": "(1.0,,)", "downthrown_side_id": null, "reference": null, "epistemic_quality": null, "accuracy": null, "activity_confidence": null, "fs_name": null, "last_movement": null, "downthrown_side_dir": null, "vert_sep_rate": null, "strike_slip_rate": null, "exposure_quality": null, "shortening_rate": null, "notes": null, "index_right": 102, "NAME_EN": "Croatia" }, "geometry": { "type": "LineString", "coordinates": [ [ 15.141925, 46.459395 ], [ 15.29115, 46.394952 ], [ 15.42724, 46.328134 ], [ 15.539565, 46.282826 ], [ 15.704951, 46.232262 ], [ 15.772981, 46.218273 ] ] } },
{ "type": "Feature", "properties": { "average_dip": "(80.0,70,90)", "average_rake": "(40,20,60)", "catalog_id": "EUR_SICS022", "catalog_name": "SHARE", "dip_dir": null, "lower_seis_depth": "(10.0,,)", "name": null, "net_slip_rate": "(0.1,0.05,0.15)", "slip_type": "Sinistral-Reverse", "upper_seis_depth": "(3.0,,)", "downthrown_side_id": null, "reference": null, "epistemic_quality": null, "accuracy": null, "activity_confidence": null, "fs_name": null, "last_movement": null, "downthrown_side_dir": null, "vert_sep_rate": null, "strike_slip_rate": null, "exposure_quality": null, "shortening_rate": null, "notes": null, "index_right": 102, "NAME_EN": "Croatia" }, "geometry": { "type": "LineString", "coordinates": [ [ 15.379428, 45.900356 ], [ 15.47985, 45.928942 ], [ 15.58301, 45.963246 ], [ 15.632106, 45.982191 ], [ 15.768334, 46.043923 ], [ 15.80759, 46.064887 ] ] } }
]
}
