{
"type": "FeatureCollection",
"name": "faults_cuba",
"crs": { "type": "name", "properties": { "name": "urn:ogc:def:crs:OGC:1.3:CRS84" } },
"features": [
{ "type": "Feature", "properties": { "average_dip": null, "average_rake": null, "catalog_id": "CA_161.0", "catalog_name": "GEM_Central_Am_Carib", "dip_dir": null, "lower_seis_depth": null, "name": "Cruce Peralejo Fault", "net_slip_rate": null, "slip_type": "Sinistral", "upper_seis_depth": null, "downthrown_side_id": null, "reference": "DEM", "epistemic_quality": "2", "accuracy": null, "activity_confidence": "2", "fs_name": null, "last_movement": null, "downthrown_side_dir": null, "vert_sep_rate": null, "strike_slip_rate": null, "exposure_quality": "2", "shortening_rate": null, "notes": null, "index_right": 134, "NAME_EN": "Cuba" }, "geometry": { "type": "LineString", "coordinates": [ [ -76.835372663605824, 20.273624616096871 ], [ -76.81908842437926, 20.274452628260935 ], [ -76.80611623380895, 20.273072607987498 ], [ -76.781827876996445, 20.277488672862496 ], [ -76.7431873093402, 20.278040680971873 ], [ -76.734907187699577, 20.280524717464058 ], [ -76.706478770066767, 20.282180741792185 ], [ -76.693506579496457, 20.281352729628122 ], [ -76.675566315941765, 20.283284758010936 ] ] } },
{ "type": "Feature", "properties": { "average_dip": null, "average_rake": null, "catalog_id": "CA_162.0", "catalog_name": "GEM_Central_Am_Carib", "dip_dir": null, "lower_seis_depth": null, "name": "Nipa-Guacanayabo Fault", "net_slip_rate": null, "slip_type": "Sinistral", "upper_seis_depth": null, "downthrown_side_id": null, "reference": "Garcia et al., 2003 BSSA", "epistemic_quality": null, "accuracy": "500000", "activity_confidence": null, "fs_name": null, "last_movement": null, "downthrown_side_dir": null, "vert_sep_rate": null, "strike_slip_rate": null, "exposure_quality": null, "shortening_rate": null, "notes": null, "index_right": 134, "NAME_EN": "Cuba" }, "geometry": { "type": "LineString", "coordinates": [ [ -75.5097251889418, 20.998963271815601 ], [ -75.567134032316801, 20.937138363565602 ], [ -75.637791070316794, 20.888561649940605 ], [ -75.726112367816796, 20.857649195815604 ], [ -75.821057762629295, 20.804656417315606 ], [ -75.986660195441786, 20.718543152253108 ], [ -76.119142141691782, 20.669966438628109 ], [ -76.34656948275429, 20.61034956281561 ], [ -76.487883558754277, 20.579437108690612 ], [ -76.631405667191771, 20.563980881628112 ], [ -76.876497267754274, 20.546316622128113 ], [ -77.106132641254263, 20.515404168003112 ], [ -77.254070814566759, 20.497739908503114 ] ] } },
{ "type": "Feature", "properties": { "average_dip": null, "average_rake": null, "catalog_id": "CA_163.0", "catalog_name": "GEM_Central_Am_Carib", "dip_dir": null, "lower_seis_depth": null, "name": "Pinar del Rio Fault", "net_slip_rate": null, "slip_type": "Sinistral-Reverse", "upper_seis_depth": null, "downthrown_side_id": null, "reference": "Garcia et al 2003 BSSA", "epistemic_quality": null, "accuracy": null, "activity_confidence": null, "fs_name": null, "last_movement": null, "downthrown_side_dir": null, "vert_sep_rate": null, "strike_slip_rate": null, "exposure_quality": null, "shortening_rate": null, "notes": null, "index_right": 134, "NAME_EN": "Cuba" }, "geometry": { "type": "LineString", "coordinates": [ [ -83.957795296844026, 22.14679513424722 ], [ -83.928676869074479, 22.176879576208147 ], [ -83.882998198023699, 22.240498510813616 ], [ -83.876788106793228, 22.255678733821426 ], [ -83.873959065232683, 22.267201903104631 ], [ -83.866575956769793, 22.281002105839004 ], [ -83.856915814855739, 22.291283256876117 ], [ -83.858088832088157, 22.299011370407367 ], [ -83.847117670914329, 22.339859970501127 ], [ -83.828901403304954, 22.368978398270656 ], [ -83.812617164078389, 22.391472728727681 ], [ -83.793158878222911, 22.426318240631979 ], [ -83.76362644437134, 22.46116375253628 ], [ -83.699179497601833, 22.511672494544086 ], [ -83.687104320209244, 22.523195663827288 ], [ -83.649705770799088, 22.542515947655414 ], [ -83.588156866603782, 22.564044263921051 ], [ -83.586500842275655, 22.566735303454255 ], [ -83.581739772332298, 22.569012336905427 ], [ -83.543375208730737, 22.577568462600741 ], [ -83.454294900080342, 22.614346002887853 ], [ -83.40558018442799, 22.630354238059727 ], [ -83.380049809369424, 22.642222412411293 ], [ -83.365697598525685, 22.651606550270667 ], [ -83.338649201166305, 22.659886671911295 ], [ -83.325677010595996, 22.661542696239419 ], [ -83.318776909228802, 22.665268750977699 ], [ -83.254191960431925, 22.685831053051917 ], [ -83.225625540771773, 22.698113233485511 ], [ -83.202303198150688, 22.702391296333168 ], [ -83.170562731861594, 22.711085424055831 ], [ -83.113429892541276, 22.731785728157391 ], [ -83.088727529646746, 22.743377898454266 ], [ -83.081689426252211, 22.744343912645672 ], [ -83.076583351240501, 22.747517959274578 ], [ -83.048706941717057, 22.75566007888786 ], [ -83.024556586931908, 22.766700241075359 ], [ -83.003028270666263, 22.780224439755049 ], [ -82.986744031439713, 22.785744520848798 ], [ -82.950311496220962, 22.806720829005048 ], [ -82.919675046150644, 22.820245027684734 ], [ -82.912222936674084, 22.82604111283317 ], [ -82.897594721775647, 22.830733181762859 ], [ -82.862818210885024, 22.852813506137856 ], [ -82.847913991931918, 22.868959743337069 ], [ -82.835769813525673, 22.877377867005038 ], [ -82.827489691885063, 22.885657988645672 ], [ -82.804167349263963, 22.899872197462077 ], [ -82.790091142474907, 22.913810402223795 ], [ -82.774772917439748, 22.924850564411297 ], [ -82.748414530217076, 22.93727074687224 ], [ -82.726886213951445, 22.95162295771599 ], [ -82.691005686842075, 22.96404314017693 ], [ -82.669753374631142, 22.969287217215992 ] ] } }
]
}
