{
"type": "FeatureCollection",
"name": "faults_costa_rica",
"crs": { "type": "name", "properties": { "name": "urn:ogc:def:crs:OGC:1.3:CRS84" } },
"features": [
{ "type": "Feature", "properties": { "average_dip": null, "average_rake": null, "catalog_id": "CA_103.0", "catalog_name": "GEM_Central_Am_Carib", "dip_dir": "SW", "lower_seis_depth": null, "name": "Rio Sucio Fault", "net_slip_rate": null, "slip_type": null, "upper_seis_depth": null, "downthrown_side_id": null, "reference": "Montero et al., 2013", "epistemic_quality": null, "accuracy": "100000", "activity_confidence": "1", "fs_name": null, "last_movement": null, "downthrown_side_dir": null, "vert_sep_rate": null, "strike_slip_rate": null, "exposure_quality": null, "shortening_rate": null, "notes": null, "index_right": 28, "NAME_EN": "Costa Rica" }, "geometry": { "type": "LineString", "coordinates": [ [ -83.998478945194762, 10.251561838457487 ], [ -83.988595393946071, 10.244823053515201 ], [ -83.986798384628131, 10.239881277890857 ], [ -83.98320436599225, 10.236287259254972 ], [ -83.979610347356356, 10.234490249937028 ], [ -83.97287156241407, 10.234490249937028 ], [ -83.963886515824356, 10.225505203347312 ], [ -83.960741749517965, 10.216969409087081 ], [ -83.958495487870536, 10.18956501698845 ], [ -83.955126095399393, 10.173616559291705 ], [ -83.93962689003213, 10.121054036741873 ], [ -83.931428035019024, 10.082418336406095 ], [ -83.921207544523213, 10.077588873864123 ], [ -83.881785652610844, 10.047601280870946 ], [ -83.878416260139701, 10.040413243599174 ], [ -83.868308082726273, 10.026935673714602 ], [ -83.865837194914107, 10.019523010278087 ] ] } },
{ "type": "Feature", "properties": { "average_dip": "(20,10,45)", "average_rake": null, "catalog_id": "CA_104.0", "catalog_name": "GEM_Central_Am_Carib", "dip_dir": "SW", "lower_seis_depth": null, "name": "Guapiles Fault", "net_slip_rate": null, "slip_type": "Reverse", "upper_seis_depth": null, "downthrown_side_id": null, "reference": "Montero et al., 2013", "epistemic_quality": "1", "accuracy": "100000", "activity_confidence": "1", "fs_name": null, "last_movement": null, "downthrown_side_dir": "NE", "vert_sep_rate": null, "strike_slip_rate": null, "exposure_quality": "1", "shortening_rate": null, "notes": null, "index_right": 28, "NAME_EN": "Costa Rica" }, "geometry": { "type": "LineString", "coordinates": [ [ -83.974107006320168, 10.235164128431254 ], [ -83.971299179260882, 10.236961137749198 ], [ -83.968491352201596, 10.235838006925482 ], [ -83.960854062600347, 10.225617516429681 ], [ -83.944793291821227, 10.214835460522023 ], [ -83.932326539677987, 10.208995180238711 ], [ -83.92356611925301, 10.19798849816631 ], [ -83.908740792379987, 10.202930273790653 ], [ -83.89391546550695, 10.205176535438083 ], [ -83.887850559058904, 10.208995180238711 ], [ -83.881336400281356, 10.209893684897683 ], [ -83.826078363754604, 10.206748918591282 ] ] } },
{ "type": "Feature", "properties": { "average_dip": "(90,,)", "average_rake": null, "catalog_id": "CA_105.0", "catalog_name": "GEM_Central_Am_Carib", "dip_dir": null, "lower_seis_depth": null, "name": "Atirro Fault", "net_slip_rate": null, "slip_type": "Dextral", "upper_seis_depth": null, "downthrown_side_id": null, "reference": "Montero et al., 2011", "epistemic_quality": null, "accuracy": "100000", "activity_confidence": "1", "fs_name": null, "last_movement": null, "downthrown_side_dir": null, "vert_sep_rate": null, "strike_slip_rate": null, "exposure_quality": null, "shortening_rate": null, "notes": null, "index_right": 28, "NAME_EN": "Costa Rica" }, "geometry": { "type": "LineString", "coordinates": [ [ -83.697592197521644, 9.90215583919994 ], [ -83.674231076388395, 9.844651541025764 ], [ -83.637055446123455, 9.790853574569843 ], [ -83.625374885556823, 9.776477500026298 ], [ -83.619871544520635, 9.766032383365754 ], [ -83.571576919100906, 9.721444089664292 ], [ -83.48341114943932, 9.631368997602399 ], [ -83.433544140866402, 9.591385540278166 ], [ -83.411530776721605, 9.569372176133363 ] ] } },
{ "type": "Feature", "properties": { "average_dip": "(20,10,35)", "average_rake": null, "catalog_id": "CA_106.0", "catalog_name": "GEM_Central_Am_Carib", "dip_dir": "SW", "lower_seis_depth": null, "name": null, "net_slip_rate": null, "slip_type": "Reverse", "upper_seis_depth": null, "downthrown_side_id": null, "reference": "DEM", "epistemic_quality": "2", "accuracy": "100000", "activity_confidence": "1", "fs_name": null, "last_movement": null, "downthrown_side_dir": "NE", "vert_sep_rate": null, "strike_slip_rate": null, "exposure_quality": null, "shortening_rate": null, "notes": null, "index_right": 28, "NAME_EN": "Costa Rica" }, "geometry": { "type": "LineString", "coordinates": [ [ -84.563401465279767, 10.308071112917542 ], [ -84.547003755253542, 10.303578589622685 ], [ -84.527012026591422, 10.306274103599598 ], [ -84.498933755998578, 10.31593302868354 ], [ -84.481412915148624, 10.330084477062337 ], [ -84.460747307992293, 10.372314196033988 ], [ -84.455356280038458, 10.390284289213415 ], [ -84.439632448506472, 10.406232746910156 ], [ -84.434016794387901, 10.421282699947925 ], [ -84.423683990809721, 10.425325970913295 ], [ -84.403692262147615, 10.428246111054953 ], [ -84.382802028826518, 10.426673727901752 ], [ -84.366853571129781, 10.419485690629983 ], [ -84.358093150704804, 10.413420784181927 ], [ -84.350006608774066, 10.406232746910156 ], [ -84.347760347126638, 10.401964849780043 ] ] } },
{ "type": "Feature", "properties": { "average_dip": "(20,10,35)", "average_rake": null, "catalog_id": "CA_107.0", "catalog_name": "GEM_Central_Am_Carib", "dip_dir": "SW", "lower_seis_depth": null, "name": "San Miguel Fault", "net_slip_rate": null, "slip_type": "Reverse", "upper_seis_depth": null, "downthrown_side_id": null, "reference": "Montero et al., 1998", "epistemic_quality": null, "accuracy": "100000", "activity_confidence": "1", "fs_name": null, "last_movement": null, "downthrown_side_dir": "NE", "vert_sep_rate": null, "strike_slip_rate": null, "exposure_quality": null, "shortening_rate": null, "notes": null, "index_right": 28, "NAME_EN": "Costa Rica" }, "geometry": { "type": "LineString", "coordinates": [ [ -84.400547495841252, 10.381074616458958 ], [ -84.366404318800335, 10.367147794244904 ], [ -84.3520282442568, 10.353220972030847 ], [ -84.33271039408892, 10.35187321504239 ], [ -84.316088057897943, 10.348728448735992 ], [ -84.296320955400574, 10.335250878851422 ], [ -84.268916563301957, 10.324468822943766 ], [ -84.250047965463551, 10.326265832261708 ], [ -84.23117936762516, 10.324468822943766 ], [ -84.209166003480362, 10.315933028683538 ], [ -84.193891424277851, 10.313237514706625 ], [ -84.167834789167685, 10.30020919715154 ], [ -84.144922920363911, 10.29931069249257 ] ] } },
{ "type": "Feature", "properties": { "average_dip": null, "average_rake": "(90,,)", "catalog_id": "CA_108.0", "catalog_name": "GEM_Central_Am_Carib", "dip_dir": "S", "lower_seis_depth": null, "name": "Siquirres-Matina Fault", "net_slip_rate": null, "slip_type": "Reverse", "upper_seis_depth": null, "downthrown_side_id": null, "reference": "Montero et al., 1998", "epistemic_quality": "1", "accuracy": "100000", "activity_confidence": null, "fs_name": null, "last_movement": null, "downthrown_side_dir": "N", "vert_sep_rate": null, "strike_slip_rate": null, "exposure_quality": "1", "shortening_rate": "(0.5, 0.1, 1.)", "notes": null, "index_right": 28, "NAME_EN": "Costa Rica" }, "geometry": { "type": "LineString", "coordinates": [ [ -83.518328233813691, 10.094002377917626 ], [ -83.506423047082322, 10.08726359297534 ], [ -83.494517860350953, 10.089509854622769 ], [ -83.489800710891359, 10.088386723799054 ], [ -83.480366411972156, 10.09916877970671 ], [ -83.473178374700382, 10.101639667518882 ], [ -83.452737393708787, 10.101639667518882 ], [ -83.423086739962741, 10.096248639565053 ], [ -83.417920338173644, 10.093103873258654 ], [ -83.413877067208276, 10.083444948174712 ], [ -83.400848749653193, 10.076481537067684 ], [ -83.378835385508395, 10.0728875184318 ], [ -83.366480946447538, 10.064800976501058 ], [ -83.340873563666861, 10.026614528494777 ], [ -83.33705491886623, 10.022122005199922 ], [ -83.321780339663732, 10.01156457545701 ], [ -83.315041554721446, 9.999434762560897 ], [ -83.301563984836875, 9.995391491595527 ], [ -83.25933426586522, 10.003927285855754 ], [ -83.250798471604995, 9.998985510231412 ], [ -83.237770154049912, 9.996289996254498 ], [ -83.222944827176889, 10.004825790514724 ], [ -83.213510528257686, 10.007072052162153 ], [ -83.197337444396211, 10.007072052162153 ], [ -83.175773332580903, 9.999434762560897 ], [ -83.155107725424557, 9.989551211312213 ], [ -83.142977912528437, 9.986406445005814 ], [ -83.1348913705977, 9.978319903075072 ] ] } },
{ "type": "Feature", "properties": { "average_dip": "(70,40,90)", "average_rake": "(-90,-90,-135)", "catalog_id": "CA_109.0", "catalog_name": "GEM_Central_Am_Carib", "dip_dir": "E", "lower_seis_depth": null, "name": "Caño Negro Fault", "net_slip_rate": null, "slip_type": "Dextral-Normal", "upper_seis_depth": null, "downthrown_side_id": null, "reference": "Montero et al., 1998, Montero et al. 2017", "epistemic_quality": "1", "accuracy": "100000", "activity_confidence": "1", "fs_name": null, "last_movement": null, "downthrown_side_dir": "E", "vert_sep_rate": null, "strike_slip_rate": null, "exposure_quality": "2", "shortening_rate": null, "notes": null, "index_right": 28, "NAME_EN": "Costa Rica" }, "geometry": { "type": "LineString", "coordinates": [ [ -85.299838346389066, 10.972515308226813 ], [ -85.23694302026108, 10.917257271700079 ], [ -85.193814796630448, 10.891200636589911 ], [ -85.176293955780508, 10.875476805057913 ], [ -85.165062647543365, 10.870535029433571 ], [ -85.151585077658794, 10.861999235173343 ], [ -85.143947788057545, 10.852115683924659 ], [ -85.125977694878117, 10.835942600063175 ], [ -85.112949377323034, 10.825160544155519 ], [ -85.095877788802582, 10.814378488247865 ], [ -85.073415172328296, 10.790118862455639 ], [ -85.062183864091153, 10.772598021605699 ], [ -85.050727929689259, 10.759794330215358 ], [ -85.042192135429033, 10.754627928426274 ] ] } },
{ "type": "Feature", "properties": { "average_dip": null, "average_rake": null, "catalog_id": "CA_110.0", "catalog_name": "GEM_Central_Am_Carib", "dip_dir": null, "lower_seis_depth": null, "name": "Penas Blancas Fault", "net_slip_rate": null, "slip_type": null, "upper_seis_depth": null, "downthrown_side_id": null, "reference": "Montero et al., 1998", "epistemic_quality": null, "accuracy": "100000", "activity_confidence": null, "fs_name": null, "last_movement": null, "downthrown_side_dir": null, "vert_sep_rate": null, "strike_slip_rate": null, "exposure_quality": null, "shortening_rate": null, "notes": null, "index_right": 28, "NAME_EN": "Costa Rica" }, "geometry": { "type": "LineString", "coordinates": [ [ -84.759556263641329, 10.294031977621101 ], [ -84.738216777990758, 10.303466276540298 ], [ -84.719797432481855, 10.307958799835156 ], [ -84.705196731773569, 10.320537865060754 ], [ -84.68902364791208, 10.321436369719725 ], [ -84.666336405273057, 10.341877350711322 ], [ -84.65218495689426, 10.347043752500408 ], [ -84.649264816752606, 10.349065387983092 ], [ -84.646793928940426, 10.354456415936921 ], [ -84.633091732891117, 10.364339967185606 ], [ -84.621186546159748, 10.365013845679833 ], [ -84.616244770535403, 10.367709359656747 ], [ -84.60748435011044, 10.368158611986233 ], [ -84.602093322156605, 10.368158611986233 ], [ -84.594905284884831, 10.364564593350348 ] ] } },
{ "type": "Feature", "properties": { "average_dip": null, "average_rake": null, "catalog_id": "CA_111.0", "catalog_name": "GEM_Central_Am_Carib", "dip_dir": null, "lower_seis_depth": null, "name": "Jabillos Fault", "net_slip_rate": null, "slip_type": null, "upper_seis_depth": null, "downthrown_side_id": null, "reference": "Montero et al., 1998", "epistemic_quality": null, "accuracy": "100000", "activity_confidence": "1", "fs_name": null, "last_movement": null, "downthrown_side_dir": null, "vert_sep_rate": null, "strike_slip_rate": null, "exposure_quality": null, "shortening_rate": null, "notes": null, "index_right": 28, "NAME_EN": "Costa Rica" }, "geometry": { "type": "LineString", "coordinates": [ [ -84.564805378809254, 10.357713495325692 ], [ -84.562559117161825, 10.363666088691378 ], [ -84.558965098525931, 10.367597046574376 ], [ -84.546835285629825, 10.375795901587489 ], [ -84.526506617720599, 10.381299242623689 ], [ -84.513029047836028, 10.381973121117918 ], [ -84.490117179032254, 10.387251835989375 ], [ -84.460691151450945, 10.4052219291688 ], [ -84.452829235684945, 10.407018938486743 ], [ -84.441597927447816, 10.404548050674572 ] ] } },
{ "type": "Feature", "properties": { "average_dip": "(90,,)", "average_rake": null, "catalog_id": "CA_112.0", "catalog_name": "GEM_Central_Am_Carib", "dip_dir": null, "lower_seis_depth": null, "name": "Candelaria Fault", "net_slip_rate": null, "slip_type": "Dextral", "upper_seis_depth": null, "downthrown_side_id": null, "reference": "Montero et al., 1998", "epistemic_quality": null, "accuracy": "100000", "activity_confidence": "1", "fs_name": null, "last_movement": null, "downthrown_side_dir": null, "vert_sep_rate": null, "strike_slip_rate": null, "exposure_quality": null, "shortening_rate": null, "notes": null, "index_right": 28, "NAME_EN": "Costa Rica" }, "geometry": { "type": "LineString", "coordinates": [ [ -84.486747786561082, 9.858931096514246 ], [ -84.448561338554811, 9.832200582909852 ], [ -84.402962227112013, 9.796260396551 ], [ -84.393752554357562, 9.785927592972829 ], [ -84.361069447387479, 9.756613878473891 ], [ -84.322096807804584, 9.707308435312836 ], [ -84.258752229347067, 9.660923132293442 ], [ -84.215174753386961, 9.636663506501218 ], [ -84.178785314698615, 9.610831497555793 ], [ -84.123751904336601, 9.559167479664943 ], [ -84.100840035532812, 9.534458601543237 ], [ -84.081072933035443, 9.51648850836381 ], [ -84.052320783948375, 9.497170658195929 ], [ -84.035249195427909, 9.479200565016502 ], [ -83.984932934525517, 9.43382607973845 ], [ -83.9575285424269, 9.398335145709082 ], [ -83.946746486519245, 9.3790172955412 ], [ -83.928327141010328, 9.355880800572688 ], [ -83.911255552489877, 9.340381595205432 ], [ -83.891488449992494, 9.31702047407218 ], [ -83.841172189090102, 9.237053559423735 ] ] } },
{ "type": "Feature", "properties": { "average_dip": "(20,15,35)", "average_rake": "(90,,)", "catalog_id": "CA_113.0", "catalog_name": "GEM_Central_Am_Carib", "dip_dir": "N", "lower_seis_depth": null, "name": "Longitudinal Fault", "net_slip_rate": null, "slip_type": "Reverse", "upper_seis_depth": null, "downthrown_side_id": null, "reference": "Montero et al., 1998", "epistemic_quality": null, "accuracy": "100000", "activity_confidence": "1", "fs_name": null, "last_movement": null, "downthrown_side_dir": "S", "vert_sep_rate": null, "strike_slip_rate": null, "exposure_quality": null, "shortening_rate": "(5., 0.1, 10.)", "notes": null, "index_right": 28, "NAME_EN": "Costa Rica" }, "geometry": { "type": "LineString", "coordinates": [ [ -83.84063232156079, 9.231871362046704 ], [ -83.84063232156079, 9.228388308517445 ], [ -83.835919955021197, 9.219783117445159 ], [ -83.829363618966127, 9.217529376926228 ], [ -83.823421939416207, 9.21261212488492 ], [ -83.817070488862853, 9.211997468379757 ], [ -83.805392015264758, 9.204416704816076 ], [ -83.796786824192466, 9.20482647581952 ], [ -83.767488197446355, 9.18659166616634 ], [ -83.73265766215377, 9.178601131599217 ], [ -83.730403921634831, 9.174503421564795 ], [ -83.73511628817441, 9.166103115994231 ], [ -83.727330639109013, 9.1493025048531 ], [ -83.727330639109013, 9.142746168798025 ], [ -83.725486669593522, 9.139058229767045 ], [ -83.715857051012634, 9.130657924196479 ], [ -83.70930071495755, 9.121642962120751 ], [ -83.697827126861171, 9.112218229041581 ], [ -83.695573386342247, 9.107915633505437 ], [ -83.688197508280282, 9.10094952644692 ], [ -83.687173080771672, 9.09746647291766 ], [ -83.679182546204586, 9.087836854336771 ], [ -83.677748347692543, 9.082509831292022 ], [ -83.663201477070345, 9.076363266240389 ], [ -83.644147125410271, 9.060587082607864 ], [ -83.635541934337994, 9.056694258075163 ], [ -83.632673537313892, 9.053620975549347 ], [ -83.619355979702021, 9.051572120532136 ], [ -83.616077811674486, 9.052596548040741 ], [ -83.602350483059169, 9.038664333923705 ], [ -83.593745291986892, 9.025141890810113 ], [ -83.574895825828548, 9.007111966658655 ], [ -83.557890329185696, 8.994204180050225 ], [ -83.550719336625448, 8.991130897524409 ], [ -83.532279641470552, 8.98744295849343 ], [ -83.5220353663845, 8.990721126520967 ], [ -83.513020404308776, 8.985598988977939 ], [ -83.506873839257139, 8.9784279964177 ], [ -83.498063762683131, 8.972076545864347 ], [ -83.488843915105676, 8.967978835829925 ], [ -83.471428647459391, 8.968593492335089 ], [ -83.43311505863754, 8.964905553304108 ], [ -83.429836890609977, 8.957324789740435 ], [ -83.428197806596216, 8.946260972647496 ], [ -83.422461012548013, 8.935197155554555 ], [ -83.385991393241667, 8.911840208358349 ], [ -83.367961469090204, 8.90446433029639 ], [ -83.350341315942188, 8.888893032165585 ], [ -83.331491849783831, 8.879673184588137 ], [ -83.315101009646142, 8.867584939986592 ], [ -83.311003299611727, 8.86348722995217 ], [ -83.299734597017064, 8.832344633690562 ], [ -83.283548642381092, 8.822510129607949 ], [ -83.277606962831186, 8.816568450058037 ], [ -83.262855206707286, 8.808987686494358 ], [ -83.247079023074761, 8.792187075353228 ], [ -83.237449404493859, 8.786040510301595 ], [ -83.232327266950833, 8.779279288744798 ], [ -83.217985281830366, 8.772518067188001 ], [ -83.213272915290773, 8.763503105112273 ], [ -83.206716579235703, 8.757971196565803 ], [ -83.197291846156531, 8.754283257534823 ], [ -83.193399021623833, 8.749980661998681 ], [ -83.185818258060152, 8.747317150476306 ], [ -83.157953829826084, 8.729901882830012 ], [ -83.147299783736585, 8.715559897709536 ], [ -83.132548027612657, 8.701217912589058 ], [ -83.114108332457761, 8.697325088056356 ], [ -83.096897950313192, 8.688105240478908 ], [ -83.078868026161729, 8.682778217434159 ], [ -83.069033522079124, 8.6831879884376 ], [ -83.050184055920781, 8.680319591413506 ], [ -83.036251841803747, 8.674173026361872 ], [ -82.996504054469852, 8.663109209268933 ], [ -82.957166038139391, 8.645489056120917 ], [ -82.941594740008597, 8.636064323041747 ], [ -82.914549853781409, 8.622951650931597 ], [ -82.899388326654034, 8.611068291831771 ], [ -82.878490005478483, 8.59959470373539 ], [ -82.854313516275397, 8.569271649480667 ], [ -82.837103134130828, 8.559437145398054 ] ] } },
{ "type": "Feature", "properties": { "average_dip": "(90,,)", "average_rake": null, "catalog_id": "CA_188.0", "catalog_name": "GEM_Central_Am_Carib", "dip_dir": null, "lower_seis_depth": null, "name": "Falla Canoas", "net_slip_rate": null, "slip_type": "Dextral", "upper_seis_depth": null, "downthrown_side_id": null, "reference": "Camacho 2003 Tecnociencia", "epistemic_quality": "1", "accuracy": "50000", "activity_confidence": "1", "fs_name": null, "last_movement": null, "downthrown_side_dir": null, "vert_sep_rate": null, "strike_slip_rate": null, "exposure_quality": "2", "shortening_rate": null, "notes": null, "index_right": 28, "NAME_EN": "Costa Rica" }, "geometry": { "type": "LineString", "coordinates": [ [ -82.859778216545081, 8.572690613355141 ], [ -82.85830260064121, 8.552523862668913 ], [ -82.859614259222425, 8.538095618275515 ], [ -82.866828381419126, 8.5151415931042 ], [ -82.876829778100912, 8.493171311868798 ] ] } },
{ "type": "Feature", "properties": { "average_dip": "(90,,)", "average_rake": null, "catalog_id": "CA_189.0", "catalog_name": "GEM_Central_Am_Carib", "dip_dir": null, "lower_seis_depth": null, "name": "Zona Falla Media", "net_slip_rate": null, "slip_type": "Dextral", "upper_seis_depth": null, "downthrown_side_id": null, "reference": "Camacho 2003 Tecnociencia", "epistemic_quality": "1", "accuracy": "60000", "activity_confidence": "1", "fs_name": null, "last_movement": null, "downthrown_side_dir": null, "vert_sep_rate": null, "strike_slip_rate": null, "exposure_quality": "2", "shortening_rate": null, "notes": null, "index_right": 28, "NAME_EN": "Costa Rica" }, "geometry": { "type": "LineString", "coordinates": [ [ -82.936920136852933, 8.306096006722575 ], [ -82.930033929301544, 8.283469896196562 ], [ -82.92085231923302, 8.264122932123596 ], [ -82.919540660651805, 8.253629663473852 ], [ -82.91494985561755, 8.241824736242888 ], [ -82.91019509326064, 8.214443863359962 ], [ -82.909867178615329, 8.181980313474815 ], [ -82.913146325068382, 8.163617093337763 ], [ -82.915933599553469, 8.107051817022734 ], [ -82.911342794519186, 8.03031979002148 ] ] } },
{ "type": "Feature", "properties": { "average_dip": null, "average_rake": null, "catalog_id": "CA_190.0", "catalog_name": "GEM_Central_Am_Carib", "dip_dir": null, "lower_seis_depth": null, "name": "Falla Longitudinal-Boca Chica", "net_slip_rate": null, "slip_type": null, "upper_seis_depth": null, "downthrown_side_id": null, "reference": "Camacho 2003 Tectnociencia", "epistemic_quality": null, "accuracy": "60000", "activity_confidence": "1", "fs_name": null, "last_movement": null, "downthrown_side_dir": null, "vert_sep_rate": null, "strike_slip_rate": null, "exposure_quality": null, "shortening_rate": null, "notes": null, "index_right": 28, "NAME_EN": "Costa Rica" }, "geometry": { "type": "LineString", "coordinates": [ [ -82.909703221292659, 8.623517383377342 ], [ -82.859204365915772, 8.607121651112116 ], [ -82.844120292231764, 8.605154163240289 ], [ -82.799195985825065, 8.590070089556281 ], [ -82.790506247724494, 8.588922388297714 ], [ -82.756403124612817, 8.575477887840229 ], [ -82.740499264315559, 8.573838314613708 ], [ -82.711314860883462, 8.56236130202805 ], [ -82.674260505964043, 8.553507606604828 ], [ -82.662127664087777, 8.546949313698738 ], [ -82.646059846467864, 8.541046850083257 ], [ -82.633599089946287, 8.540391020792647 ], [ -82.604742601159487, 8.531537325369426 ], [ -82.5614578679793, 8.526618605689858 ], [ -82.542766733196942, 8.517764910266637 ], [ -82.492923707110648, 8.499401690129583 ], [ -82.454229778964717, 8.48169429928314 ], [ -82.4096333872033, 8.470545201342786 ] ] } },
{ "type": "Feature", "properties": { "average_dip": "(90,,)", "average_rake": null, "catalog_id": "CA_250.0", "catalog_name": "GEM_Central_Am_Carib", "dip_dir": null, "lower_seis_depth": null, "name": "Aguacaliente Fault", "net_slip_rate": null, "slip_type": "Sinistral", "upper_seis_depth": null, "downthrown_side_id": null, "reference": "Alonso-Henar 2013", "epistemic_quality": "1", "accuracy": "60000", "activity_confidence": "1", "fs_name": null, "last_movement": "1910", "downthrown_side_dir": null, "vert_sep_rate": null, "strike_slip_rate": null, "exposure_quality": "1", "shortening_rate": null, "notes": "paleoseismology suggests recurrence of ~500 years", "index_right": 28, "NAME_EN": "Costa Rica" }, "geometry": { "type": "LineString", "coordinates": [ [ -84.007674701445467, 9.86822187984601 ], [ -84.001282519408761, 9.86225584327841 ], [ -83.963994790861264, 9.850110697408658 ], [ -83.927133207782887, 9.845423097248402 ], [ -83.893467715722878, 9.84478387904473 ] ] } },
{ "type": "Feature", "properties": { "average_dip": "(65,50,80)", "average_rake": null, "catalog_id": "CA_251.0", "catalog_name": "GEM_Central_Am_Carib", "dip_dir": "SW", "lower_seis_depth": null, "name": "Chiquero Fault", "net_slip_rate": null, "slip_type": "Normal-Dextral", "upper_seis_depth": null, "downthrown_side_id": null, "reference": "Montero et al. 2017", "epistemic_quality": "1", "accuracy": "100000", "activity_confidence": "1", "fs_name": null, "last_movement": null, "downthrown_side_dir": "SW", "vert_sep_rate": null, "strike_slip_rate": null, "exposure_quality": "1", "shortening_rate": null, "notes": null, "index_right": 28, "NAME_EN": "Costa Rica" }, "geometry": { "type": "LineString", "coordinates": [ [ -84.989247799365558, 10.666536991884913 ], [ -84.987416287571833, 10.671665224907338 ], [ -84.988148892289317, 10.677892365005997 ], [ -84.991445613518025, 10.691811854638292 ], [ -84.999137963051652, 10.706097646629333 ], [ -84.998405358334168, 10.710493274934269 ], [ -85.010859638531485, 10.719650833902884 ], [ -85.013423755042695, 10.72404646220782 ], [ -85.015621569195162, 10.733936625893925 ], [ -85.018918290423869, 10.73906485891635 ], [ -85.035035594208637, 10.747856115526222 ], [ -85.042361641383522, 10.76031039572354 ] ] } },
{ "type": "Feature", "properties": { "average_dip": "(65,50,80)", "average_rake": null, "catalog_id": "CA_252.0", "catalog_name": "GEM_Central_Am_Carib", "dip_dir": "W", "lower_seis_depth": null, "name": "Chiripa Fault", "net_slip_rate": null, "slip_type": "Normal-Dextral", "upper_seis_depth": null, "downthrown_side_id": null, "reference": "Montero et al. 2017", "epistemic_quality": "1", "accuracy": "50000", "activity_confidence": "1", "fs_name": null, "last_movement": null, "downthrown_side_dir": "W", "vert_sep_rate": null, "strike_slip_rate": null, "exposure_quality": "2", "shortening_rate": null, "notes": null, "index_right": 28, "NAME_EN": "Costa Rica" }, "geometry": { "type": "LineString", "coordinates": [ [ -84.975511460912642, 10.682929022438735 ], [ -84.977526123885738, 10.678899696492543 ], [ -84.977709275065109, 10.670474742241417 ], [ -84.980639693935075, 10.65966882265845 ], [ -84.978258728603237, 10.650694414869205 ], [ -84.974595705015801, 10.641903158259334 ], [ -84.962324575997854, 10.635126564622558 ], [ -84.952800714670488, 10.623954342680847 ], [ -84.951152354056134, 10.620657621452146 ], [ -84.951518656414891, 10.602159352335541 ], [ -84.944742062778104, 10.586591502088893 ], [ -84.93759916678259, 10.563148151129237 ], [ -84.918734595307242, 10.541170009604562 ], [ -84.915804176437277, 10.532745055353436 ] ] } },
{ "type": "Feature", "properties": { "average_dip": "(60,50,75)", "average_rake": null, "catalog_id": "CA_253.0", "catalog_name": "GEM_Central_Am_Carib", "dip_dir": "W", "lower_seis_depth": null, "name": "Cote-Arenal Fault", "net_slip_rate": null, "slip_type": "Normal-Dextral", "upper_seis_depth": null, "downthrown_side_id": null, "reference": "Montero et al. 2017", "epistemic_quality": "1", "accuracy": null, "activity_confidence": "1", "fs_name": null, "last_movement": null, "downthrown_side_dir": "W", "vert_sep_rate": null, "strike_slip_rate": null, "exposure_quality": "2", "shortening_rate": null, "notes": null, "index_right": 28, "NAME_EN": "Costa Rica" }, "geometry": { "type": "LineString", "coordinates": [ [ -84.960309913024759, 10.684943685411829 ], [ -84.957562645334178, 10.680914359465639 ], [ -84.951518656414891, 10.663331846245896 ], [ -84.938881225038202, 10.63915589056875 ], [ -84.929174212531464, 10.6083864924342 ], [ -84.922214467715321, 10.60051099172119 ], [ -84.920566107100967, 10.595932212236882 ], [ -84.913789513464209, 10.591719735111321 ], [ -84.908294978083035, 10.585858897371406 ], [ -84.894009186091992, 10.567543779434175 ] ] } },
{ "type": "Feature", "properties": { "average_dip": "(30,20,50)", "average_rake": null, "catalog_id": "CA_254.0", "catalog_name": "GEM_Central_Am_Carib", "dip_dir": "S", "lower_seis_depth": null, "name": "Upala Fault", "net_slip_rate": null, "slip_type": "Reverse", "upper_seis_depth": null, "downthrown_side_id": null, "reference": "Montero et al. 2017", "epistemic_quality": "1", "accuracy": "50000", "activity_confidence": "1", "fs_name": null, "last_movement": null, "downthrown_side_dir": "N", "vert_sep_rate": null, "strike_slip_rate": null, "exposure_quality": "2", "shortening_rate": null, "notes": "Looks to me like the toe of a big landslide; it's in an otherwise transtensional zone.", "index_right": 28, "NAME_EN": "Costa Rica" }, "geometry": { "type": "LineString", "coordinates": [ [ -85.059211549885802, 10.808570731488144 ], [ -85.052251805069659, 10.804541405541952 ], [ -85.046024664971, 10.804541405541952 ], [ -85.042727943742292, 10.802343591389485 ], [ -85.039797524872341, 10.795383846573337 ], [ -85.033570384773682, 10.797581660725806 ], [ -85.029907361186233, 10.805640312618188 ], [ -85.0249622793432, 10.810951696819986 ], [ -85.0176362321683, 10.813332662151826 ], [ -85.011958545607754, 10.813332662151826 ], [ -85.007379766123449, 10.811684301537476 ], [ -84.998039055975468, 10.802526742568858 ], [ -84.994742334746761, 10.792636578882753 ], [ -84.989247799365586, 10.784944229349117 ] ] } },
{ "type": "Feature", "properties": { "average_dip": "(90,)", "average_rake": null, "catalog_id": "CA_255.0", "catalog_name": "GEM_Central_Am_Carib", "dip_dir": null, "lower_seis_depth": null, "name": "Haciendas Fault", "net_slip_rate": null, "slip_type": "Dextral", "upper_seis_depth": null, "downthrown_side_id": null, "reference": "Montero et al. 2017", "epistemic_quality": "1", "accuracy": "50000", "activity_confidence": "1", "fs_name": null, "last_movement": null, "downthrown_side_dir": null, "vert_sep_rate": null, "strike_slip_rate": null, "exposure_quality": "1", "shortening_rate": null, "notes": null, "index_right": 28, "NAME_EN": "Costa Rica" }, "geometry": { "type": "LineString", "coordinates": [ [ -85.204633586307423, 10.923589672133966 ], [ -85.211959633482309, 10.926520091003923 ], [ -85.223864460141513, 10.936043952331284 ], [ -85.23979861274691, 10.953992767909771 ], [ -85.249139322894891, 10.977252967690054 ], [ -85.264707173141545, 10.996850143882893 ], [ -85.288883128818682, 11.01479895946138 ], [ -85.292546152406132, 11.022491308995017 ], [ -85.300421653119145, 11.031465716784261 ], [ -85.335769830738002, 11.064707655840335 ], [ -85.348040959755949, 11.073315761270834 ], [ -85.361777298208864, 11.078443994293259 ], [ -85.372400066612471, 11.086502646185636 ], [ -85.38870052157661, 11.102986252329146 ], [ -85.40426837182325, 11.122033974983866 ] ] } },
{ "type": "Feature", "properties": { "average_dip": "(30,10,50)", "average_rake": null, "catalog_id": "CA_256.0", "catalog_name": "GEM_Central_Am_Carib", "dip_dir": "S", "lower_seis_depth": null, "name": null, "net_slip_rate": null, "slip_type": "Reverse", "upper_seis_depth": null, "downthrown_side_id": null, "reference": "Montero et al. 2013", "epistemic_quality": "2", "accuracy": "50000", "activity_confidence": "1", "fs_name": null, "last_movement": null, "downthrown_side_dir": "N", "vert_sep_rate": null, "strike_slip_rate": null, "exposure_quality": "2", "shortening_rate": null, "notes": null, "index_right": 28, "NAME_EN": "Costa Rica" }, "geometry": { "type": "LineString", "coordinates": [ [ -84.178930274318006, 9.966088991161637 ], [ -84.164253434875405, 9.951731213446052 ], [ -84.157553138608137, 9.938968744365534 ], [ -84.1545220522015, 9.926206275285015 ], [ -84.149895657159817, 9.915677238293586 ] ] } },
{ "type": "Feature", "properties": { "average_dip": "(30,20,50)", "average_rake": null, "catalog_id": "CA_257.0", "catalog_name": "GEM_Central_Am_Carib", "dip_dir": "S", "lower_seis_depth": null, "name": null, "net_slip_rate": null, "slip_type": "Reverse", "upper_seis_depth": null, "downthrown_side_id": null, "reference": "Montero et al. 2013", "epistemic_quality": "2", "accuracy": "40000", "activity_confidence": "1", "fs_name": null, "last_movement": null, "downthrown_side_dir": "N", "vert_sep_rate": null, "strike_slip_rate": null, "exposure_quality": "2", "shortening_rate": null, "notes": null, "index_right": 28, "NAME_EN": "Costa Rica" }, "geometry": { "type": "LineString", "coordinates": [ [ -84.132541479416204, 9.926432133918329 ], [ -84.123875312781962, 9.922422415027855 ], [ -84.119089519267519, 9.910910641439074 ], [ -84.110940735715914, 9.903020549428787 ], [ -84.108871203385348, 9.896165223583782 ], [ -84.088563917391653, 9.888404477344155 ], [ -84.081191208464006, 9.882195880352453 ], [ -84.077440181114852, 9.874952517195469 ], [ -84.069550089104567, 9.866545042102539 ], [ -84.0619186886356, 9.86382878091867 ] ] } },
{ "type": "Feature", "properties": { "average_dip": "(50,45,70)", "average_rake": null, "catalog_id": "CA_258.0", "catalog_name": "GEM_Central_Am_Carib", "dip_dir": "SW", "lower_seis_depth": null, "name": "Azul Fault", "net_slip_rate": null, "slip_type": "Dextral-Normal", "upper_seis_depth": null, "downthrown_side_id": null, "reference": "Montero et al., 2013", "epistemic_quality": "1", "accuracy": "50000", "activity_confidence": "2", "fs_name": null, "last_movement": null, "downthrown_side_dir": "SW", "vert_sep_rate": null, "strike_slip_rate": null, "exposure_quality": "1", "shortening_rate": null, "notes": null, "index_right": 28, "NAME_EN": "Costa Rica" }, "geometry": { "type": "LineString", "coordinates": [ [ -83.698974456162389, 9.938202599048431 ], [ -83.671035769699728, 9.925138676211725 ], [ -83.65706642646839, 9.909099800649829 ], [ -83.646460073274241, 9.900174942474257 ], [ -83.638440635493296, 9.887757748490854 ], [ -83.638181943951963, 9.859819062028194 ], [ -83.648270914063488, 9.844038878007618 ], [ -83.652151287183301, 9.828000002445723 ], [ -83.65240997872462, 9.819721873123454 ], [ -83.649046988687445, 9.80963290301194 ] ] } },
{ "type": "Feature", "properties": { "average_dip": "(90,,)", "average_rake": null, "catalog_id": "CA_259.0", "catalog_name": "GEM_Central_Am_Carib", "dip_dir": null, "lower_seis_depth": null, "name": "Kababeta Fault", "net_slip_rate": null, "slip_type": "Dextral", "upper_seis_depth": null, "downthrown_side_id": null, "reference": "Montero et al., 2013", "epistemic_quality": "2", "accuracy": "100000", "activity_confidence": "1", "fs_name": null, "last_movement": null, "downthrown_side_dir": null, "vert_sep_rate": null, "strike_slip_rate": null, "exposure_quality": "2", "shortening_rate": null, "notes": null, "index_right": 28, "NAME_EN": "Costa Rica" }, "geometry": { "type": "LineString", "coordinates": [ [ -83.613864939067795, 9.915437743412189 ], [ -83.61283017290252, 9.901985783263502 ], [ -83.604034660497604, 9.877668778379338 ], [ -83.587478401853062, 9.861629902817443 ], [ -83.557987566142486, 9.845073644172905 ], [ -83.536257476671523, 9.825413087032516 ], [ -83.522805516522837, 9.805235146809485 ], [ -83.511423088704717, 9.79488748515665 ], [ -83.495384213142827, 9.775226928016261 ], [ -83.485036551489983, 9.768500947941918 ], [ -83.43795469096959, 9.72038432125623 ], [ -83.415707218415989, 9.674337226901109 ], [ -83.375351337969931, 9.621046769389004 ], [ -83.356208163912186, 9.59983406300069 ] ] } },
{ "type": "Feature", "properties": { "average_dip": "(15,10,30)", "average_rake": null, "catalog_id": "CA_nan", "catalog_name": "GEM_Central_Am_Carib", "dip_dir": "S", "lower_seis_depth": null, "name": "North Panama Deformed Belt", "net_slip_rate": null, "slip_type": "Reverse", "upper_seis_depth": null, "downthrown_side_id": null, "reference": null, "epistemic_quality": "1", "accuracy": "1000000", "activity_confidence": "1", "fs_name": null, "last_movement": null, "downthrown_side_dir": "N", "vert_sep_rate": null, "strike_slip_rate": null, "exposure_quality": "2", "shortening_rate": null, "notes": "Understudied structure.  Poorly mapped on low-resolution bathymetry.", "index_right": 28, "NAME_EN": "Costa Rica" }, "geometry": { "type": "LineString", "coordinates": [ [ -83.115250069987127, 9.983024249825718 ], [ -83.04905756843695, 9.992480321475744 ], [ -82.992321138536809, 10.009028446863288 ], [ -82.956860869849208, 10.013756482688301 ], [ -82.881212296649011, 10.001936393125769 ], [ -82.852844081698933, 9.983024249825718 ], [ -82.815019795098834, 9.961748088613161 ], [ -82.755919347286166, 9.945199963225617 ], [ -82.737007203986124, 9.923923802013061 ], [ -82.713367024861057, 9.867187372112909 ], [ -82.68972684573599, 9.838819157162835 ], [ -82.687362827823492, 9.824635049687796 ], [ -82.647174523310881, 9.786810763087695 ], [ -82.576253985935693, 9.763170583962632 ], [ -82.519517556035538, 9.722982279450026 ], [ -82.495877376910485, 9.708798171974987 ], [ -82.446233000747853, 9.654425759987342 ], [ -82.382404517110174, 9.614237455474735 ], [ -82.325668087210019, 9.571685133049622 ], [ -82.2051031736722, 9.512584685236964 ], [ -82.119998528821981, 9.460576291161825 ], [ -82.00652566902167, 9.425116022474231 ], [ -81.947425221209016, 9.370743610486585 ], [ -81.819768253933674, 9.306915126848915 ], [ -81.722843519520922, 9.306915126848915 ], [ -81.656651017970745, 9.304551108936408 ], [ -81.592822534333067, 9.273818876073827 ], [ -81.528994050695403, 9.314007180586435 ], [ -81.510081907395346, 9.418023968736712 ], [ -81.481713692445268, 9.481852452374381 ], [ -81.462801549145226, 9.507856649411952 ], [ -81.356420743082452, 9.585869240524657 ], [ -81.304412349007322, 9.670973885374885 ], [ -81.266588062407223, 9.727710315275036 ], [ -81.219307704157089, 9.777354691437669 ], [ -81.183847435469502, 9.845911210900351 ], [ -81.155479220519425, 9.867187372112907 ], [ -81.105834844356792, 9.893191569150478 ], [ -81.044370378631626, 9.914467730363034 ] ] } }
]
}
